title,url,status,longitude,latitude,address
"広島県呉市｜JR呉線「安芸川尻駅」から徒歩4分、山頂から瀬戸内海を一望できる野呂山のふもとにある２階建家屋が０円",https://zero.estate/?p=154698,募集中,132.6908255,34.2349264,
"北海道函館市｜函館新外環状道路「赤川IC」から車で4分、四季を楽しめる道南四季の杜公園からほど近い家屋が０円",https://zero.estate/?p=155395,募集中,140.7747449,41.8532203,
"栃木県那須町｜JR東北本線「黒田原駅」から車で21分、那須どうぶつ王国や那須ハートフルファームにほど近い土地2筆が０円",https://zero.estate/?p=156052,募集中,140.03495395000002,37.094695599999994,
"千葉県いすみ市｜日本三岩船地蔵尊のひとつ「岩船地蔵尊」にほど近い、海の近くにある物件が０円",https://zero.estate/?p=155794,募集中,140.392156,35.2084843,
"大分県九重町｜JR九州「豊後中村駅」から車で20分、周囲に多数のキャンプ場や登山ゲートが集中している土地が０円",https://zero.estate/?p=155774,募集中,131.1788379430619,33.138795626900986,
"北海道室蘭市｜JR室蘭本線「輪西駅」から徒歩18分（車で4分）、北海道の自然100選に選ばれた地球岬にほど近い二階建て家屋が０円",https://zero.estate/?p=155954,募集中,141.00797219999998,42.324999999999996,
"宮城県山元町｜JR常磐線「山下駅」から車で5分、りんご畑や果樹園が集まるアップルライン沿線そばにある土地が０円",https://zero.estate/?p=155997,募集中,140.870878,37.958823,
"香川県坂出市｜JR予讃線「坂出駅」から車で8分、桜の名所として知られる鎌田池公園にほど近い平屋建家屋と畑が０円",https://zero.estate/?p=155942,募集中,133.8568611,34.2991667,
"栃木県佐野市｜JR両毛線「佐野駅」から徒歩6分、城山公園近くの住宅地にあり主要駅へのアクセス良好な平屋が０円",https://zero.estate/?p=155953,募集中,139.5786929,36.3208527,
"千葉県匝瑳市｜JR総武本線「干潟駅」から車で12分ほど、サーファーに人気のある吉崎浜まで徒歩圏内の土地が０円",https://zero.estate/?p=155855,募集中,140.59081400052145,35.69272519292734,
"群馬県富岡市｜上信越自動車道「富岡IC」から車で7分、世界文化遺産として名高い富岡製糸場そばにある土地2筆が０円",https://zero.estate/?p=155820,募集中,138.87947634562846,36.25876278398493,
"栃木県那須町｜JR東北本線「黒田原駅」から車で11分、動物園やキャンプ場などレジャー施設が豊富なエリアにある土地が０円",https://zero.estate/?p=155898,募集中,139.92719921335734,37.03148149471117,
"鹿児島県喜界町｜(喜界島) 喜界空港・スギラビーチから車で9分、敷地内に大きなガジュマルの木がある古家が０円",https://zero.estate/?p=155802,募集中,129.9442493,28.2823708,
"静岡県伊豆の国市｜伊豆スカイライン「玄岳IC」から車で14分、伊豆エメラルドタウン内にある土地が０円",https://zero.estate/?p=155639,募集中,138.9996667,35.07911109999999,
"岐阜県恵那市｜中央自動車道「恵那IC」から車で38分、郵便局が徒歩圏内にある愛知県との県境付近の家屋が０円",https://zero.estate/?p=154575,募集中,137.4871731805274,35.26226001244605,
"新潟県佐渡市｜新潟県道45号「佐渡一周線」沿いにある、日本の夕陽百選に選ばれた長手岬にほど近い海に面した建物が０円",https://zero.estate/?p=155830,一時停止,138.25703959999998,37.973189999999995,
"静岡県伊豆市｜伊豆スカイライン「冷川IC」から車で5分、伊豆を代表する名瀑・万城の滝そばにある土地が０円",https://zero.estate/?p=155764,募集中,138.95382947614104,34.93696022899399,
"山梨県鳴沢村｜富士急行「河口湖駅」から車で19分、道の駅なるさわ近くにある紅葉台センチュリーヴィラの一区画が０円",https://zero.estate/?p=155632,一時停止,138.68102397152808,35.47163301961456,
"福島県喜多方市｜JR磐越西線「喜多方駅」から車で8分、蛇崩山のふもとにあり周りを田畑で囲まれた土地が０円",https://zero.estate/?p=155744,一時停止,139.8346944,37.63025,
"宮城県蔵王町｜東北道「白石IC」から車で27分、四季折々の自然の囲まれた蔵王連峰の東麓にある温泉付き物件が０円",https://zero.estate/?p=155495,募集中,140.58758895346833,38.11655240774426,
"福岡県北九州市｜関門自動車道「門司港IC」から車で3分、門司中央小学校にほど近い高台の住宅地にある家屋が０円",https://zero.estate/?p=155738,一時停止,130.9749828068155,33.94878457468206,
"山口県山口市｜JR山口線「仁保駅」から車で約10分、直売所や物産館が道の駅・仁保の郷からほど近い土地が０円",https://zero.estate/?p=155277,募集中,131.47931975783007,34.20013226826777,
"北海道釧路市｜JR北海道「釧路駅」から車で8分、釧路港を一望できる釧路埼灯台にほど近い二階建て家屋が０円",https://zero.estate/?p=155659,募集中,144.375516,42.968325,
"宮城県山元町｜常磐道「宮城山元IC」から車で約3分、海と山に囲まれた緑豊かな地域にある手つかずの更地が０円",https://zero.estate/?p=155556,募集中,140.86364849360228,37.99151841798827,
"群馬県高崎市｜JR北陸新幹線「安中榛名駅」から車で約15分、榛名山麓に位置するゴルフコースからほど近く、自然環境のよい土地が０円",https://zero.estate/?p=155518,募集中,138.84507932618487,36.41331461765706,
"新潟県柏崎市｜JR信越本線「安田駅」から車で15分、谷川新田の八重千本桜からほど近い小さな集落にある土地が０円",https://zero.estate/?p=155173,募集中,138.56935317687507,37.2815252347803,
"秋田県湯沢市｜JR奥羽本線「横堀駅」から車で11分、湯沢市雄勝スポーツセンターからほど近い二階建て家屋が０円",https://zero.estate/?p=155357,募集中,140.45119172733874,39.00995306687196,
"静岡県浜松市｜浜松西ICから車で約12分、桜の名所・東大山河津桜にほど近く農園や田畑に囲まれた土地が０円",https://zero.estate/?p=155549,一時停止,137.6772701,34.7833169,
"愛知県半田市｜知多半島道路「半田中央IC」から車で5分、半田ぴよログスポーツパークからほど近い土地が０円",https://zero.estate/?p=155338,募集中,136.86628672737868,34.89866230235596,
"広島県尾道市｜吉和ICから車で3分、「海の川」と呼ばれる尾道水道にほど近くかつて漁村だった地域にある建物が０円",https://zero.estate/?p=155577,募集中,133.1677222,34.399249999999995,
"北海道釧路市｜JR根室本線「音別駅」から徒歩3分、徒歩圏内にコンビニや図書館がある二階建て家屋が０円",https://zero.estate/?p=155412,募集中,143.9290691,42.8890588,
"福岡県みやこ町｜東九州自動車道「みやこ豊津IC」から車で5分、近隣にいくつかの古墳群が点在する土地が０円",https://zero.estate/?p=155363,一時停止,130.9941111,33.6686111,
"福島県白河市｜JR東北本線「新白河駅」から車で8分、スーパーや家電量販店が集まるエリアからほど近い平家が０円",https://zero.estate/?p=155404,一時停止,140.2066727730848,37.11955579265082,
"栃木県日光市｜東武鉄道「鬼怒川公園駅」から車で3分、鬼怒川小学校近くの道路沿いにある土地が０円",https://zero.estate/?p=155380,募集中,139.72095509125768,36.84311790064488,
"北海道岩見沢市｜JR函館本線「岩見沢駅」から車で4分、徒歩圏内にコンビニや農協、中学校がある家屋が０円",https://zero.estate/?p=155374,募集中,141.7583387,43.2140225,
"福岡県嘉麻市｜JR後藤寺線「下鴨生駅」から車で5分、遊歩道があり桜並木も楽しめる小舟池からほど近い土地が０円",https://zero.estate/?p=155368,受付終了,130.7405209,33.5928592,
"静岡県東伊豆町｜伊豆急行線「伊豆熱川駅」から車で約10分、周囲に熱川バナナワニ園や複数のキャンプ場がある土地が０円",https://zero.estate/?p=155278,募集中,139.00957611324426,34.829972126594505,
"岩手県一関市｜JR大船渡線「小梨駅」から車で約5分、花の駅せんまややテニスコートからほど近い土地25筆が０円",https://zero.estate/?p=155304,募集中,141.33670373660314,38.92880640027028,
"茨城県かすみがうら市｜JR常磐線「神立駅」から車で約10分、100円ショップや本屋からほど近い土地が０円",https://zero.estate/?p=155310,募集中,140.2307568593482,36.14124786760731,
"岡山県浅口市｜JR山陽本線「金光駅」から車で3分、ドレミコレクションミュージアムからほど近い土地が０円",https://zero.estate/?p=155255,募集中,133.6129722,34.5365278,
"山形県上山市｜東北中央自動車道「かみのやま温泉IC」から車で4分、周囲に複数の果樹園が点在するエリアの建物が０円",https://zero.estate/?p=155267,一時停止,140.2748615438517,38.13119445280609,
"島根県浜田市｜JR山陰本線「周布駅」から車で約5分、ディスカウントストアや小学校からほど近い家屋と土地が０円",https://zero.estate/?p=155194,募集中,132.03113794986973,34.86905037507025,
"静岡県伊豆の国市｜伊豆箱根鉄道「伊豆長岡駅」から車で約15分、周囲にゴルフ場やキャンプ場がある土地が０円",https://zero.estate/?p=154473,募集中,138.9784707,35.0445738,
"鹿児島県薩摩川内市｜JR鹿児島本線「川内駅」から車で約15分、薩摩川内市総合運動公園からほど近い土地が０円",https://zero.estate/?p=154477,募集中,130.3084161,31.8439437,
"北海道美唄市｜JR函館本線「美唄駅」から車で4分、美唄川のすぐそばにある建物が駐車スペース付きで０円",https://zero.estate/?p=154783,一時停止,141.8503753,43.3305483,
"北海道共和町｜畑作用の灌漑用水確保のために建設された「共和ダム」からほど近い、米どころ共和町の土地が０円",https://zero.estate/?p=154382,募集中,140.51384760127343,43.03571559307831,
"愛知県常滑市｜名鉄常滑線「蒲池駅」から車で6分、常滑市体育館の300m北にあり周囲に田園風景が広がる畑2筆が０円",https://zero.estate/?p=155126,一時停止,136.83955559999998,34.918805600000006,
"埼玉県川越市｜西武鉄道新宿線「本川越駅」から車で約5分、徒歩圏内にスーパーやホームセンターがある土地が０円",https://zero.estate/?p=154816,募集中,139.49176624536065,35.928583058688844,
"長野県軽井沢町｜JR北陸新幹線「軽井沢駅」から車で約15分、約750mある旧軽井沢銀座商店街からほど近い土地が０円",https://zero.estate/?p=154399,募集中,138.59168635867562,36.3686880704999,
"高知県香美市｜香美市役所物部支所から徒歩約10分、大栃ヘリポートや郵便局からほど近い土地3筆まとめて０円",https://zero.estate/?p=155067,募集中,133.84363439701576,33.70607296510587,
"千葉県横芝光町｜JR総武本線「横芝駅」から車で約10分、小学校からほど近い住宅と田園が混在するエリアの土地が０円",https://zero.estate/?p=155075,募集中,140.47453352861922,35.66070434210785,
"滋賀県高島市｜JR湖西線「安曇川駅」から車で15分、山々に囲まれた自然豊かなエリアにある土地が０円",https://zero.estate/?p=154770,募集中,135.9713889,35.349722199999995,
"群馬県嬬恋村｜JR吾妻線「大前駅」から車で約15分、イベント体験教室・軽井沢おもちゃ王国からほど近い土地が０円",https://zero.estate/?p=154856,募集中,138.53043255,36.501489899999996,
"鹿児島県垂水市｜垂水市役所から車で約15分、高峠つつじヶ丘公園からほど近い約1,500坪の山林が０円",https://zero.estate/?p=154836,募集中,130.73058295,31.519539750000003,
"長野県軽井沢町｜上信越自動車道「碓氷軽井沢IC」から車で約15分、軽井沢レイクガーデンからほど近い土地が０円",https://zero.estate/?p=154773,募集中,138.44353086223774,36.302581273943176,
"長崎県平戸市｜平戸市観光交通ターミナルから車で約5分、平戸温泉や松浦史料博物館からほど近い家屋が０円",https://zero.estate/?p=155044,募集中,129.53472399708514,33.384133889885526,
"愛知県常滑市｜名古屋鉄道常滑線「蒲池駅」から車で4分、常滑総合公園や常滑高校からほど近い農地が０円",https://zero.estate/?p=154889,募集中,136.8368889,34.92091670000001,
"岡山県笠岡市｜山陽自動車道「笠岡IC」から車で7分、周囲にいくつか寺社仏閣がある土地3筆をまとめて０円",https://zero.estate/?p=154847,募集中,133.53069440000002,34.5533056,
"長野県小諸市｜上信越自動車道「小諸IC」から車で8分、りんご農園やキャンプ場があるエリアの別荘地一区画が０円",https://zero.estate/?p=154867,一時停止,138.43947219999998,36.3424167,
"千葉県茂原市｜JR外房線「新茂原駅」から車で7分、スーパーからほど近い田園風景がひろがるエリアの土地が０円",https://zero.estate/?p=154805,受付終了,140.32654106467643,35.45787103803451,
"山梨県富士河口湖町｜中央自動車道「河口湖IC」から車で25分、高原の別荘地・富士ドクタービレッジの一区画が０円",https://zero.estate/?p=154819,募集中,138.6300677,35.4284746,
"山口県下関市｜JR山陽本線「長府駅」から車で約5分、江戸時代の土壁や石垣が続く古江小路からほど近い土地が０円",https://zero.estate/?p=154052,募集中,130.98323349767642,34.00757149269537,
"山口県岩国市｜JR山陽本線「岩国駅」から車で5分、山口県の最東端に位置する岩国港からほど近い平家が０円",https://zero.estate/?p=154688,一時停止,132.22902779999998,34.1839966,
"岡山県赤磐市｜美作岡山道路「瀬戸IC」から車で15分、熊山英国庭園からほど近いグリーンタウン殿谷の一区画が０円",https://zero.estate/?p=154702,一時停止,134.0867222,34.81336110000001,
"山口県岩国市｜周防三天神のひとつ「高森天満宮」にほど近く、公道や通路に接している緑豊かな地域の原野2筆が０円",https://zero.estate/?p=154686,募集中,132.01358905,34.0924173,
"兵庫県丹波篠山市｜舞鶴若狭自動車道「丹南篠山口IC」から車で約10分、篠山城大書院からほど近い土地が０円",https://zero.estate/?p=154494,募集中,135.2239418,35.04427084999999,
"栃木県日光市｜日光宇都宮道路「大沢IC」から車で9分、宇都宮市との市境にある寅巳山からほど近い土地が０円",https://zero.estate/?p=154746,募集中,139.7779927,36.6926653,
"北海道北見市｜JR石北線「緋牛内駅」から徒歩2分、徒歩圏内にコンビニや郵便局がある二階建て家屋が０円",https://zero.estate/?p=154716,取引中止,144.0006584,43.881343,
"栃木県那須町｜東北自動車道「那須IC」から車で23分、那須御用邸近くの別荘地・那須平和郷の土地が０円",https://zero.estate/?p=154631,募集中,139.9834021,37.0738982,
"新潟県柏崎市｜JR越後線「礼拝駅」から車で3分、鎌田城跡ハイキングコースからほど近い土地11,200坪と家屋が０円",https://zero.estate/?p=154636,一時停止,138.6534902,37.4677324,
"新潟県柏崎市｜JR信越本線「柏崎駅」から車で4分、柏崎アクアパークや柏崎中央海水浴場からほど近い土地が０円",https://zero.estate/?p=154621,一時停止,138.54071829999998,37.3635659,
"北海道北見市｜JR石北線「西留辺蘂駅」から車で11分、徒歩圏内に北の大地の水族館がある二階建て家屋が０円",https://zero.estate/?p=154721,募集中,143.5050345,43.7546299,
"岩手県花巻市｜JR東北本線「花巻駅」から車で約10分、ショッピングモール・銀河モール花巻がほど近い土地2筆が０円",https://zero.estate/?p=154490,募集中,141.1378549,39.3830254,
"山口県防府市｜JR山陽本線「防府駅」から車で15分、徒歩圏内に陸上・航空自衛隊駐屯地がある土地が０円",https://zero.estate/?p=154503,募集中,131.527805,34.011452999999996,
"岩手県八幡平市｜東北自動車道「松尾八幡平IC」から車で約10分、スキー場からほど近い別荘地の一区画が０円",https://zero.estate/?p=154229,募集中,140.9741943799044,39.902175857672894,
"新潟県柏崎市｜JR飯山線「十日町駅」から車で32分、田舎の体験宿泊施設・門出かやぶきの里からほど近い家屋が０円",https://zero.estate/?p=154546,一時停止,138.6175065331858,37.18887470469963,
"北海道当麻町｜JR石北線「当麻駅」から車で3分、のどかな田園風景がひろがるエリアに建つ道道沿いの家屋が０円",https://zero.estate/?p=153619,一時停止,142.5086389,43.8176944,
"徳島県鳴門市｜鳴門公園や大塚国際美術館などの観光名所にほど近い、タイムシェアリゾート「ふるさと君渦潮編」１週間分が０円",https://zero.estate/?p=154406,募集中,134.624309,34.197637,
"茨城県鉾田市｜大洗鹿島線「大洋駅」から徒歩約15分、こども広場があるくぬぎの森スポーツ公園からほど近い土地が０円",https://zero.estate/?p=154039,一時停止,140.56526955836438,36.10276622243198,
"京都府福知山市｜JR山陰本線「下夜久野駅」から車で4分、道の駅 農匠の郷やくのからほど近い国道沿いの土地が０円",https://zero.estate/?p=154426,受付終了,134.9619214,35.3256358,
"長野県上田市｜上信越自動車道「上田菅平IC」から車で5分、日本の棚田百選・稲倉の棚田からほど近い家屋と土地が０円",https://zero.estate/?p=154437,募集中,138.303833,36.407861,
"北海道小樽市｜JR函館本線「小樽駅」から車で7分、小樽港を一望できる丘がある植物園からほど近い土地が０円",https://zero.estate/?p=154432,受付終了,141.00552779999998,43.21494439999999,
"群馬県嬬恋村｜JR吾妻線「大前駅」から車で16分、軽井沢おもちゃ王国からほど近い別荘分譲地の一区画が０円",https://zero.estate/?p=154235,募集中,138.55238952991508,36.47254139571346,
"福島県西郷村｜JR東北本線「新白河駅」から車で約10分、しらさかの森スポーツ公園からほど近い土地が０円",https://zero.estate/?p=154273,募集中,140.15515582694206,37.11053840456215,
"群馬県安中市｜周辺に上越新幹線「安中榛名駅」や桜の名所「後閑城址公園」がある自然豊かな土地が０円",https://zero.estate/?p=154289,募集中,138.854254317238,36.33464515410045,
"北海道松前町｜道の駅「北前船 松前」から徒歩3分、国道228号線近くの住宅地にある２階建家屋が０円",https://zero.estate/?p=154284,受付終了,140.1050565655345,41.42652589983513,
"長崎県諫早市｜JR長崎本線「諫早駅」から車で約5分、国の重要文化財に指定された眼鏡橋からほど近い土地が０円",https://zero.estate/?p=153920,募集中,130.04965081926252,32.85189000714229,
"栃木県日光市｜日光宇都宮道路「大沢IC」から車で12分、周囲に複数のゴルフ場がある別荘地の土地2区画が０円",https://zero.estate/?p=154171,受付終了,139.78028081261508,36.7324443721508,
"京都府福知山市｜JR山陰本線「上夜久野駅」から車で約10分ほど、寺社仏閣が多い自然豊かな地域の土地11筆が０円",https://zero.estate/?p=154108,募集中,134.96382560299654,35.36199560023753,
"神奈川県逗子市｜逗子マリーナほか計４施設を区分所有する会員施設、逗子マリーナオーナーズ・ワシントニヤ会の会員権が０円",https://zero.estate/?p=154187,一時停止,137.8522494,36.6999833,
"大分県中津市｜JR日豊本線「中津駅」から車で9分、カブトガニなど希少生物の宝庫・中津干潟からほど近い土地が０円",https://zero.estate/?p=154117,受付終了,131.19251724341257,33.61486497410079,
"愛媛県西予市｜JR予讃線「伊予石城駅」から車で約15分・「八幡浜駅」から車で約20分、三瓶港近く海の駅・潮彩館からほど近い土地が０円",https://zero.estate/?p=154037,募集中,132.41125181876328,33.39054626701541,
"栃木県那須町｜東北自動車道「那須IC」から車で7分、幼稚園やスーパーマーケットがほど近い約70坪の土地が０円",https://zero.estate/?p=154081,取引中止,140.0489541765383,36.99002294922479,
"岡山県岡山市｜JR津山線「金川駅」から車で約10分、周囲に複数のゴルフ場がある自然豊かな農地と納屋が０円",https://zero.estate/?p=153657,募集中,133.90672525612672,34.81654841421438,
"北海道函館市｜函館新外環状道路「赤川IC」から車で8分、北海道東照宮が徒歩圏内にある住宅街の土地が０円",https://zero.estate/?p=154073,受付終了,140.7893611,41.837888899999996,
"北海道釧路市｜JR根室本線「音別駅」から車で3分、徒歩圏内に音別町スケートリンク場がある土地が０円",https://zero.estate/?p=154030,受付終了,143.9296389,42.89875000000001,
"北海道釧路市｜JR根室本線「音別駅」から車で3分、音別町運動公園に建つ平和の塔からほど近い家屋が０円",https://zero.estate/?p=153993,受付終了,143.9336261,42.902300200000006,
"石川県加賀市｜小松バイパス終点「箱宮IC」から車で5分、ゴルフ場や射撃場からほど近い土地2筆をまとめて０円",https://zero.estate/?p=154014,募集中,136.39843782726905,36.30693754766697,
"広島県江田島市｜アウトドアが盛んな広島湾に浮かぶ瀬戸内海4番目の大きさを誇る島・江田島にある土地と建物が０円",https://zero.estate/?p=153615,募集中,132.46135104478927,34.25719761661097,
"鳥取県琴浦町｜山陰道「琴浦東IC」から車で3分、運動場を併設する東伯総合公園からほど近い農地3筆まとめて０円",https://zero.estate/?p=153669,募集中,133.69219440000003,35.4877222,
"群馬県嬬恋村｜JR吾妻線「大前駅」から車で13分、軽井沢おもちゃ王国からほど近い浅間ハイランド別荘地の土地が０円",https://zero.estate/?p=153761,受付終了,138.5258611,36.46969440000001,
"新潟県湯沢町｜JR上越新幹線「越後湯沢駅」から車で29分、日本最長ゴンドラがある苗場スキー場近くのマンション一室が０円",https://zero.estate/?p=153832,募集中,138.79489,36.7909372,
"静岡県東伊豆町｜伊豆急「伊豆熱川駅」から車で7分、海の眺望が良好な「リゾートパーク伊豆あたがわ」の一区画が０円",https://zero.estate/?p=153706,受付終了,139.0686544081188,34.82619495467205,
"広島県呉市｜JR呉線「呉駅」から車で12分、住宅街にあるハイキングコースとしても有名な尾島山の一部の土地が０円",https://zero.estate/?p=153732,受付終了,132.5762222,34.2385833,
"北海道旭川市｜JR宗谷本線「北永山駅」から車で13分、田んぼアートからほど近い農村地帯の二階建て家屋が０円",https://zero.estate/?p=153417,募集中,142.4053417761886,43.87619437109239,
"山口県宇部市｜JR宇部線「岐波駅」から車で4分、徒歩圏内に大型ショッピングセンターがある約200坪の土地が０円",https://zero.estate/?p=153756,一時停止,131.34097774895585,33.99837699260238,
"静岡県伊東市｜伊豆急行線「川奈駅」から車で3分、日本三大深湾のひとつ相模湾そばにある二階建て家屋が０円",https://zero.estate/?p=153676,取引中止,139.11426437682496,34.95407246957416,
"北海道比布町｜JR宗谷本線「比布駅」から徒歩4分、徒歩圏内に中央ふれあい広場や農協がある住宅街の家屋が０円",https://zero.estate/?p=153723,一時停止,142.47311109999998,43.8769444,
"兵庫県太子町｜姫路バイパス「太子東IC」から車で6分、東出山のふもとにある住宅地内の土地2筆をまとめて０円",https://zero.estate/?p=151163,取引中止,134.5939722,34.835249999999995,
"北海道登別市｜JR室蘭本線「鷲別駅」から車で4分、徒歩圏内にスーパーマーケットがある鷲別中学校裏に建つ平家が０円",https://zero.estate/?p=153465,一時停止,141.0514527111854,42.36012779544841,
"静岡県伊東市｜伊豆急行線「伊豆高原駅」から車で31分、天城東急リゾートからほど近い別荘エリアにある平家が０円",https://zero.estate/?p=153450,一時停止,139.03904267689163,34.88029767285644,
"北海道旭川市｜JR宗谷本線「新旭川駅」から車で7分、コンビニからほど近い国道沿いに建つ9階建てビルの一室が０円",https://zero.estate/?p=153431,受付終了,142.3585896,43.7835508,
"千葉県睦沢町｜JR外房線「東浪見駅」から車で約10分ほど、上総十二社の一社鵜羽神社からほど近い土地が０円",https://zero.estate/?p=153318,受付終了,140.32467182698036,35.35064931312992,
"北海道日高町｜日高自動車道「日高門別IC」から車で7分、病院や町役場、郵便局が徒歩圏内にある二階建て家屋が０円",https://zero.estate/?p=153223,募集中,142.0705117,42.4779595,
"北海道滝川市｜JR函館本線「滝川駅」から徒歩11分、市役所、市立病院からほど近い中心街にある3階建ビルの建物のみ０円",https://zero.estate/?p=153287,取引中止,141.9085053,43.5586664,
"長崎県平戸市｜志々伎漁協から車で約3分、多目的グラウンドを備える運動公園からほど近い建物と土地が０円",https://zero.estate/?p=153343,募集中,129.3985336284923,33.20036908083821,
"静岡県伊豆の国市｜伊豆スカイライン「韮山峠IC」から車で約5分、別荘地・伊豆エメラルドタウンの一区画が０円",https://zero.estate/?p=153215,募集中,138.95512827821992,35.07309898471743,
"千葉県茂原市｜東金九十九里有料道路「小沼田IC」から車で11分、田園風景の中に家々が建つエリアの土地が０円",https://zero.estate/?p=153243,受付終了,140.3686348,35.4867803,
"岐阜県本巣市｜樽見鉄道「樽見駅」から車で9分、周辺に田園風景が広がる山間の自然豊かな地域にある更地が０円",https://zero.estate/?p=153325,受付終了,136.5867285,35.6535228,
"山梨県富士河口湖町｜富士宮道路「上井出IC」から車で24分、富士山から近い富士ドクタービレッジの一区画が０円",https://zero.estate/?p=151051,受付終了,138.6390525,35.4184679,
"静岡県函南町｜伊豆スカイライン「韮山峠IC」から車で17分、伊豆半島最大の別荘地伊豆エメラルドタウンの一区画が０円",https://zero.estate/?p=153228,募集中,138.9957222,35.0874167,
"北海道札幌市｜市営地下鉄南北線「真駒内駅」から車で16分、ゴルフ場やハイキングコースからほど近い土地が０円",https://zero.estate/?p=152204,受付終了,141.304,42.9393889,
"広島県福山市｜JR福塩線「神辺駅」から徒歩15分、徒歩圏内にドラッグストアや高校がある二階建て家屋が０円",https://zero.estate/?p=153177,受付終了,133.3876112,34.5422375,
"北海道留萌市｜深川留萌自動車道「留萌IC」から車で8分、徒歩圏内に大和田郵便局がある三階建て家屋が０円",https://zero.estate/?p=151548,一時停止,141.698475,43.9160512,
"新潟県上越市｜JR北陸新幹線「上越妙高駅」から車で25分、長野県との県境・光ヶ原高原からほど近い土地が０円",https://zero.estate/?p=152331,一時停止,138.3773611,37.0350278,
"和歌山県印南町｜JR紀勢本線「切目駅」から徒歩8分、様々な魚が釣れる切目浜からほど近い約100坪の土地が０円",https://zero.estate/?p=153117,受付終了,135.2394722,33.7946111,
"北海道余市町｜JR函館本線「余市駅」から車で5分、斜向かいに日帰り温泉・鶴亀温泉がある二階建て家屋が０円",https://zero.estate/?p=152632,一時停止,140.8201125,43.1919352,
"栃木県那須町｜東北自動車道「那須高原スマートIC」から車で12分、別荘地エンゼルフォレスト那須の一区画が０円",https://zero.estate/?p=152830,一時停止,140.0347222,37.102972199999996,
"栃木県那須町｜JR東北本線「黒田原駅」から車で11分、周囲に複数のキャンプ場やチーズケーキ工房がある土地が０円",https://zero.estate/?p=152654,募集中,140.09016308491354,37.07811318023951,
"北海道新十津川町｜JR函館本線「滝川駅」から車で12分、大雪山系を源とした大河川・石狩川近くに建つ家屋が０円",https://zero.estate/?p=152827,受付終了,141.8754417,43.6062921,
"北海道稚内市｜JR宗谷本線「南稚内駅」から車で3分、徒歩圏内に稚内鈴蘭幼稚園がある二階建て家屋が０円",https://zero.estate/?p=152064,受付終了,141.6742737,45.40176139999999,
"三重県志摩市｜近鉄志摩線「鵜方駅」から車で13分、志摩パークゴルフ場や海水浴場からほど近い土地2筆が０円",https://zero.estate/?p=152342,一時停止,136.85643858309192,34.268418961819236,
"静岡県伊豆の国市｜伊豆縦貫自動車道「函南塚本IC」から車で21分、伊豆富士見ニュータウン別荘地の一区画が０円",https://zero.estate/?p=152373,一時停止,138.98252779999999,35.0525556,
"福島県猪苗代町｜JR磐越西線「翁島駅」から車で6分、猪苗代湖を一望できる天鏡台からほど近い土地が０円",https://zero.estate/?p=152364,募集中,140.0581805611605,37.56703321350192,
"京都府八幡市｜京阪本線「橋本駅」から車で5分、比叡山や愛宕山などの山々を一望できる男山展望台そばの保安林が０円",https://zero.estate/?p=151181,募集中,135.6712768042426,34.88162609861802,
"新潟県長岡市｜JR信越本線「塚山駅」から車で9分、桜の名所として有名なおぐにせせらぎ公園からほど近い土地が０円",https://zero.estate/?p=151719,取引中止,138.7051191,37.309645700000004,
"長野県箕輪町｜JR飯田線「伊那松島駅」から車で6分、天竜川沿いにあるみのわ天竜公園からほど近い家屋が０円",https://zero.estate/?p=152208,一時停止,138.0027154,35.9250889,
"京都府亀岡市｜新名神高速道路「箕面とどろみIC」から車で20分、大阪と京都の県境にある分譲地の一区画が０円",https://zero.estate/?p=151688,募集中,135.5241799,34.929766199999996,
"徳島県鳴門市｜神戸淡路鳴門自動車道「鳴門北IC」から車で5分、タイムシェアリゾート・ふるさと君渦潮編１週間分が０円",https://zero.estate/?p=151325,受付終了,134.624309,34.197637,
"栃木県那須町｜東北自動車道「那須高原スマートIC」から車で15分、周囲に複数の観光地がある別荘地の一区画が０円",https://zero.estate/?p=151585,受付終了,140.0399615,37.0900177,
"福井県越前市｜ハピラインふくい線「王子保駅」から車で約10分ほど、郵便局や公民館からほど近い土地3筆をまとめて０円",https://zero.estate/?p=149810,募集中,136.1217303619352,35.87510523527923,
"岡山県浅口市｜JR山陽本線「里庄駅」から車で15分、瀬戸内海を臨む青佐鼻海岸や寄島アッケシランドの近くにある家屋が０円",https://zero.estate/?p=151064,募集中,133.5763567,34.470802,
"岩手県花巻市｜東北自動車道「花巻PAスマートIC」から車で5分、道の駅はなまき西南からほど近い家屋が０円",https://zero.estate/?p=151329,受付終了,141.0728331,39.374261800000006,
"兵庫県姫路市｜坊勢フェリーターミナルから徒歩10分、瀬戸内海の離島・坊勢島の傾斜地にある眺望良好な２階建家屋が０円",https://zero.estate/?p=151504,取引中止,134.51219980000002,34.6514841,
"北海道釧路市｜道東自動車道「釧路西IC」から車で5分、周辺に広場や遊具のある公園が多い住宅地内の建物が０円",https://zero.estate/?p=151170,取引中止,144.3198502,43.022665399999994,
"群馬県嬬恋村｜JR吾妻線「万座・鹿沢口駅」から車で14分、軽井沢おもちゃ王国からほど近い別荘地の一区画が０円",https://zero.estate/?p=151045,受付終了,138.5569902712687,36.471299571941614,
"長野県南牧村｜JR小海線「野辺山駅」から車で6分、国立天文台・野辺山宇宙電場観測所からほど近い土地が０円",https://zero.estate/?p=149838,一時停止,138.4804859,35.9815943,
"岡山県高梁市｜JR伯備線「新見駅」から車で25分ほど、南は瀬戸内海、北は大山が望める天神山からほど近い土地が０円",https://zero.estate/?p=150103,募集中,133.42837232172081,34.85855797686011,
"福島県いわき市｜常磐自動車道「いわき中央IC」から車で12分、フリーライドができるモトクロス場からほど近い土地が０円",https://zero.estate/?p=150525,受付終了,140.797267,37.058436,
"愛媛県西条市｜JR予讃線「伊予三芳駅」から車で6分、徒歩圏内にカブトガニの放流も行われる河原津海岸がある家屋が０円",https://zero.estate/?p=150514,受付終了,133.0604722,33.975777799999996,
"広島県尾道市｜山陽自動車道「尾道IC」から車で5分、自然豊かな緑の中に建つ運動公園からほど近い二階建て家屋が０円",https://zero.estate/?p=150316,募集中,133.1722611,34.4457362,
"秋田県横手市｜JR奥羽本線「後三年駅」から車で4分、キャンプ場を併設している雁の里山本公園からほど近い土地が０円",https://zero.estate/?p=150529,取引中止,140.5483076,39.3520097,
"長野県中野市｜長野電鉄「中野松川駅」から車で約5分、登山が楽しめる標高約700mの箱山のふもとにある土地が０円",https://zero.estate/?p=150519,一時停止,138.3591619,36.7323763,
"香川県東かがわ市｜JR高徳線「引田駅」から徒歩9分、新鮮な魚介類の水揚がある引田漁港からほど近い土地が０円",https://zero.estate/?p=150305,取引中止,134.4076465,34.2240922,
"埼玉県寄居町｜JR八高線「折原駅」から車で3分ほど、豊かな自然に囲まれた秩父山地近くの田・畑5筆をまとめて０円",https://zero.estate/?p=149132,募集中,139.15236811133596,36.08399059951393,
"大分県竹田市｜JR豊肥本線「朝地駅」から車で約10分、瀧廉太郎記念館からほど近い家屋と土地をまとめて０円",https://zero.estate/?p=149463,募集中,131.40337215000002,33.00547364999999,
"北海道留萌市｜深川留萌自動車道「留萌IC」から車で6分、留萌市役所からほど近い住宅街の二階建て家屋が０円",https://zero.estate/?p=150115,受付終了,141.6382438,43.938951,
"北海道美唄市｜JR函館本線「美唄駅」から徒歩で7分、周囲に飲食店などが立ち並ぶ駐車場付きの商業ビルが０円",https://zero.estate/?p=148327,受付終了,141.8582983,43.328868799999995,
"島根県浜田市｜JR山陰本線「浜田駅」から車で7分、約300本のソメイヨシノがある城山公園からほど近い家屋が０円",https://zero.estate/?p=149395,受付終了,132.07621559999998,34.904064999999996,
"長崎県長崎市｜JR長崎本線「浦上駅」から車で6分、カトリック浦上教会・浦上天主堂からほど近い土地が０円",https://zero.estate/?p=148208,受付終了,129.86475094626286,32.775596915656486,
"福岡県北九州市｜JR筑豊本線「若松駅」から車で7分、若戸大橋などが一望できる高塔山展望台からほど近い土地が０円",https://zero.estate/?p=149088,募集中,130.79438299999998,33.90648099999999,
"千葉県茂原市｜JR外房線「本納駅」から車で6分、周辺を田畑で囲まれておりコンビニにもほど近い平面地と私道をあわせて０円",https://zero.estate/?p=149362,受付終了,140.32155559999998,35.4754722,
"静岡県函南町｜伊豆スカイライン「韮山峠IC」から車で13分、南箱根ダイヤランド別荘地内にある古民家風な山荘が０円",https://zero.estate/?p=149367,受付終了,139.01362229999998,35.08175819999999,
"新潟県柏崎市｜JR信越本線「鯨波駅」から徒歩5分、日本の渚百選・鯨波海水浴場からほど近い二階建て家屋が０円",https://zero.estate/?p=149167,受付終了,138.5195244,37.3567305,
"千葉県富津市｜JR内房線「青堀駅」から徒歩で8分、周辺に内裏塚古墳や割見塚古墳など歴史的な史跡が点在している建物が０円",https://zero.estate/?p=149355,受付終了,139.8612959,35.3278744,
"徳島県阿南市｜JR牟岐線「阿波福井駅」から車で6分、郵便局や福井小中学校、公民館からほど近い土地が０円",https://zero.estate/?p=149251,受付終了,134.6212947,33.8280068,
"北海道八雲町｜海釣りが楽しめる熊石漁港から徒歩3分、日本海追分ソーランライン沿いに建つ二階建て家屋が０円",https://zero.estate/?p=149259,受付終了,139.9818579,42.12917650000001,
"新潟県柏崎市｜JR越後線「東柏崎駅」から徒歩3分、徒歩圏内にコンビニがある住宅地の二階建て家屋が０円",https://zero.estate/?p=149144,受付終了,138.5643608,37.3748282,
"秋田県小坂町｜東北自動車道「小坂IC」から車で10分、小坂鉄道レールパークからほど近い小さな集落の家屋が０円",https://zero.estate/?p=149140,一時停止,140.764093,40.3089485,
"北海道愛別町｜JR石北線「愛別駅」から車で5分、町役場や養護学校からほど近い閑静な住宅地にある家屋が０円",https://zero.estate/?p=149079,一時停止,142.5728514,43.90352480000001,
"青森県鶴田町｜JR五能線「陸奥鶴田駅」から車で8分、保護区として指定されている廻堰大溜池からほど近い家屋が０円",https://zero.estate/?p=147455,募集中,140.40833329999998,40.7518056,
"石川県輪島市｜道の駅「赤神」から車で6分、鹿磯海岸そばにあり周囲に田畑が広がる土地7筆と建物1棟をまとめて０円",https://zero.estate/?p=148189,受付終了,136.7304785,37.2584931,
"鹿児島県枕崎市｜JR指宿枕崎線「枕崎駅」から車で4分、種子島や屋久島が見える海岸そばの木造平家建て家屋が０円",https://zero.estate/?p=148154,受付終了,130.30177279999998,31.2653896,
"長野県小諸市｜上信越自動車道「小諸IC」から車で16分、高原別荘地・イトーピア小諸にある一区画が０円",https://zero.estate/?p=148097,一時停止,138.3675556,36.330083300000005,
"北海道当麻町｜JR石北本線「当麻駅」から徒歩8分、徒歩圏内にコンビニと小学校がある田園横の家屋が０円",https://zero.estate/?p=148191,取引中止,142.5128299,43.8223843,
"静岡県浜松市｜JR東海道本線「高塚駅」から車で約15分ほど、豊かな緑に囲まれた佐鳴湖からほど近い土地が０円",https://zero.estate/?p=147125,募集中,137.7013159,34.72635675,
"北海道美唄市｜JR函館本線「美唄駅」から車で5分、目の前に北海道美唄養護学校が建つ住宅地の土地が０円",https://zero.estate/?p=147978,一時停止,141.8787778,43.3273056,
"大分県豊後大野市｜JR豊肥本線「朝地駅」から徒歩7分、大分県を代表する紅葉の名所・用作公園からほど近い平家が０円",https://zero.estate/?p=145324,一時停止,131.42895769999998,33.005145399999996,
"岐阜県郡上市｜東海北陸自動車道「高鷲IC」から車で22分、鷲ヶ岳スキー場からほど近い別荘エリアの土地が０円",https://zero.estate/?p=147620,受付終了,136.9366944,35.9481111,
"島根県浜田市｜JR山陰本線「下府駅」から徒歩8分、徒歩圏内に白い砂浜で遠浅の国府海水浴場がある家屋が０円",https://zero.estate/?p=147298,募集中,132.11022219999998,34.9311667,
"山口県周南市｜JR山陽本線「福川駅」から徒歩11分、小中学校や新南陽球場からほど近い二階建て家屋が０円",https://zero.estate/?p=147329,受付終了,131.7319768,34.0739753,
"大阪府交野市｜京阪交野線「私市駅」から徒歩5分、大阪公立大学附属植物園入口からほど近い家屋のみ０円",https://zero.estate/?p=136360,一時停止,135.6835613,34.7666155,
"群馬県安中市｜北陸新幹線「安中榛名駅」から車で約10分、桜の名所でもある後閑城址公園からほど近い土地が０円",https://zero.estate/?p=146367,募集中,138.8327574364362,36.33469140407379,
"島根県江津市｜JR山陰本線「都野津駅」から車で3分、日本海の眺望を楽しめる海岸そばの建物と蔵をあわせて０円",https://zero.estate/?p=146995,受付終了,132.1908327,34.990755,
"岩手県奥州市｜JR東北本線「陸中折居駅」から車で4分、徒歩圏内にコンビニがある二階建て家屋と土地が０円",https://zero.estate/?p=145129,受付終了,141.1361504,39.1038079,
"北海道上川町｜JR石北線「上川駅」から徒歩10分、町営スキー場からほど近い住宅街に建つ二階建て二棟をまとめて０円",https://zero.estate/?p=145310,受付終了,142.7720871,43.8464276,
"滋賀県長浜市｜JR北陸本線「余呉駅」から車で13分、指定自然記念物・菅並のケヤキからほど近い土地19筆が０円",https://zero.estate/?p=146149,募集中,136.2344049,35.592004599999996,
"栃木県日光市｜JR日光線「文挟駅」から車で8分、ラインヒルゴルフクラブやいちご農園からほど近い土地が０円",https://zero.estate/?p=146340,受付終了,139.72902779999998,36.656388899999996,
"埼玉県さいたま市｜東北自動車道「岩槻IC」から車で10分、目白大学さいたま岩槻キャンパス横の土地が０円",https://zero.estate/?p=146336,取引中止,139.7107558,35.9247201,
"北海道美唄市｜JR函館本線「美唄駅」から車で5分、徒歩圏内にコンビニがある閑静な住宅地に建つ二階建て家屋が０円",https://zero.estate/?p=145286,受付終了,141.8786017,43.33090179999999,
"北海道美唄市｜JR函館本線「美唄駅」から車で4分、和田公園や旭公園などのレジャースポットそばにある住宅地内の建物が０円",https://zero.estate/?p=145217,取引中止,141.8721447,43.336693399999994,
"佐賀県江北町｜JR長崎本線「江北駅」から車で5分、SUMCO工場が徒歩圏内にあり田園に囲まれた住宅地の２階建家屋が０円",https://zero.estate/?p=145314,受付終了,130.14415940000004,33.229858199999995,
"山口県周南市｜JR山陽本線「徳山駅」から車で9分、閑静な住宅地の坂中腹部に位置する二階建て家屋が０円",https://zero.estate/?p=145269,受付終了,131.82307185000002,34.06757315,
"福岡県北九州市｜JR鹿児島本線「枝光駅」から車で5分、徒歩圏内に小学校やコンビニがある閑静な住宅地の土地が０円",https://zero.estate/?p=145168,募集中,130.82038430000003,33.875182800000005,
"千葉県茂原市｜圏央道「茂原北IC」から車で4分、周辺にゴルフ場が多い自然豊かな地域の木造平家建て家屋が０円",https://zero.estate/?p=145337,受付終了,140.2649573,35.4834707,
"愛知県東栄町｜三遠南信自動車道「東栄IC」から車で16分、鴨山川にかかる滝村行の七滝からほど近い二階建て家屋が０円",https://zero.estate/?p=145149,受付終了,137.66666805,35.11938865,
"広島県呉市｜音戸さざなみ線バス停「渡子」から徒歩7分、ツツジの名所・音戸大橋からほど近い家屋2棟と土地をまとめて０円",https://zero.estate/?p=145400,募集中,132.5146085,34.190043,
"広島県江田島市｜江田島バス「鹿川小学校前バス停」から徒歩2分、小学校や郵便局からほど近い家屋と土地が０円",https://zero.estate/?p=144669,一時停止,132.4409025,34.19829070000001,
"長野県軽井沢町｜しなの鉄道「中軽井沢駅」から車で12分、旧軽井沢ゴルフクラブや離山近くの自然豊かな別荘地が０円",https://zero.estate/?p=143217,受付終了,138.6166389,36.3635278,
"岐阜県高山市｜東海北陸自動車道「荘川IC」から車で約20分ほど、めいほうスキー場からほど近い土地が０円",https://zero.estate/?p=144935,募集中,136.9223207909347,36.00696484208038,
"北海道石狩市｜JR学園都市線「拓北駅」から車で16分、石狩浜やいしかり湾新港朝市からほど近い土地が０円",https://zero.estate/?p=144939,受付終了,141.3416111,43.2243333,
"北海道士別市｜JR宗谷本線「士別駅」から徒歩5分、道の駅「羊のまち 侍・しべつ」からほど近い建物が０円",https://zero.estate/?p=143120,受付終了,142.39185990000001,44.1740411,
"静岡県伊豆市｜JR伊東線「宇佐美駅」から車で24分、エンゼルフォレスト伊豆スカイライン別荘地の一区画が０円",https://zero.estate/?p=144535,募集中,139.0330392,34.9854582,
"静岡県伊東市｜伊豆急行線「富戸駅」から車で8分、多くのアトラクションがある伊豆ぐらんぱる公園がほど近い土地が０円",https://zero.estate/?p=143912,一時停止,139.11505022918885,34.90867018085074,
"広島県三原市｜JR山陽本線「本郷駅」から車で10分、京覧カントリークラブからほど近い閑静な分譲地の一区画が０円",https://zero.estate/?p=144540,一時停止,133.0181111,34.4110278,
"新潟県湯沢町｜関越自動車道「月夜野IC」から車で43分、洗濯機・乾燥機も完備する西武ヴィラ苗場9号館の一室が０円",https://zero.estate/?p=142196,受付終了,138.79037739999998,36.7937011,
"広島県尾道市｜山陽新幹線「新尾道駅」から車で3分、徒歩圏内にスーパーや銀行がある住宅地の土地3筆が０円",https://zero.estate/?p=143957,受付終了,133.1942226,34.4288142,
"北海道美唄市｜JR函館本線「美唄駅」から車で5分、小中学校や養護学校からすぐ近くの住宅地に建つ平家が０円",https://zero.estate/?p=143275,受付終了,141.8788128,43.33390309999999,
"新潟県柏崎市｜JR信越本線「鯨波駅」から車で3分、日本の渚百選に入選した鯨波海水浴場からほど近い家屋が０円",https://zero.estate/?p=143614,受付終了,138.51150669999998,37.350086399999995,
"静岡県伊東市｜JR伊東線・伊豆急行線「伊東駅」から車で7分、伊東オレンジビーチからほど近い土地が０円",https://zero.estate/?p=143951,募集中,139.09342792855182,34.96182109737577,
"長野県佐久市｜JR小海線「臼田駅」から車で10分、エメラルド色の湖面で知られる雨川ダムの近くにある宅地と田畑が０円",https://zero.estate/?p=143282,受付終了,138.5378159,36.19107439999999,
"富山県入善町｜JR黒部宇奈月温泉駅から車で8分、日本一水質の良好な河川で有名な黒部川そばの建物と土地をあわせて０円",https://zero.estate/?p=143329,取引中止,137.46851039999999,36.906658799999995,
"広島県呉市｜JR呉線「呉駅」から車で6分、呉市に連なる九嶺のひとつ・愛宕山のふもとにある住宅街の二階建て家屋が０円",https://zero.estate/?p=143421,募集中,132.5492118617254,34.25238980702256,
"北海道七飯町｜JR函館本線「大沼公園駅」から車で14分、活火山・北海道駒ヶ岳の麓付近にある土地が０円",https://zero.estate/?p=143527,受付終了,140.72791669999998,42.01372219999999,
"新潟県柏崎市｜JR信越本線「安田駅」から車で11分、国指定名勝庭園・貞観園からほど近い車庫付き二階建て家屋が０円",https://zero.estate/?p=143595,受付終了,138.6284182,37.27838630000001,
"新潟県三条市｜JR信越本線「東三条駅」から車で2分、大崎山公園や保内公園などの自然を楽しめるスポットそばの建物が０円",https://zero.estate/?p=143409,受付終了,138.9780327,37.6279579,
"千葉県いすみ市｜JR外房線「太東駅」から車で約5分ほど、九十九里最南端の太東海水浴場からほど近い土地が０円",https://zero.estate/?p=143286,募集中,140.37510159999994,35.32289455,
"愛媛県松前町｜JR予讃線「北伊予駅」から徒歩10分、住宅街と田畑が点在するエリアにある約400㎡の土地が０円",https://zero.estate/?p=143126,受付終了,132.7556667,33.788722199999995,
"愛媛県内子町｜JR予讃線「内子駅」から車で13分、周囲にぶどう狩りができるスポットが豊富な建物と土地3筆をまとめて０円",https://zero.estate/?p=141526,受付終了,132.71969439999998,33.573694399999994,
"宮城県角田市｜JR東北新幹線「白石蔵王駅」から車で10分、笠島の立石やゴルフ場からほど近い山林が０円",https://zero.estate/?p=143116,受付終了,140.6986944,37.9683056,
"徳島県阿南市｜関西からの高速バス発着の徳島バス橘営業所から徒歩圏内、ゴルフ場や釣り場からほど近い住宅地の建物2棟が０円",https://zero.estate/?p=142287,受付終了,134.6426935,33.8748609,
"千葉県横芝光町｜JR総武本線「横芝駅」から車で11分、九十九里浜のほぼ中央に位置する屋形海岸からほど近い土地が０円",https://zero.estate/?p=142491,受付終了,140.5167647,35.6280502,
"福岡県直方市｜JR筑豊本線「直方駅」から車で5分、徒歩圏内に小学校や石炭記念館がある土地と家屋をまとめて０円",https://zero.estate/?p=142306,受付終了,130.7209859,33.7376024,
"新潟県柏崎市｜JR信越本線「柏崎駅」から徒歩11分、郵便局や銀行からほど近い幼稚園の向かいにある土地が０円",https://zero.estate/?p=142524,受付終了,138.5508453,37.3684404,
"香川県丸亀市｜JR予讃線「坂出駅」から車で13分、標高約462mの高原状の山・城山麓の一部の山林が０円",https://zero.estate/?p=142531,受付終了,133.8814444,34.2852222,
"新潟県佐渡市｜七浦海岸線バス停「橘長手岬」から徒歩2分、平らな岩場が続く長手岬からほど近い建物と山林が０円",https://zero.estate/?p=142175,受付終了,138.2337034,37.9825731,
"北海道鹿部町｜JR函館本線「鹿部駅」から車で6分、鹿部カントリー倶楽部からほど近いリゾート地の土地が０円",https://zero.estate/?p=142185,受付終了,140.7776111,42.0781944,
"広島県尾道市｜山陽新幹線「新尾道駅」から徒歩7分、スポーツパークやキャンプ場からほど近い二階建て家屋が０円",https://zero.estate/?p=141820,受付終了,133.1911261,34.4324398,
"宮城県大崎市｜JR陸羽東線「西古川駅」から車で9分、周囲には田園が広がる小さな住宅地にある土地が０円",https://zero.estate/?p=141483,受付終了,140.87976174999997,38.58601785,
"青森県黒石市｜JR奥羽本線「北常盤駅」から車で8分、観光名所にほど近く田畑に囲まれた住宅地内にある土地200坪が０円",https://zero.estate/?p=141572,受付終了,140.5885858,40.6767276,
"大分県中津市｜JR日豊線「中津駅」から徒歩15分、小学校・高校からほど近い郵便局の向かいの二階建て家屋が０円",https://zero.estate/?p=141656,受付終了,131.1833441,33.5968467,
"群馬県嬬恋村｜JR吾妻線「万座・鹿沢口駅」から車で約12分、自然豊かな北軽井沢の別荘地が０円【接道あり、固定資産税0円】",https://zero.estate/?p=141473,受付終了,138.56105560000003,36.498027799999996,
"岡山県美咲町｜JR姫新線「林野駅」から車で約20分ほど、蛍の生育地「滝山ほたるのさと」からほど近い土地が０円",https://zero.estate/?p=140768,募集中,134.0689000106341,34.96144822957665,
"宮城県大和町｜東北自動車道「大和IC」から車で8分、大和町役場の研修センターからほど近い家屋と土地が０円",https://zero.estate/?p=141456,受付終了,140.874309,38.4486191,
"北海道名寄市｜JR宗谷本線「風連駅」から徒歩8分、市役所や小学校からほど近い二階建て家屋と小屋が０円",https://zero.estate/?p=140908,一時停止,142.4176944,44.2885833,
"千葉県茂原市｜JR外房線「茂原駅」から車で10分、夏場には観光地引網が楽しめる中里海水浴場そばの土地が０円",https://zero.estate/?p=140775,受付終了,140.3385556,35.4325833,
"三重県伊賀市｜近鉄伊賀鉄道「伊賀神戸駅」から車で7分、ひまわり畑で有名な美旗めばえファームからほど近い土地が０円",https://zero.estate/?p=141096,受付終了,136.1297288,34.6723697,
"新潟県十日町市｜JR飯山線「越後鹿渡駅」から車で16分、日本三大薬湯のひとつとして知られる松之山温泉そばにある二階建て家屋が０円",https://zero.estate/?p=140708,募集中,138.6006988,37.057723200000005,
"静岡県伊東市｜JR伊東線「宇佐美駅」から車で7分、波静かで遠浅な宇佐美海岸からほど近い山林3筆が０円",https://zero.estate/?p=140886,受付終了,139.067009578076,35.00331240124935,
"鹿児島県鹿児島市｜JR指宿枕崎線「慈眼寺駅」から車で4分、奄美の里などのレジャースポットにほど近い山林2筆をあわせて０円",https://zero.estate/?p=139500,受付終了,130.4951092,31.526725199999994,
"京都府福知山市｜舞鶴若狭道「福知山IC」から車で約20分、自然豊かな山間の別荘地にある30年以上手付かずの土地が０円",https://zero.estate/?p=139279,受付終了,135.2459192,35.2116028,
"青森県黒石市｜東北自動車道「黒石IC」から車で約5分、湯治場として栄えた黒石温泉郷からほど近い農地・山林17筆をまとめて０円",https://zero.estate/?p=140514,募集中,140.63960035,40.62613835,
"福島県会津坂下町｜JR只見線「会津坂下駅」から車で8分、周囲に田畑が広がる小さな集落に建つ平家が０円",https://zero.estate/?p=139241,取引中止,139.83819409999998,37.5813389,
"北海道室蘭市｜JR室蘭本線「東室蘭駅」から徒歩10分、工業高校や野球場からほど近い住宅地の平家が０円",https://zero.estate/?p=140553,受付終了,141.02998899999997,42.353076000000016,
"栃木県那須塩原市｜東北自動車道「黒磯板室IC」から車で5分、自然豊かな田園風景に囲まれる山林約50坪が０円",https://zero.estate/?p=140562,一時停止,139.98981400000002,36.980141999999994,
"北海道名寄市｜JR宗谷本線「名寄駅」から車で3分、徒歩圏内にコンビニがある住宅街の二階建て家屋が０円",https://zero.estate/?p=140541,一時停止,142.4702031,44.3476497,
"長野県飯綱町｜JR信越本線「長野駅」から車で約30分、いいづなリゾートスキー場からほど近い畑約630坪が０円",https://zero.estate/?p=139369,受付終了,138.1984509,36.7249008,
"北海道木古内町｜函館江差自動車道「北斗富川IC」から車で18分、津軽海峡がすぐ前に広がる二階建て家屋が０円",https://zero.estate/?p=137455,受付終了,140.5084729,41.6999481,
"新潟県上越市｜道の駅「雪のふるさと やすづか」から車で8分、登録有形文化財・菖蒲飯田邸からほど近い家屋が０円",https://zero.estate/?p=139395,受付終了,138.4932666,37.0827861,
"栃木県日光市｜東武日光線「下今市駅」から車で11分、日光ストロベリーパークからほど近い閑静な住宅地の土地が０円",https://zero.estate/?p=139237,受付終了,139.741451,36.731152,
"北海道室蘭市｜JR室蘭本線「鷲別駅」から車で4分、工業高校からほど近い自然豊かな住宅地に建つ二階建て家屋が０円",https://zero.estate/?p=139374,受付終了,141.0300556,42.360499999999995,
"栃木県那須塩原市｜東武「上三依塩原温泉口駅」から車で11分、別荘地にあり温泉の引き込みも可能な平屋建家屋が０円",https://zero.estate/?p=134941,一時停止,139.7850038,36.9849964,
"青森県弘前市｜弘南鉄道大鰐線「弘前学院大前駅」から車で9分、徒歩圏内に弘前南高校がある住宅地の土地が０円",https://zero.estate/?p=139157,受付終了,140.4413056,40.58438890000001,
"新潟県見附市｜新潟県の真ん中に位置する見附市にあり、公民館や小学校からほど近い土地11筆をまとめて０円",https://zero.estate/?p=138521,募集中,138.96062900025083,37.50803754587005,
"広島県三次市｜備北交通・作木線バス停「港別上」から歩いて2分、島根県県境沿いを流れる江の川近くに建つ家屋が０円",https://zero.estate/?p=139162,取引中止,132.708481,34.8661914,
"長野県岡谷市｜JR中央東線「岡谷駅」から車で5分、徒歩圏内にコンビニがある閑静な住宅地の土地2筆が０円",https://zero.estate/?p=138760,一時停止,138.0301997,36.053719199999996,
"北海道室蘭市｜JR室蘭本線「室蘭駅」から車で約5分、室蘭港を一望できる測量山展望台からほど近い家屋と土地が０円",https://zero.estate/?p=137775,一時停止,140.9640229,42.3248793,
"福島県喜多方市｜JR磐越西線「喜多方駅」から車で約20分、熊倉町内と北塩原村内にある田11筆を合わせて０円",https://zero.estate/?p=137825,募集中,140.04132685,37.690903999999996,
"新潟県三条市｜JR信越本線「東三条駅」から車で5分、徒歩圏内に小学校がある家屋と離れ、土地などまとめて０円",https://zero.estate/?p=138016,受付終了,138.99023137252922,37.63796038298881,
"鹿児島県姶良市｜JR日豊本線「姶良駅」から車で16分、徒歩圏内に高校やコンビニがある土地10筆をまとめて０円",https://zero.estate/?p=138216,受付終了,130.5846373,31.752654099999994,
"新潟県湯沢町｜周囲に複数のスキー場やキャンプ場があり、徒歩圏内には温泉もある西武ヴィラ苗場3号館の一室が０円",https://zero.estate/?p=138230,受付終了,138.7914597,36.791497299999996,
"山口県周南市｜山陽自動車道「熊毛IC」から車で9分、山間部にある小さな集落から少し離れた家屋と土地が０円",https://zero.estate/?p=138198,受付終了,132.0051932,34.03212459999999,
"埼玉県春日部市｜東武スカイツリーライン「春日部駅」から車で約15分、千葉との県境に位置する田畑11筆をまとめて０円",https://zero.estate/?p=137870,募集中,139.79739338054108,36.02369955965703,
"徳島県鳴門市｜鳴門海峡や大鳴門橋、大塚国際美術館にほど近いタイムシェアリゾート「ふるさと君渦潮編」１週間分が０円",https://zero.estate/?p=137464,一時停止,134.624309,34.197637,
"岡山県倉敷市｜瀬戸中央自動車道「児島IC」から車で5分、鷲羽山ハイランドからほど近い畑2筆をまとめて０円",https://zero.estate/?p=137594,受付終了,133.8026658,34.4397122,
"山口県周防大島町｜JR山陽本線「大畠駅」から車で約14分、エンジェルロードで知られる真宮島にほど近い土地5筆が０円",https://zero.estate/?p=137799,一時停止,132.20866669999998,33.9246389,
"茨城県かすみがうら市｜JR常磐線「神立駅」から車で10分、周囲に複数の太陽光発電所がある家屋と山林をあわせて０円",https://zero.estate/?p=136804,受付終了,140.3044059,36.1016361,
"徳島県鳴門市｜渦潮で有名な鳴門海峡が目の前にひろがるタイムシェアリゾート「ふるさと君渦潮編」１週間分が０円",https://zero.estate/?p=137211,一時停止,134.624309,34.197637,
"千葉県横芝光町｜JR総武本線「横芝駅」から約6分ほど、宮川熊野神社や図書館からほど近い土地2筆が０円",https://zero.estate/?p=137864,受付終了,140.5096996,35.6594184,
"北海道白老町｜JR室蘭本線「北吉原駅」から車で3分、役場や郵便局にもほど近い国道36号線近くの平屋建家屋が０円",https://zero.estate/?p=137885,受付終了,141.2933471,42.5130018,
"兵庫県太子町｜JR山陽本線「網干駅」から車で10分、太子町立図書館近くの調整区域にある未使用の第3種農地が０円",https://zero.estate/?p=137328,受付終了,134.5813067,34.8374173,
"長野県上田市｜JR北陸新幹線「上田駅」から車で約20分ほど、地蔵温泉からほど近い二階建て家屋と周囲の土地をまとめて０円",https://zero.estate/?p=137469,受付終了,138.2755711,36.4862982,
"埼玉県飯能市｜JR八高線・西武池袋線「東飯能駅」から車で16分、周囲にゴルフ場がならぶ山間部の土地が０円",https://zero.estate/?p=135912,受付終了,139.25441835429703,35.874805724501506,
"千葉県袖ケ浦市｜JR久留里線「東横田駅」から車で約5分ほど、東京ドイツ村やふれあいどうぶつ縁からほど近い土地が０円",https://zero.estate/?p=137460,一時停止,140.06247935,35.3898582,
"千葉県袖ケ浦市｜JR久留里線「東横田駅」から車で4分、季節のイベントが楽しめる観光スポットにほど近い農地2筆が０円",https://zero.estate/?p=137506,受付終了,140.06247935,35.3898582,
"北海道羽幌町｜沿岸バス「羽幌バスターミナル」から徒歩10分、道の駅・ほっとはぼろからほど近い二階建て家屋が０円",https://zero.estate/?p=137403,受付終了,141.7098457,44.3592683,
"新潟県湯沢町｜JR上越線「越後中里駅」から車で8分、釣り堀や温泉からほど近いランパーツ中里の一室が０円",https://zero.estate/?p=136144,受付終了,138.83663330000002,36.909775399999994,
"群馬県嬬恋村｜JR吾妻線「万座・鹿沢口駅」から車で約15分、軽井沢おもちゃ王国近くの別荘地プリンスランドの一区画が０円",https://zero.estate/?p=137203,受付終了,138.51767,36.5005785,
"新潟県新潟市｜JR信越本線「古津駅」から車で5分、薬科大学やゴルフ場からほど近い約450坪の土地と家屋まとめて０円",https://zero.estate/?p=135283,受付終了,139.122719,37.7814838,
"栃木県那須町｜東北自動車道「那須IC」から車で12分、那須高原りんどう湖ファミリー牧場からほど近い土地が０円",https://zero.estate/?p=136374,受付終了,140.069246,37.0459444,
"愛知県高浜市｜名鉄三河線「北新川駅」から車で4分、碧南市明石公園からほど近い田戸神社すぐ横の家屋が０円",https://zero.estate/?p=136379,受付終了,136.98285177618558,34.90795232650624,
"新潟県上越市｜えちごトキめき鉄道「高田駅」から車で3分、陀羅尼八幡神社近くにある9DKの家屋と作業所が０円",https://zero.estate/?p=81786,一時停止,138.24356454999997,37.121997199999996,
"北海道浜頓別町｜ラムサール条約指定地・クッチャロ湖から車で14分、徒歩圏内に郵便局がある二階建て家屋が０円",https://zero.estate/?p=136261,募集中,142.31279899999998,45.04814400000001,
"北海道釧路市｜JR根室本線「音別駅」から徒歩5分、徒歩圏内に屋外スケートリンクや小中学校がある二階建て家屋が０円",https://zero.estate/?p=136413,受付終了,143.92923869999998,42.890110400000005,
"広島県北広島町｜中国自動車道「千代田IC」から車で19分、島根県との県境付近の山間部に建つ家屋が０円",https://zero.estate/?p=136277,募集中,132.5538942,34.746172,
"青森県中泊町｜津軽自動車道「五所川原北IC」から車で17分、一級河川・岩木川の横に位置する二階建て家屋が０円",https://zero.estate/?p=136596,一時停止,140.4201335,40.925166499999996,
"北海道登別市｜JR室蘭本線「鷲別駅」から車で8分、室蘭工業大学からほど近い閑静な住宅地の二階建て家屋が０円",https://zero.estate/?p=136659,受付終了,141.03276445304195,42.38021885978409,
"北海道鹿部町｜JR函館本線「鹿部駅」から徒歩15分、ゴルフ場や陸上自衛隊演習場からほど近いリゾート地の一区画が０円",https://zero.estate/?p=136583,受付終了,140.7838056,42.0673056,
"大阪府岬町｜南海電鉄・南海本線「淡輪駅」から徒歩13分、淡輪ニサンザイ古墳からほど近い住宅地内の土地が０円",https://zero.estate/?p=135807,受付終了,135.18180230536012,34.32763984950206,
"群馬県嬬恋村｜JR吾妻線「万座・鹿沢口駅」から車で15分、軽井沢おもちゃ王国からほど近い別荘地の一区画が０円",https://zero.estate/?p=135811,受付終了,138.5624582,36.4666069,
"千葉県横芝光町｜JR総武本線「横芝駅」から車で12分、九十九里浜の中央部、栗山川漁港からほど近い土地が０円",https://zero.estate/?p=135815,受付終了,140.5173957,35.6131541,
"北海道下川町｜名士バス「下川バスターミナル」から徒歩で3分、国道239号そばにある２階建家屋と納屋の建物のみ０円",https://zero.estate/?p=136236,募集中,142.6400132,44.301780699999995,
"北海道室蘭市｜JR室蘭本線「母恋駅」から徒歩11分、バス停目の前、中央通り沿いの２階建てアパートが０円",https://zero.estate/?p=135906,受付終了,140.9938889,42.311499999999995,
"岡山県浅口市｜山陽自動車道「鴨方IC」から車で15分、県内随一の水揚げ量をほこる寄島漁港からほど近い家屋が０円",https://zero.estate/?p=135289,受付終了,133.59707849999998,34.495248499999995,
"北海道札幌市｜市営地下鉄南北線「真駒内駅」から車で17分、中学校からほど近い住宅街近くの原野2筆をまとめて０円",https://zero.estate/?p=135670,受付終了,141.30361109999998,42.9474167,
"宮崎県日南市｜JR日南線「伊比井駅」から車で約10分、富士海水浴場やキャンプ場からほど近い山林4筆が０円",https://zero.estate/?p=135686,受付終了,131.4222484,31.6977866,
"山口県下関市｜バス停「吉母港」から徒歩3分、遠浅で美しい砂浜の吉母海水浴場が歩いてすぐの築古戸建が０円",https://zero.estate/?p=135272,受付終了,130.8776379,34.0897134,
"三重県志摩市｜三重交通バス停「船越浜」から徒歩4分、国道260号から一本入ったところに建つ２階建て家屋が０円",https://zero.estate/?p=132045,取引中止,136.8644951,34.2717562,
"北海道白老町｜JR室蘭本線「竹浦駅」から車で4分、徒歩圏内に海やレストランがある線路近くの平地が０円",https://zero.estate/?p=135021,一時停止,141.2453611,42.4833889,
"広島県世羅町｜JR福塩線「吉舎駅」から車で12分、築150年の蔵付き家屋と土地13筆・約11500㎡をまとめて０円",https://zero.estate/?p=134906,一時停止,132.99750369999998,34.6552595,
"長野県小諸市｜JR小海線「美里駅」から車で17分、自然豊かで周囲にいくつか宿泊施設がある別荘エリアの建物が０円",https://zero.estate/?p=134959,受付終了,138.37811109999998,36.3149444,
"静岡県熱海市｜伊豆箱根バス「相の原入り口」バス停から徒歩約2分、「中銀ライフケア梅園台16号館」の一室が０円",https://zero.estate/?p=132465,募集中,139.05064919999998,35.1028784,
"兵庫県南あわじ市｜慶野松原海水浴場が徒歩圏内にあるタイムシェアリゾート「ふるさと君淡路島」１週間分が０円",https://zero.estate/?p=132822,受付終了,134.735175,34.336969,
"北海道江差町｜江差港フェリーターミナルから車で4分、徒歩圏内に中学校やコンビニがある海近くの平家が０円",https://zero.estate/?p=134211,受付終了,140.11696222218063,41.85584854181888,
"北海道白老町｜JR室蘭本線「萩野駅」から車で5分、徒歩圏内にコンビニがある閑静な住宅地の土地が０円",https://zero.estate/?p=132831,受付終了,141.29155559999998,42.5289444,
"鳥取県智頭町｜JR因美線「智頭駅」から徒歩5分、町役場や郵便局からほど近い土師川付近にある家屋が０円",https://zero.estate/?p=132433,受付終了,134.22773619999998,35.266561700000004,
"石川県輪島市｜能登半島の北西部に位置する静かで自然に囲まれた輪島市にある約10,000坪の土地が０円",https://zero.estate/?p=132508,一時停止,136.72806444999998,37.2366303,
"岡山県浅口市｜JR山陽本線「鴨方駅」から車で4分、周囲に複数の城跡や古墳がある歴史情緒あふれる街の家屋が０円",https://zero.estate/?p=132019,受付終了,133.5797009669837,34.51838357536543,
"岩手県北上市｜JR東北本線「村崎野駅」から車で6分、周囲にはホームセンターや病院がある2階建アパートの一室が０円",https://zero.estate/?p=132052,受付終了,141.11746,39.318378,
"徳島県阿南市｜JR牟岐線「阿波橘駅」から徒歩8分、徒歩圏内に津乃峰小学校がある２階建て家屋が０円",https://zero.estate/?p=131996,受付終了,134.6480379757093,33.88531017322038,
"千葉県印西市｜北総線・京成成田空港線「印旛日本医大駅」から徒歩13分、住宅地横にある雑種地2筆をまとめて０円",https://zero.estate/?p=132040,一時停止,140.2052566176891,35.780696059146045,
"新潟県湯沢町｜JR上越線「越後中里駅」から車で8分、スキー場近くのリゾートマンション・ランパーツ中里の一室が０円",https://zero.estate/?p=132198,受付終了,138.83663330000002,36.909775399999994,
"神奈川県相模原市｜JR中央東線「藤野駅」から車で7分、釣り場としても有名な相模湖近くにある土地6筆が０円",https://zero.estate/?p=131929,受付終了,139.16745179999998,35.6082305,
"北海道留萌市｜深川留萌自動車道「留萌IC」から車で6分、市街地が一望できる千望台からほど近い家屋が０円",https://zero.estate/?p=131940,募集中,141.6511837,43.9319559,
"山梨県富士河口湖町｜中央自動車道「河口湖IC」から車で約25分、富士ドクタービレッジの土地２区画が０円",https://zero.estate/?p=131946,受付終了,138.6288741,35.4088276,
"福岡県柳川市｜西鉄天神大牟田線「西鉄中島駅」から徒歩10分、矢部川そばの住宅地に建つ平家と田んぼをまとめて０円",https://zero.estate/?p=131716,受付終了,130.44250060000002,33.12733299999999,
"北海道小樽市｜JR函館本線「小樽駅」から徒歩8分、徒歩圏内にコンビニや小樽三角市場がある住宅街のアパートが０円",https://zero.estate/?p=131566,受付終了,140.9909157009587,43.20175620131852,
"北海道室蘭市｜JR室蘭本線「東室蘭駅」から車で10分、市街地の夜景が楽しめる八丁平展望台からほど近い土地が０円",https://zero.estate/?p=130446,受付終了,141.0093844,42.3621188,
"長崎県長崎市｜JR長崎本線「長崎駅」から車で13分、水神神社からほど近い閑静な住宅地にある平家が０円",https://zero.estate/?p=130641,受付終了,129.8975087,32.753023,
"群馬県嬬恋村｜JR吾妻線「万座・鹿沢口駅」から車で13分、浅間山の山裾に広がる別荘地プリンスランドの一区画が０円",https://zero.estate/?p=130654,受付終了,138.53788889999998,36.479833299999996,
"富山県氷見市｜JR氷見駅から徒歩5分、海産物や源泉かけ流しの天然温泉を楽しめる氷見温泉郷総湯にほど近い土地が０円",https://zero.estate/?p=130402,受付終了,136.9923455,36.8484133,
"長野県佐久市｜上信越自動車道「佐久平スマートIC」から車で33分、自然豊かな佐久高原別荘地の一区画が０円",https://zero.estate/?p=130328,受付終了,138.5988648,36.2522571,
"福岡県直方市｜JR筑豊線（福北ゆたか線）「新入駅」から車で約10分、SDGs未来都市・直方市にある山林の4,700㎡の土地が０円",https://zero.estate/?p=130307,受付終了,130.69965365,33.761449299999995,
"広島県廿日市市｜JR山陽本線「玖波駅」から車で9分、湯舟の滝からほど近い山間部の小さな集落にある土地が０円",https://zero.estate/?p=130005,受付終了,132.215508,34.297696,
"北海道森町｜JR函館本線「東森駅」から徒歩11分、JR森駅にもほど近い森砂原線沿いにある２階建一軒家が０円",https://zero.estate/?p=129750,受付終了,140.5875901,42.1077716,
"群馬県安中市｜JR信越本線「松井田駅」から徒歩15分、徒歩圏内に閉校した中学校がある県道付近の土地が０円",https://zero.estate/?p=130057,受付終了,138.8058635,36.3037818,
"長崎県佐世保市｜JR佐世保線「佐世保駅」から車で7分、徒歩圏内に小中学校がある閑静な住宅街に建つ家屋が０円",https://zero.estate/?p=129939,受付終了,129.7267115,33.1784925,
"群馬県みどり市｜東武線新桐生駅（特急りょうもう停車駅）から車で５分、東武線太田駅（特急りょうもう停車駅）から車で３０分、JR両毛線「岩宿駅」から車で５分、阿左美沼の畔、ボートレース場近くの風致地区に建つ平家の建物のみ０円",https://zero.estate/?p=129529,受付終了,139.30804117183484,36.397049437168626,
"奈良県葛城市｜JR和歌山線「JR五位堂駅」から車で7分、国道165号沿いにある約3200㎡の農地が０円",https://zero.estate/?p=129453,募集中,135.6981944,34.523555599999995,
"北海道厚岸町｜JR根室本線「厚岸駅」から車で5分、徒歩圏内に中学校や公園、コンビニがある住宅街の土地が０円",https://zero.estate/?p=129536,受付終了,144.81791669999998,43.0605278,
"長崎県長崎市｜JR西浦上駅から徒歩約10分、長崎南山小学校にほど近い住宅街の坂道にある平家建て家屋が０円",https://zero.estate/?p=129762,一時停止,129.8573231,32.7869452,
"京都府京都市｜JR山陰本線「花園駅」から車で22分、樹齢およそ400年の北山大台杉からほど近い家屋が０円",https://zero.estate/?p=129326,受付終了,135.6887431,35.086597,
"静岡県熱海市｜JR伊東線「来宮駅」から車で5分、ライフケアマンション「中銀ライフケア梅園台16号館」の一室が０円",https://zero.estate/?p=129187,一時停止,139.05064919999998,35.1028784,
"群馬県片品村｜関越自動車道「沼田IC」から車で35分、閑静な自然豊かな別荘地エリアにある土地が０円",https://zero.estate/?p=129192,受付終了,139.1938869,36.761919,
"北海道岩見沢市｜JR函館本線「岩見沢駅」から車で11分、自然公園やキャンプ場にほど近い2階建て家屋2棟をまとめて０円",https://zero.estate/?p=128249,受付終了,141.7659777,43.1679942,
"北海道美幌町｜JR石北本線「美幌駅」から車で6分、一級河川・網走川からほど近い緑豊かな住宅地の土地が０円",https://zero.estate/?p=128849,受付終了,144.0937778,43.82375,
"長野県上田市｜しなの鉄道線「大屋駅」から車で36分、スキー場やキャンプ場からほど近い緑豊かなエリアの家屋が０円",https://zero.estate/?p=128826,受付終了,138.13902779999998,36.2637778,
"長崎県長崎市｜JR長崎本線「長崎駅」から車で約10分、七高山のひとつ英彦山や神社からほど近い土地が０円",https://zero.estate/?p=128665,受付終了,129.8971365,32.751269,
"新潟県燕市｜JR弥彦線「燕駅」から徒歩11分、徒歩圏内に郵便局や市立図書館がある閑静な住宅地の二階建て家屋が０円",https://zero.estate/?p=128676,受付終了,138.92198299999998,37.6647214,
"愛媛県宇和島市｜磯釣りスポットとして知られる戸島にある、海まですぐの２階建家屋が０円",https://zero.estate/?p=127119,募集中,132.3663731,33.2048897,
"岐阜県高山市｜東海北陸自動車道「荘川IC」から車で10分、周囲に多くの屋外レジャー施設があり、高山市街も近い別荘地の一区画が０円",https://zero.estate/?p=127263,受付終了,136.9530839,36.0657323,
"和歌山県白浜町｜紀伊本線「白浜駅」から車で10分、リゾートマンション「ヴァンドメール古賀浦」の一室が０円",https://zero.estate/?p=127862,受付終了,135.3571639,33.6841154,
"静岡県伊東市｜伊豆急行線「川奈駅」から車で12分、四季が楽しめる一碧湖からほど近い別荘地の一区画が０円",https://zero.estate/?p=128272,受付終了,139.10411900000003,34.92058599999999,
"富山県富山市｜JR高山本線「越中八尾駅」から車で17分、自然を感じられるレジャースポットが豊富な土地5筆をまとめて０円",https://zero.estate/?p=127106,募集中,137.0947638,36.5257814,
"愛知県一宮市｜JR東海道本線「木曽川駅」から車で7分、木曽川緑地公園にほど近い閑静な住宅街にある土地建物が０円",https://zero.estate/?p=125994,取引中止,136.7661046,35.358127,
"北海道余市町｜函館本線「余市駅」から車で10分、道央圏に生鮮魚介類などを送り出す余市港からほど近い土地が０円",https://zero.estate/?p=127208,受付終了,140.76511109999998,43.206805599999996,
"群馬県太田市｜北関東自動車道「太田桐生IC」から車で2分、日本100名城の１つ「金山城跡」のそばにある土地が０円",https://zero.estate/?p=127217,一時停止,139.3947222,36.32874999999999,
"長野県小諸市｜しなの鉄道線「滋野駅」から車で12分、桜と紅葉の名所でもある布引観音釈尊寺からほど近い土地が０円",https://zero.estate/?p=126960,受付終了,138.3700833,36.325888899999995,
"三重県伊賀市｜新名神高速道路「甲南IC」から車で14分、周囲に複数のゴルフ場がある二階建て家屋が０円",https://zero.estate/?p=126483,受付終了,136.1365383,34.87647419999999,
"山形県小国町｜JR米坂線「小国駅」から徒歩5分、ショッピングモールからほど近い角地に建つ４階建建物が０円",https://zero.estate/?p=125917,取引中止,139.74746589999998,38.06045759999999,
"島根県大田市｜JR山陰本線「久手駅」から徒歩4分、徒歩圏内に久手海岸がある平家と土地4筆をまとめて０円",https://zero.estate/?p=126455,受付終了,132.5043093,35.2291323,
"新潟県三条市｜JR信越本線「東三条駅」から車で6分、信濃川支流のひとつ五十嵐川そばにある土地6筆をまとめて０円",https://zero.estate/?p=126041,一時停止,138.9894712,37.6350582,
"岡山県倉敷市｜JR伯備線「清音駅」から車で6分、宅地・畑の土地３筆をまとめて０円",https://zero.estate/?p=126233,募集中,133.71455559999998,34.6543333,
"栃木県鹿沼市｜JR日光線「鹿沼駅」から車で22分、市街地から離れた小さな集落内の古民家と約12,000坪の土地が０円",https://zero.estate/?p=125827,一時停止,139.6646069,36.58525309999999,
"福岡県北九州市｜東九州自動車道「苅田北九州空港IC」からほど近い、アクセス良好な４筆の農地をまとめて0円",https://zero.estate/?p=126010,受付終了,130.9626043,33.7982792,
"山梨県鳴沢村｜「道の駅なるさわ」から車で4分、富士箱根伊豆国立公園内にある富士紅葉台センチュリーヴィラの一区画が０円",https://zero.estate/?p=125716,受付終了,138.6813056,35.4729722,
"茨城県坂東市｜常磐自動車道「谷和原IC」から車で25分、大利根カントリークラブからほど近い土地が０円",https://zero.estate/?p=125746,受付終了,139.8823611,36.0243056,
"千葉県長南町｜首都圏中央連絡自動車道「茂原長南IC」から車で6分、周囲に複数ゴルフコースがある土地が０円",https://zero.estate/?p=125092,受付終了,140.2521750763584,35.41293197267505,
"岐阜県養老町｜東海環状自動車道「養老IC」から車で2分、田園風景に囲まれた小さな住宅街に建つ二階建て家屋が０円",https://zero.estate/?p=124250,取引中止,136.5826051,35.2921357,
"福岡県北九州市｜JR鹿児島本線「枝光駅」から車で5分、アウトレットやイオンモールがほど近い土地が０円",https://zero.estate/?p=125083,募集中,130.8220231,33.87428,
"栃木県那須町｜東北道「那須高原スマートIC」や那須どうぶつ王国近くの別荘地「那須北沢ランド」にある平屋建て家屋が０円",https://zero.estate/?p=124785,受付終了,140.068707,37.1065519,
"愛媛県新居浜市｜JR予讃線「新居浜駅」から車で8分、周囲に各種学校や複数公園がある住宅街に建つ平家が０円",https://zero.estate/?p=124244,受付終了,133.2887469,33.9315018,
"千葉県東金市｜JR東金駅から車で11分、東金アリーナや業務スーパーからほど近い土地が０円",https://zero.estate/?p=124257,一時停止,140.4005556,35.556194399999995,
"新潟県柏崎市｜JR信越本線「柏崎駅」から車で6分、桜の名所として知られる赤坂山公園からほど近い土地が０円",https://zero.estate/?p=124450,一時停止,138.540184,37.355255,
"三重県志摩市｜離島や志摩半島を結ぶあご湾定期船「和具港」から徒歩6分、小中学校からほど近い二階建て家屋が０円",https://zero.estate/?p=123952,募集中,136.8098289,34.259698,
"滋賀県米原市｜JR東海道本線「近江長岡駅」から車で30分、伊吹山の山間にある豊かな自然に囲まれた一軒家が０円",https://zero.estate/?p=122742,受付終了,136.3610733,35.5100612,
"秋田県にかほ市｜JR羽越本線「仁賀保駅」から車で4分、徒歩圏内に小学校や鈴分港がある二階建て家屋が０円",https://zero.estate/?p=123687,受付終了,139.9511077,39.2882023,
"山口県岩国市｜JR岩徳線「周防高森駅」から徒歩5分、小学校や図書館、市役所からほど近い二階建て家屋が０円",https://zero.estate/?p=123525,受付終了,132.048758,34.0903754,
"岩手県滝沢市｜東北自動車道「演沢中央スマートIC」から車で11分、周囲に複数のスキー場がある土地が０円",https://zero.estate/?p=123527,一時停止,141.0454722,39.7563889,
"神奈川県厚木市｜小田急小田原線「愛甲石田駅」から車で9分、県道604号から入った緑豊かな住宅街にある土地が０円",https://zero.estate/?p=122777,一時停止,139.3291406,35.4281051,
"栃木県那須町｜JR東北本線「黒田原駅」から車で12分、那須バケィションランドのエリア内にある大沢・光陽台の分譲地が０円",https://zero.estate/?p=122828,募集中,140.04561335000002,37.07180845,
"北海道旭川市｜JR宗谷本線「永山駅」から徒歩で10分、徒歩圏内にコンビニがある住宅街に建つ二階建て家屋が０円",https://zero.estate/?p=122645,受付終了,142.4324073,43.8151281,
"三重県伊賀市｜名阪国道「御代IC」から車で9分、ルート25ゴルフクラブにほど近い自然豊かな住宅地にある土地が０円",https://zero.estate/?p=122665,受付終了,136.2343894,34.786844,
"三重県伊賀市｜名阪国道「南在家IC」から車で15分、「大山田温泉さるびの」からほど近い宅地と山林などまとめて０円",https://zero.estate/?p=122766,受付終了,136.28249530000002,34.776310099999996,
"栃木県那須町｜東北自動車道「那須IC」から車で13分、自然に囲まれ近くにキャンプ場や観光施設が豊富な土地が０円",https://zero.estate/?p=122160,受付終了,140.0550722,37.059419,
"栃木県日光市｜東武日光線「下今市駅」から車で18分、杉ノ郷カントリークラブ近くの自然豊かな土地が０円",https://zero.estate/?p=122158,受付終了,139.7806944,36.734611099999995,
"栃木県日光市｜日光宇都宮道路「大沢IC」から車で20分、ハイキングを楽しめる高知山そばにある土地が０円",https://zero.estate/?p=122169,受付終了,139.7584351,36.7064835,
"奈良県大和郡山市｜京奈和自動車道「郡山IC」から車で8分、ショッピングセンターが徒歩圏内にある農地が０円",https://zero.estate/?p=122719,受付終了,135.7828056,34.62361109999999,
"奈良県大和郡山市｜近鉄橿原線「筒井駅」から車で4分、小学校に近い農地が０円",https://zero.estate/?p=122782,受付終了,135.7808056,34.6260278,
"徳島県鳴門市｜鳴門山上病院から車で2分、室内設備完備のタイムシェアリゾート「ふるさと君渦潮編」１週間分が０円",https://zero.estate/?p=118959,受付終了,134.624309,34.197637,
"愛知県常滑市｜名鉄常滑線「榎戸線」から徒歩11分、周囲に保育園やJAグリーンセンターがある二階建て家屋が０円",https://zero.estate/?p=122727,受付終了,136.8286316,34.9105979,
"静岡県浜松市｜新東名高速道路「浜松いなさIC」から車で5分、バス停からほど近い日当たり良好な農地が０円",https://zero.estate/?p=121762,受付終了,137.62677779999999,34.850249999999996,
"三重県松阪市｜JR紀勢本線・参宮線「多気駅」から車で12分、松阪市総合運動公園からほど近い二階建て家屋が０円",https://zero.estate/?p=121808,受付終了,136.5699502,34.5338425,
"佐賀県佐賀市｜長崎自動車道「佐賀大和IC」から車で10分、市街地から少し離れた約1,000坪の土地が０円",https://zero.estate/?p=122146,受付終了,130.2515465,33.3538688,
"山梨県北杜市｜JR小海線「甲斐小泉駅」から車で11分、八ヶ岳連峰・三ツ頭のふもとに位置する別荘地の一区画が０円",https://zero.estate/?p=122126,取引中止,138.3729167,35.892805599999996,
"宮城県白石市｜JR東北本線「白石駅」から車で11分、弥治郎こけし村にほど近い物件と作業場を合わせて０円",https://zero.estate/?p=121328,受付終了,140.60072123681553,38.02924636084553,
"福井県敦賀市｜JR小浜線「敦賀駅」から車で8分、徒歩圏内に中学校と高校、市営野球場がある四階建家屋が０円",https://zero.estate/?p=120732,受付終了,136.052243,35.6522579,
"埼玉県久喜市｜JR湘南新宿ライン「久喜駅」から車で11分、徒歩圏内にコンビニがある二階建て家屋が建物のみ０円",https://zero.estate/?p=121366,受付終了,139.64388409999998,36.0765038,
"静岡県伊東市｜JR伊東線「宇佐美駅」から車で12分、宇佐美みのりの村別荘地の一区画が０円",https://zero.estate/?p=121322,募集中,139.0604444,34.992027799999995,
"山梨県山中湖村｜東富士五湖道路「山中湖IC」から車で16分、付近に富士山の見える観光スポットが豊富な別荘地が０円",https://zero.estate/?p=120652,一時停止,138.8898056,35.43825,
"岐阜県郡上市｜東海北陸自動車道「高鷲IC」から車で21分、別荘地「ニューパークひるが野」の一区画が０円",https://zero.estate/?p=120088,受付終了,136.9308611,35.949833299999995,
"新潟県小千谷市｜関越自動車道「小千谷IC」から車で5分、ゴルフ場からほど近い家屋と土地16筆をまとめて０円",https://zero.estate/?p=120129,受付終了,138.7759245,37.3283894,
"富山県魚津市｜富山地方鉄道本線「西魚津駅」から徒歩10分、県下屈指の漁場・魚津漁港からほど近い二階建て家屋が０円",https://zero.estate/?p=120098,受付終了,137.3955011,36.8100745,
"北海道江別市｜JR千歳線「北広島駅」から車で15分、道立自然公園である野幌森林公園のすぐ横にある更地が０円",https://zero.estate/?p=119687,受付終了,141.5475449,43.0302737,
"北海道美深町｜JR宗谷本線「美深駅」から徒歩5分、徒歩圏内にスーパーマーケットや病院がある住宅街の平家が０円",https://zero.estate/?p=119363,受付終了,142.34691669999998,44.48191669999999,
"秋田県北秋田市｜秋田内陸縦貫鉄道「阿仁合駅」からほど近く、長い歴史をもつ阿仁銀山の山中にある土地が０円",https://zero.estate/?p=119405,受付終了,140.3888087,39.9953726,
"青森県野辺地町｜JR大湊線「野辺地駅」から車で5分、徒歩圏内に自家焙煎コーヒー店がある二階建て家屋が０円",https://zero.estate/?p=119717,受付終了,141.1117146,40.8514342,
"秋田県大館市｜JR花輪線「扇田駅」から車で23分、バス停「大葛温泉入口」からすぐの小さな集落内にある旅館跡地が０円",https://zero.estate/?p=118596,受付終了,140.67722179999996,40.12746179999999,
"北海道上富良野町｜上富良野駅から徒歩5分、斜向かいにコンビニエンスストアが建つ住居兼元店舗が０円",https://zero.estate/?p=119411,受付終了,142.4667257594884,43.46197191452246,
"静岡県伊豆の国市｜伊豆縦貫道「大場・函南IC」から車で20分、温泉地が周囲に点在する伊豆エメラルドタウンの一区画が０円（さらに５０万円支給）",https://zero.estate/?p=118971,受付終了,138.9975556,35.0799444,
"長野県木曽町｜JR中央本線「木曽福島駅」から車で約40分、高原に位置する別荘地「オリンポス三岳」の一区画が０円",https://zero.estate/?p=118516,募集中,137.24731638970712,35.85436930187945,
"福岡県行橋市｜平成筑豊鉄道田川線「豊津駅」から車で3分、春には千本桜が咲き誇る今川近くの平家建一軒家が０円",https://zero.estate/?p=118668,一時停止,130.9589266,33.6883227,
"広島県庄原市｜JR芸備線「備後西城駅」から車で4分、周囲にスーパーマーケットや役所、病院が建つ二階建て家屋が０円",https://zero.estate/?p=118348,受付終了,133.11733329999998,34.9338056,
"千葉県山武市｜JR総武本線「日向駅」から車で9分、さんぶの森ふれあい公園からほど近い住宅地内の更地が０円",https://zero.estate/?p=118659,受付終了,140.38172219999998,35.6436111,
"長野県池田町｜サーキットあづみ野やキャンプ場にほど近い、自然豊かな山間地帯・広津地区に点在する土地51筆が０円",https://zero.estate/?p=118341,一時停止,137.8954275,36.4556166,
"北海道室蘭市｜JR室蘭本線「室蘭駅」から車で6分、徒歩圏内に総合病院や卸売場がある高台に建つ２階建て家屋が０円",https://zero.estate/?p=118577,受付終了,140.97499382852934,42.310361098192345,
"宮城県大崎市｜東北自動車道「古川IC」から車で10分、長閑な田園風景の中に建つ平家と土地5筆がまとめて０円",https://zero.estate/?p=118568,取引中止,140.95569419999998,38.6217895,
"新潟県湯沢町｜JR上越線・上越新幹線「越後湯沢駅」から車で28分、徒歩圏内に苗場スキー場がある西武ヴィラ苗場の一室が０円",https://zero.estate/?p=54005,一時停止,138.7914597,36.791497299999996,
"青森県青森市｜青い森鉄道線「矢田前駅」から徒歩で7分、海水浴場とスタジアムがある合浦公園にほど近い土地が０円",https://zero.estate/?p=118297,一時停止,140.8016667,40.8346111,
"北海道湧別町｜JR石北本線「遠軽駅」から車で20分、道の駅・かみゆうべつ温泉が徒歩圏内の平家3棟がまとめて０円",https://zero.estate/?p=118189,受付終了,143.5938454,44.18983339999999,
"長崎県壱岐市｜原島港から車で4分、釣りの聖地、壱岐の渡良三島のひとつ「原島」の海に囲まれた自然豊かな場所にある4Kの平屋建て家屋が０円",https://zero.estate/?p=117428,受付終了,129.64875396555107,33.721784277695626,
"北海道三笠市｜道央自動車道「三笠IC」から車で8分、三笠市市街地までほど近く自然に囲まれた二階建て家屋が０円",https://zero.estate/?p=117637,受付終了,141.87157589999998,43.2377633,
"愛媛県今治市｜西瀬戸自動車道「大島南IC」から車で10分、芸予諸島のひとつ「大島」に建つ二階建て家屋が０円",https://zero.estate/?p=117418,受付終了,133.019371,34.1393182,
"栃木県那須町｜東北自動車道「那須IC」から車で25分、周囲に多くのレジャー施設がある別荘地の一区画が０円",https://zero.estate/?p=117183,受付終了,140.0382778,37.088861099999995,
"島根県浜田市｜JR山陰本線「浜田駅」から車で6分、国道9号線横にある閑静な住宅地内の一部の山林が０円",https://zero.estate/?p=117508,受付終了,132.1018889,34.9116111,
"三重県伊賀市｜JR関西本線「新堂駅」から車で13分、周囲に複数ゴルフコースがある自然豊かな住宅地の更地が０円",https://zero.estate/?p=117535,受付終了,136.2323889,34.78188889999999,
"宮崎県三股町｜JR日豊本線「三股駅」から徒歩9分、徒歩圏内にドラッグストアやコンビニがある平家が０円",https://zero.estate/?p=117497,受付終了,131.1155044,31.731499999999993,
"長野県上田市｜しなの鉄道線「大屋駅」から車で48分、山々が連なるパノラマが楽しめる頂上公園にほど近い土地が０円",https://zero.estate/?p=117516,募集中,138.1742933,36.2200505,
"長崎県五島市｜福江港ターミナルから車で25分、富江小学校や公民館からほど近い閑静な住宅地にある更地が０円",https://zero.estate/?p=117526,受付終了,128.7668908,32.6138189,
"兵庫県丹波市｜丹波市役所から車で3分、小中学校からほど近く付近に葛野川が流れる住宅地にある更地が０円",https://zero.estate/?p=117359,受付終了,135.0311667,35.1724167,
"鹿児島県大崎町｜東九州自動車道「大崎IC」から車で5分、徒歩圏内に小中学校や町役場がある家屋が０円",https://zero.estate/?p=117191,一時停止,131.0110562,31.4274434,
"山口県下関市｜JR山陽本線「下関駅」から車で7分、厳島神社にほど近い高台の住宅地にある２階建家屋が０円",https://zero.estate/?p=117190,受付終了,130.9231762,33.957462,
"青森県六戸町｜上北自動車道「六戸三沢IC」から車で3分、住宅地をぬけた先にある山林約2390坪が０円",https://zero.estate/?p=116867,受付終了,141.3186667,40.6704167,
"北海道滝川市｜JR函館本線「滝川駅」から徒歩12分、市役所や東大通りからほど近い一部４階建の元料理屋店舗が０円",https://zero.estate/?p=116829,受付終了,141.9070585,43.558952399999995,
"北海道滝川市｜JR函館本線「滝川駅」から車で9分、北海道中央バスのバス停からほど近い角地に建つ二階建て家屋が０円",https://zero.estate/?p=115470,受付終了,141.9077095,43.5741648,
"福島県南会津町｜会津高原南郷スキー場から車で5分、標高2,000m級の山々に囲まれた家屋と土蔵まとめて０円",https://zero.estate/?p=116018,募集中,139.51947149999998,37.280265899999996,
"静岡県伊豆市｜伊豆スカイライン「天城高原IC」から車で20分、天城東急リゾート内の別荘地の一区画が０円",https://zero.estate/?p=115906,受付終了,139.0288333,34.9072222,
"兵庫県神戸市｜神戸電鉄三田線「二郎駅」から車で3分、国道176号線からすぐの住宅街にある山林2筆が０円",https://zero.estate/?p=116037,受付終了,135.2346293946784,34.846395922101,
"大分県国東市｜大分空港から車で約30分、白砂青松の海水浴場・羽田海岸からほど近い約1,600坪の農地が０円",https://zero.estate/?p=115930,受付終了,131.6899293,33.60173535,
"愛媛県八幡浜市｜JR予讃線「八幡浜駅」から車で5分、千丈川からほど近く小学校が徒歩圏内にある二階建家屋が０円",https://zero.estate/?p=116204,受付終了,132.4268611,33.45575,
"北海道比布町｜JR宗谷本線「蘭留駅」から徒歩3分、簡易郵便局や駐在所がほど近い二階建て倉庫付き家屋が０円",https://zero.estate/?p=115578,受付終了,142.4749167,43.9263889,
"福岡県嘉麻市｜嘉麻市役所から車で15分、上山田小学校や上山田郵便局にほど近いのどかな住宅地にある家屋が０円",https://zero.estate/?p=116010,受付終了,130.7719686,33.5615456,
"北海道士別市｜JR宗谷本線「士別駅」から車で5分、自動車教習所や各種学校が徒歩圏内にある2階建家屋が０円",https://zero.estate/?p=116112,受付終了,142.392562960265,44.18773139178953,
"新潟県三条市｜JR信越本線「保内駅」から車で6分、三条市グリーンスポーツセンターからほど近い4筆の山林をまとめて０円",https://zero.estate/?p=115558,受付終了,139.00799999999998,37.62702779999999,
"岩手県奥州市｜JR東北本線「前沢駅」から車で4分、徒歩圏内にスーパーマーケットがある二階建て家屋が０円",https://zero.estate/?p=115234,受付終了,141.1199747,39.044510599999995,
"新潟県湯沢町｜JR上越新幹線・上越線「越後湯沢駅」から車で33分、スキー場目の前西武ヴィラ苗場1号館の一室が０円",https://zero.estate/?p=115574,受付終了,138.7948097,36.7908283,
"愛媛県伊方町｜佐多岬半島ミュージアムから車で20分、海横の川之浜公園まで徒歩3分の二階建て家屋が０円",https://zero.estate/?p=115256,受付終了,132.22204267762018,33.426120817922516,
"群馬県長野原町｜草津カントリークラブに隣接、草津温泉まで約5km、標高1,000mにある白根高原・南草津『羽根尾別荘地』の一区画が０円",https://zero.estate/?p=115566,受付終了,138.58933330000002,36.5726389,
"山梨県市川三郷町｜中部横断自動車道「六郷IC」から車で2分、自然に囲まれた山のふもとにある土地12筆をまとめて０円",https://zero.estate/?p=112184,受付終了,138.4758611,35.4883056,
"北海道苫小牧市｜JR室蘭本線「苫小牧駅」から車で8分、県道781号から一本入った住宅街に建つ二階建て家屋が０円",https://zero.estate/?p=114542,受付終了,141.5797524,42.6410999,
"静岡県函南町｜韮山峠ICより車で10分、南箱根ダイヤランド別荘地内の土地一区画が０円（さらに50万円進呈）",https://zero.estate/?p=41965,受付終了,139.0023611,35.0799722,
"栃木県那須町｜那須ハイランドパークや那須サファリパークにほど近く、宿泊施設や別荘地の多いエリアにある土地が０円",https://zero.estate/?p=115386,受付終了,139.98875524999997,37.05644195,
"兵庫県上郡町｜JR山陽本線「上郡駅」から徒歩10分、春には桜が咲き誇る安室川からほど近い建物と土地をまとめて０円",https://zero.estate/?p=115286,一時停止,134.3562053,34.861781,
"北海道夕張市｜JR石勝線「新夕張駅」から車で7分、徒歩圏内にJA夕張や公園、郵便局がある二階建て家屋が０円",https://zero.estate/?p=113696,受付終了,142.0269475,42.956866399999996,
"北海道小樽市｜JR函館本線「銭函駅」から車で7分、海岸に浮かぶ小島・張碓恵比須島からほど近い土地が０円",https://zero.estate/?p=114662,受付終了,141.1214722,43.1520556,
"北海道夕張市｜JR石勝線「新夕張駅」から車で5分、住宅地そばにある国道452号に面した店舗スペース付きの物件が０円",https://zero.estate/?p=114450,受付終了,142.03022579999998,42.95760999999999,
"北海道登別市｜道央自動車道「登別東IC」から車で5分、透明度が高い倶多楽湖からほど近い山林2筆が０円",https://zero.estate/?p=113731,受付終了,141.16880559999998,42.4801389,
"三重県玉城町｜伊勢自動車道「玉城IC」から車で3分、複数の工場付近にある閑静な住宅街に建つ２階建て家屋が０円",https://zero.estate/?p=114512,一時停止,136.6113527,34.475450599999995,
"北海道室蘭市｜JR室蘭本線「母恋駅」から車で5分、徒歩圏内に市立中学校と小学校がある土地3筆まとめて０円",https://zero.estate/?p=114519,取引中止,140.9941944,42.30825,
"北海道夕張市｜JR石勝線「新夕張駅」から徒歩7分、夕張の南の玄関口・道の駅夕張メロードからほど近い家屋が０円",https://zero.estate/?p=114518,受付終了,142.0352258,42.93974299999999,
"岐阜県中津川市｜JR中央本線「坂下駅」から車で23分、二ツ森展望ラインにほど近く木々で囲まれた分譲地内の山林が０円",https://zero.estate/?p=114425,受付終了,137.4722222,35.562999999999995,
"香川県さぬき市｜JR高徳線「讃岐津田駅」から車で4分、吉見漁港や海水浴場にほど近い津田湾そばにある一軒家が０円",https://zero.estate/?p=114248,受付終了,134.2449276210778,34.29956247016517,
"静岡県函南町｜JR東海道本線「函南駅」から車で16分、南箱根の高原にある別荘地「南箱根ダイヤランド」の土地建物が０円",https://zero.estate/?p=114289,受付終了,138.9989894,35.087777800000005,
"山口県柳井市｜JR山陽本線「柳井港駅」から車で5分、徒歩圏内にコンビニがある納屋つき二階建て家屋と田畑などの物件をあわせて０円",https://zero.estate/?p=112254,受付終了,132.1192036791357,33.9430688,
"群馬県嬬恋村｜JR吾妻線「大前駅」から車で17分、スキー場にほど近く、緑に囲まれた別荘用の土地が０円",https://zero.estate/?p=113609,一時停止,138.5106389,36.45250000000001,
"愛媛県四国中央市｜松山自動車道「三島川之江IC」から車で8分、川沿いに建つ3階建の建物が０円（補助金100万円付き）",https://zero.estate/?p=113777,受付終了,133.5967049240591,33.98566355713004,
"大分県別府市｜JR日豊本線「別府駅」から徒歩10分、目の前にビーチが広がる的ヶ浜公園からほど近い家屋が０円",https://zero.estate/?p=113734,受付終了,131.5024751,33.2849115,
"長崎県長崎市｜JR長崎本線「長崎駅」から車で10分、長崎港のジャイアント・カンチレバークレーンからほど近い土地が０円",https://zero.estate/?p=113722,受付終了,129.8561656,32.7447758,
"兵庫県上郡町｜JR智頭急行「上郡駅」から車で10分、町役場や県立高校がほど近くバス停が徒歩圏内ある土地が０円",https://zero.estate/?p=113362,受付終了,134.33574423205184,34.89224573605983,
"群馬県長野原町｜JR吾妻線「羽根尾駅」から車で25分、紅葉や雪景色が楽しめる閑静な別荘地の更地が０円",https://zero.estate/?p=111973,募集中,138.60702780000003,36.4598333,
"岡山県岡山市｜JR万富駅まで徒歩16分、小学校や幼稚園も徒歩圏内の家屋と田畑などの物件を０円",https://zero.estate/?p=47744,受付終了,134.06964299143007,34.76260997447423,
"新潟県長岡市｜JR上越新幹線「長岡駅」東口から車で30分、小中学校や美術館が徒歩圏内にある２階建て家屋が０円",https://zero.estate/?p=112176,受付終了,138.9950919,37.4691651,
"北海道室蘭市｜JR室蘭本線「崎守駅」から徒歩11分、工場夜景が楽しめる白鳥湾展望台からほど近い土地が０円",https://zero.estate/?p=112699,受付終了,140.9295278,42.3744722,
"長野県長野市｜JR豊野駅から徒歩15分、周囲に緑あふれる土地建物が０円",https://zero.estate/?p=46471,受付終了,138.2704671,36.7154138,
"福岡県北九州市｜筑豊電気鉄道「希望が丘高校前駅」から徒歩10分、保育園や公園からほど近い土地3筆まとめて０円",https://zero.estate/?p=113024,受付終了,130.71576309955267,33.805491324781514,
"山口県光市｜JR山陽本線「光駅」から車で6分、保育園やお寺からほど近い自然豊かな住宅エリアにある更地が０円",https://zero.estate/?p=112163,受付終了,131.9326667,33.9885278,
"長崎県佐世保市｜松浦鉄道「左石駅」から車で5分、縄文早期の遺物が出土した岩下洞穴遺跡からほど近い土地が０円",https://zero.estate/?p=111260,募集中,129.7310278,33.21725,
"北海道北斗市｜函館江差自動車道「北斗富川IC」から車で2分、目の前に海が広がる海岸線にある土地が０円",https://zero.estate/?p=112159,受付終了,140.6214444,41.8028889,
"長野県山ノ内町｜ダイアパレス志賀高原9階部分・日数所有型リゾートマンション40日分が０円",https://zero.estate/?p=111983,一時停止,138.4137784226548,36.74095037641112,
"千葉県館山市｜JR内房線「館山駅」から車で13分、ファミリーに人気の波左間海水浴場近くにある２階建一軒家が０円",https://zero.estate/?p=111792,受付終了,139.80034999999998,34.96999889999999,
"広島県呉市｜JR呉線「呉駅」から車で5分、三津田高校や共済病院からほど近い高台に建つ二階建て家屋が０円",https://zero.estate/?p=111760,一時停止,132.5542563533727,34.251990528752415,
"長野県茅野市｜JR中央本線「茅野駅」から車で30分、白樺湖やスキー場からほど近い貸別荘地にある山荘の家屋のみ０円",https://zero.estate/?p=110672,受付終了,138.2283889,36.0965,
"岐阜県郡上市｜高鷲ICから車で15分、周辺にスキー場やゴルフ場などのレジャー施設が多い別荘地の一区画が０円",https://zero.estate/?p=111831,募集中,136.83834991508283,35.94833652024861,
"秋田県秋田市｜秋田自動車道「西仙北スマートIC」から車で20分、温泉施設からほど近い土地と建物、山林をまとめて０円",https://zero.estate/?p=110736,受付終了,140.20354536842098,39.51640917149898,
"福島県会津美里町｜JR只見線「会津高田駅」から車で12分、山のふもとにある２階建一軒家と車庫・物置・畑をまとめて０円",https://zero.estate/?p=111288,募集中,139.8282118,37.4182448,
"新潟県上越市｜えちごトキめき鉄道妙高はねうまライン「高田駅」から車で8分、賃貸中の倉庫付き２階建家屋が０円",https://zero.estate/?p=110327,受付終了,138.2602161,37.1209796,
"岩手県一関市｜JR大船渡線「摺沢駅」から車で15分、郵便局やスーパーマーケットが徒歩圏内にある更地が０円",https://zero.estate/?p=111315,受付終了,141.4061874,39.0183988,
"石川県金沢市｜金沢外環状道路「東長江IC」から車で10分、ハイキングコース春日山からほど近い２階建て家屋が０円",https://zero.estate/?p=111275,受付終了,136.6743475950911,36.57629719010465,
"宮城県石巻市｜JR石巻線「佳景山駅」から車で11分、鹿島記念病院が徒歩圏内にある倉庫付き二階建て家屋が０円",https://zero.estate/?p=111228,受付終了,141.1960805,38.470058800000004,
"静岡県伊豆市｜伊豆スカイライン「天城高原IC」から車で17分、「天城高原別荘地八景台」内の土地一区画が０円",https://zero.estate/?p=111283,受付終了,139.0264912,34.9033558,
"長野県軽井沢町｜上信越自動車道「碓氷軽井沢IC」から車で17分、別荘地「レイクニュータウン」の一区画が０円",https://zero.estate/?p=111269,受付終了,138.6227778,36.288361099999996,
"新潟県阿賀野市｜JR羽越本線「水原駅」から車で17分、周囲に温泉地が豊富な別荘地の一区画が０円",https://zero.estate/?p=111026,受付終了,139.29225,37.828250000000004,
"長野県信濃町｜避暑地やウインタースポーツの地としても知られる、野尻湖や黒姫高原にほど近い土地が０円",https://zero.estate/?p=110856,受付終了,138.2239781,36.8095458,
"静岡県熱海市｜JR伊東線「来宮駅」から車で17分、海岸にほど近く温泉スポットも豊富な土地２筆をまとめて０円",https://zero.estate/?p=109382,受付終了,139.0530833,35.0731389,
"大阪府豊中市｜阪急電鉄神戸本線「神崎川駅」から車で4分、小学校や公園からほど近い約2坪の土地が０円",https://zero.estate/?p=110729,受付終了,135.4638056,34.7374444,
"北海道函館市｜函館新外環状道路「日吉IC」から車で4分、緑で囲まれた土地と物置小屋をまとめて０円",https://zero.estate/?p=109812,受付終了,140.79472339908085,41.80666541670014,
"茨城県稲敷市｜首都圏中央連絡自動車道「阿見東IC」から車で30分、周囲にゴルフ場が多い霞ヶ浦そばの土地が０円",https://zero.estate/?p=110322,受付終了,140.33744439999998,35.991277800000006,
"富山県上市町｜富山地方鉄道「上市駅」から徒歩15分、神社仏閣や公園が周囲に点在する住宅街の家屋が０円",https://zero.estate/?p=110345,受付終了,137.36115719999998,36.710210700000005,
"兵庫県丹波市｜JR福知山線「石生駅」から徒歩14分、春には周辺が桜で満開となる水分れ公園からほど近い山林が０円",https://zero.estate/?p=109817,受付終了,135.0735,35.1513056,
"長野県上田市｜JR北陸新幹線・しなの鉄道「上田駅」から車で15分、須川湖からほど近い約1,000坪の山林が０円",https://zero.estate/?p=110305,一時停止,138.269429,36.360082,
"岐阜県郡上市｜東海北陸自動車道「高鷲IC」から車で12分、別荘地「ニューパークひるが野」の一区画が０円",https://zero.estate/?p=109904,受付終了,136.9146727,35.9479541,
"北海道士別市｜JR宗谷本線「士別駅」から徒歩15分、児童公園からほど近い住宅街に建つ２階建て家屋が０円",https://zero.estate/?p=110312,一時停止,142.3832668,44.1731547,
"北海道赤平市｜JR根室本線「茂尻駅」から車で3分、周囲が緑に囲まれた自然豊かな土地にある２階建て家屋が０円",https://zero.estate/?p=109891,一時停止,142.08038299999998,43.5430961,
"岩手県北上市｜JR東北本線・北上線「北上駅」から車で15分、国道456号から一本入った住宅地に建つ平家が０円",https://zero.estate/?p=109247,一時停止,141.2024654,39.2944715,
"北海道旭川市｜JR石北本線「東旭川駅」から車で5分、スーパーマーケットからほど近い愛宕新川横の土地が０円",https://zero.estate/?p=109832,受付終了,142.425537,43.774482799999994,
"山口県下関市｜JR山陽本線「下関駅」から徒歩16分、寺院や日和山浄水場からほど近い2階建家屋が０円",https://zero.estate/?p=109839,受付終了,130.9296534,33.9545357,
"宮城県丸森町｜常磐自動車道「山元南スマートIC」から車で13分、周辺に神社仏閣や城跡が残る歴史ある街の土地が０円",https://zero.estate/?p=109826,受付終了,140.8243561,37.9179716,
"北海道登別市｜JR室蘭本線「鷲別駅」から車で7分、徒歩圏内に亀田記念公園がある住宅地そばの土地が０円",https://zero.estate/?p=109377,受付終了,141.06130560000003,42.3808333,
"香川県高松市｜JR高徳線「志度駅」から車で8分、周辺は自然豊かで昭和時代はクレー射撃場だった土地と家屋が０円",https://zero.estate/?p=109290,受付終了,134.1545783,34.31365019999999,
"長野県上田市｜上信越自動車道「東部湯の丸IC」から車で20分、周囲を山に囲まれた閑静な住宅街に建つ平家が０円",https://zero.estate/?p=109313,受付終了,138.33602869999999,36.455134799999996,
"新潟県長岡市｜半蔵金簡易郵便局から徒歩5分、県道24号栃尾山古志線に面し山間部の小さな集落内にある土地が０円",https://zero.estate/?p=109128,募集中,138.9485833,37.382999999999996,
"広島県東広島市｜JR山陽本線「西条駅」から車で約15分、学園都市東広島市の山林約2,600坪をまとめて０円",https://zero.estate/?p=109030,一時停止,132.7338837274785,34.403345365392994,
"滋賀県甲賀市｜新名神高速道路「甲賀土山IC」から車で10分、白藤の滝など絶景を楽しめる観光地にほど近い地続きの土地5筆を０円",https://zero.estate/?p=108486,一時停止,136.2749444,34.9633889,
"茨城県牛久市｜JR常磐線「牛久駅」から車で10分、牛久沼碑など観光スポットにほど近い市街化調整区域の土地が０円",https://zero.estate/?p=108594,受付終了,140.1469722,35.995111099999995,
"埼玉県ときがわ町｜JR八高線「明覚駅」から徒歩11分、スーパーマーケットからほど近い宅地2筆が０円",https://zero.estate/?p=108584,一時停止,139.2810556,36.00258329999999,
"兵庫県加東市｜滝野社インターから車で15分、周辺にゴルフ場が多い別荘地の一区画が０円",https://zero.estate/?p=108465,受付終了,135.0125876803031,34.896095405989115,
"石川県野々市市｜IRいしかわ鉄道線「野々市駅」から車で7分、無印良品や明倫通りの近くにあるマンションの一室が０円",https://zero.estate/?p=108342,受付終了,136.6006474,36.5330744,
"石川県野々市市｜IRいしかわ鉄道線「野々市駅」から車で7分、大型スーパーマーケットが徒歩圏内のマンションの一室が０円",https://zero.estate/?p=108454,受付終了,136.6006474,36.5330744,
"石川県志賀町｜釣りが楽しめる「赤崎漁港」から徒歩5分、少し高台に位置する住宅街の中の物置付き平屋が０円",https://zero.estate/?p=108043,受付終了,136.67301887597134,37.16899144682398,
"大阪府大阪狭山市｜南海高野線「狭山駅」から徒歩5分、駅から近く地下室と屋根裏部屋がある２階建一軒家が０円",https://zero.estate/?p=105625,受付終了,135.5499901,34.513321000000005,
"長崎県長崎市｜西九州新幹線・長崎本線「長崎駅」から車で7分、小中学校や高校からほど近い平屋と畑をまとめて０円",https://zero.estate/?p=107121,受付終了,129.8741598,32.7603978,
"福岡県北九州市｜JR福北ゆたか線「鞍手駅」から車で8分、広い住宅街の中で小さな公園の横にある宅地3筆をまとめて０円",https://zero.estate/?p=107279,受付終了,130.71580559999998,33.804333299999996,
"福岡県北九州市｜JR日豊本線「城野駅」から車で7分、曽根臨海公園などのレジャースポットにほど近い高台にある土地が０円",https://zero.estate/?p=107789,一時停止,130.9014444,33.8555278,
"徳島県鳴門市｜サーフスポットでも知られる竜宮の磯から徒歩6分、タイムシェアリゾート「ふるさと君渦潮編」１週間分が０円",https://zero.estate/?p=104561,受付終了,134.624309,34.197637,
"新潟県柏崎市｜JR信越本線「米山駅」から徒歩8分、アットホームな米山海水浴場からほど近い２階建て家屋が０円",https://zero.estate/?p=107085,受付終了,138.43013349999998,37.3140652,
"新潟県南魚沼市｜関越道「塩沢石打IC」から車で5分、スキー場にもほど近く保養所として利用していた２階建家屋が０円",https://zero.estate/?p=106842,受付終了,138.7979657,36.984821200000006,
"岐阜県関ケ原町｜名神高速道路「関ケ原IC」から車で約10分、関ケ原ウォーランド近くの住宅地にある更地が０円",https://zero.estate/?p=106153,受付終了,136.4391389,35.3776389,
"静岡県浜松市｜上阿多古幼稚園からほど近い、のどかな山間の集落にある居宅2棟・倉庫2棟と土地をまとめて０円",https://zero.estate/?p=103431,受付終了,137.7635824,34.91103650000001,
"北海道愛別町｜旭川紋別自動車道「比布北IC」から車で13分、周囲に田畑が広がる平屋建家屋が０円",https://zero.estate/?p=106105,受付終了,142.5703965,43.9194367,
"香川県綾川町｜高松琴平電気鉄道琴平線「綾川駅」から車で10分、住宅街を抜けた先にある山林エリアの一角が０円",https://zero.estate/?p=105974,受付終了,133.9292778,34.22038889999999,
"宮城県仙台市｜JR仙山線「作並駅」から車で8分、情緒あふれる温泉街・作並温泉からほど近い別荘地の一区画が０円",https://zero.estate/?p=106507,受付終了,140.6340833,38.3071389,
"福岡県北九州市｜北九州都市高速「大谷出入口」から車で1分、市街地へのアクセス良好で眺望良好な坂の上の更地が０円",https://zero.estate/?p=106139,受付終了,130.8021944,33.85922219999999,
"栃木県日光市｜東武「鬼怒川温泉駅」から車で12分、自然を感じられる龍王峡近くの別荘地「鬼怒川第一竜王苑」の一区画が０円",https://zero.estate/?p=106181,受付終了,139.7216594,36.8622678,
"長野県小諸市｜JR小海線・しなの鉄道「小諸駅」から車で15分、大型別荘地イートピア小諸別荘地の一区画が０円",https://zero.estate/?p=106148,募集中,138.3718056,36.3236667,
"香川県観音寺市｜JR予讃線「豊浜駅」から車で12分、近隣農業団地の礎となっている井関池からほど近い更地が０円",https://zero.estate/?p=105980,受付終了,133.6890927,34.0627236,
"長野県立科町｜JR中央本線「茅野駅」から車で40分、女神湖やキャンプ場からもほど近いスキー場横にある平家が建物のみ０円",https://zero.estate/?p=106130,受付終了,138.2731637,36.1260875,
"千葉県市原市｜館山自動車道「姉崎袖ケ浦IC」から車で16分、複数のゴルフ場が周囲にある土地2筆をまとめて０円",https://zero.estate/?p=105005,受付終了,140.1185177,35.4256725,
"北海道小樽市｜JR函館本線「小樽駅」から車で10分、小樽運河近くの家庭菜園が楽しめる平屋建一軒家が０円",https://zero.estate/?p=105957,受付終了,140.9589514,43.2116134,
"北海道七飯町｜JR函館本線「大沼公園駅」から車で20分、大沼国定公園近くの別荘地「大沼湖畔緑の村」の一区画が０円",https://zero.estate/?p=105607,一時停止,140.6920556,42.0284444,
"群馬県嬬恋村｜JR北陸新幹線「軽井沢駅」より車で43分、温泉施設までのアクセスが良い別荘地の一区画が０円",https://zero.estate/?p=105601,受付終了,138.5527232,36.4600718,
"三重県志摩市｜船越郵便局から徒歩4分、海が近く伊勢志摩の自然豊かな地域にある土地3筆・建物2棟をまとめて０円",https://zero.estate/?p=105010,受付終了,136.8674691,34.2697917,
"山口県長門市｜夕陽がきれいな伊上海浜公園オートキャンプ場から車で3分、海に近いのどかな地域にある更地が０円",https://zero.estate/?p=105611,受付終了,131.0173611,34.37127780000001,
"広島県尾道市｜ショッピングセンターや小中学校からほど近く、閑静な住宅街にある築64年の２階建て家屋が０円",https://zero.estate/?p=105035,取引中止,133.18502843707782,34.40554307294875,
"福島県大玉村｜東北自動車道「本宮IC」から車で42分、温泉が引ける別荘地「グリーンタウン熱海」の一区画が０円",https://zero.estate/?p=104825,募集中,140.30258329999998,37.533305600000006,
"新潟県湯沢町｜夏の音楽フェスも冬のスキーも楽しめるリゾートマンション「西武ヴィラ苗場７号館」の一室が０円",https://zero.estate/?p=104831,受付終了,138.7916703,36.7925686,
"北海道留萌市｜深川留萌自動車道「留萌IC」から車で5分、自衛隊駐屯地や郵便局からほど近い２階建て家屋が０円",https://zero.estate/?p=104657,受付終了,141.6711371,43.9250715,
"岐阜県下呂市｜濃飛横断自動車道「金山IC」から車で4分、陶芸の工房として利用していた家庭菜園付き古民家が０円",https://zero.estate/?p=104656,受付終了,137.13652059999998,35.7226502,
"山梨県鳴沢村｜富士山が見える「道の駅なるさわ」から車で4分、富士紅葉台センチュリーヴィラの一区画が０円",https://zero.estate/?p=104688,受付終了,138.6792222,35.4694167,
"鹿児島県鹿屋市｜国立大学鹿屋体育大学から車で5分、周囲を田畑に囲まれた閑静な住宅街にある土地2筆が０円",https://zero.estate/?p=104662,受付終了,130.7811473,31.4027429,
"北海道真狩村｜成層火山「羊蹄山」の麓に位置し、県道97号豊浦京極線から一本入った山林約500坪が０円",https://zero.estate/?p=103218,受付終了,140.8535278,42.785305599999994,
"北海道月形町｜道央自動車道「美唄IC」から車で25分、水田広がる住宅地に位置する２階建て家屋と土地２筆をまとめて０円",https://zero.estate/?p=104526,受付終了,141.66469341224501,43.32898527099894,
"福島県二本松市｜東北自動車道「二本松IC」から車で6分、のどかな田園風景に囲まれた市立小学校目の前に建つ家屋が０円",https://zero.estate/?p=103436,取引中止,140.42687949999998,37.6141827,
"広島県東広島市｜JR呉線「安芸津駅」から車で10分、三津湾に面する小学校からほど近い２階建て家屋と土地をまとめて０円",https://zero.estate/?p=104566,受付終了,132.8405918,34.3149253,
"長野県軽井沢町｜上信越道「碓氷軽井沢IC」より車で20分、別荘地レイクニュータウン「八風の郷」にある一区画が０円",https://zero.estate/?p=103425,受付終了,138.5961153,36.2917588,
"宮崎県宮崎市｜東九州自動車道「宮崎西IC」から車で10分、田畑や山林などの土地17筆と平屋建家屋2棟をまとめて０円",https://zero.estate/?p=101391,受付終了,131.3316729,31.9155825,
"岡山県真庭市｜米子自動車道「蒜山IC」から車で約5分、別荘地「バラード・ヴィレッジ蒜山」にある一区画が０円",https://zero.estate/?p=103417,受付終了,133.6218056,35.2983611,
"北海道名寄市｜JR宗谷本線「風連駅」から徒歩10分、道道206号線に面しスーパーが徒歩圏内にある２階建て家屋が０円",https://zero.estate/?p=102441,受付終了,142.4185278,44.288111099999995,
"北海道美唄市｜JR函館本線「美唄駅」から車で4分、市立美唄病院やスーパーにほど近い住宅地にある２階建一軒家が０円",https://zero.estate/?p=102752,受付終了,141.8559298,43.3420073,
"北海道鷹栖町｜道央自動車道「旭川北IC」から車で9分、周囲に田園風景が広がる２階建家屋と車庫・畑をまとめて０円",https://zero.estate/?p=102413,受付終了,142.3513333,43.87013890000001,
"秋田県秋田市｜JR奥羽本線「秋田駅」から車で10分、複数の高校からほど近く線路付近に建つ２階建て家屋が０円",https://zero.estate/?p=102729,受付終了,140.124276,39.7304068,
"新潟県柏崎市｜JR越後線「荒浜駅」から車で6分、荒浜漁港近くの住宅地にある更地と保安林の計3筆をまとめて０円",https://zero.estate/?p=102445,受付終了,138.5862778,37.4169167,
"福井県若狭町｜舞鶴若狭自動車道「若狭三方IC」から車で4分、事業用地として取得した未利用の土地が０円",https://zero.estate/?p=102380,受付終了,135.90802779999999,35.5696389,
"福岡県北九州市｜JR鹿児島本線「黒崎駅」から車で7分、黒崎中学校や黒畑小学校からほど近い家屋が０円",https://zero.estate/?p=101680,受付終了,130.77097329999998,33.852877299999996,
"千葉県山武市｜JR総武本線「松尾駅」から車で13分、蓮沼海浜公園や南浜海水浴場の近くにある未利用の土地が０円",https://zero.estate/?p=102014,受付終了,140.49733329999998,35.5896389,
"千葉県九十九里町｜東金九十九里有料道路「九十九里IC」から車で5分、真亀海水浴場からほど近い宅地が０円",https://zero.estate/?p=101584,受付終了,140.4277778,35.50780559999999,
"愛知県半田市｜JR武豊線「亀崎駅」から車で5分、衣浦大橋からほど近く周囲を住宅に囲まれている畑が０円",https://zero.estate/?p=100962,受付終了,136.96175,34.92555559999999,
"埼玉県さいたま市｜東北自動車道「岩槻IC」から車で13分、周囲に複数寺院があり住宅街に位置する畑5筆をまとめて０円",https://zero.estate/?p=101376,一時停止,139.718613,35.9302288,
"島根県知夫村｜知夫村役場から徒歩6分、海や山に囲まれ観光地としても知られる隠岐の島にある２階建一軒家が０円",https://zero.estate/?p=88798,受付終了,133.0434722,36.013999999999996,
"北海道名寄市｜「名寄北IC」から車で6分、市街地からも車で15分ほどの場所にある原野約３万６千㎡が０円",https://zero.estate/?p=101997,受付終了,142.41547219999998,44.3776667,
"北海道釧路市｜JR根室本線「釧路駅」から徒歩10分、柳町公園大通りから一本入った先に建つ２階建て家屋が０円",https://zero.estate/?p=101602,受付終了,144.38640584508045,42.99242617599052,
"愛媛県新居浜市｜JR予讃線「中萩駅」から車で8分、国道11号線から一本入った住宅街に建つ平家が０円",https://zero.estate/?p=101696,受付終了,133.28200957240696,33.93060575614574,
"山梨県山中湖村｜東富士五湖道路「山中湖IC」から車で15分で、 高原地の「うぐいす台別荘地」にある山中湖からほど近い家屋が０円",https://zero.estate/?p=101458,受付終了,138.90336,35.432272,
"千葉県富里市｜JR総武本線「八街駅」から車で9分、国道409号線にもほど近い第一種農地の更地3筆が０円",https://zero.estate/?p=101380,取引中止,140.3219419,35.6899747,
"栃木県日光市｜東武「鬼怒川温泉駅」より徒歩12分、共用施設も充実の「鬼怒川アーバンコンフォート」一室80日分が０円",https://zero.estate/?p=101608,一時停止,139.71075221457534,36.81793817287962,
"長崎県長崎市｜長崎県営バス「西山東部バス停」から徒歩2分、多くの石段がある坂の街長崎市に建つ２階建て家屋が０円",https://zero.estate/?p=101594,受付終了,129.8835484,32.759411,
"北海道乙部町｜乙部町役場から車で5分、乙部富岡スキー場や滝瀬海岸からほど近い薪ストーブと庭付きの平家が０円",https://zero.estate/?p=99490,取引中止,140.1832555,41.9689809,
"徳島県東みよし町｜JR徳島線「三加茂駅」から車で5分、東みよし町役場や商工会が徒歩圏内にある畑が０円",https://zero.estate/?p=100870,受付終了,133.9389722,34.034222199999995,
"山口県光市｜JR山陽本線「島田駅」から車で5分、島田川横にある田園風景に囲まれた山林8筆をまとめて０円",https://zero.estate/?p=100879,受付終了,131.9461111,33.9878889,
"愛知県半田市｜JR武豊線「亀崎駅」から徒歩8分、にごり池公園にほど近い住宅街にある隣接した土地2筆が０円",https://zero.estate/?p=101026,受付終了,136.9576667,34.922277799999996,
"青森県黒石市｜道の駅虹の湖・虹の湖公園から車で12分、二庄内ダム近くの山中の集落にある２階建家屋２棟が０円",https://zero.estate/?p=101020,募集中,140.71625,40.5839722,
"北海道名寄市｜JR宗谷本線「風連駅」から徒歩10分、閑静な住宅街に建つ２階建て家屋と土地５筆約260坪をまとめて０円",https://zero.estate/?p=100946,受付終了,142.4216340741652,44.2960494912893,
"広島県尾道市｜JR山陽本線「尾道駅」北口から徒歩10分、住宅街にある山林内に建つ平屋3棟と土地をまとめて０円",https://zero.estate/?p=100789,受付終了,133.1901776,34.4110675,
"茨城県常総市｜関東鉄道常総線「玉村駅」から車で5分、鬼怒川の横にあるサイクリングコースからほど近い山林が０円",https://zero.estate/?p=100860,受付終了,139.95499999999998,36.139055600000006,
"岐阜県各務原市｜名古屋鉄道各務原線「新那加駅」から徒歩10分、旧中山道近くの住宅街にある竹林が０円",https://zero.estate/?p=100777,取引中止,136.8298705,35.3964979,
"群馬県藤岡市｜下久保ダムや神流川にほど近く、周辺にハイキングコースが点在する自然豊かな山林5筆が０円",https://zero.estate/?p=100272,受付終了,138.9662778,36.1356111,
"北海道室蘭市｜JR室蘭本線「鷲別駅」から車で5分、コンビニが徒歩圏内にあり住宅街に建つ２階建て家屋が０円",https://zero.estate/?p=100138,受付終了,141.0408792445869,42.3523857547175,
"北海道小樽市｜JR函館本線「塩谷駅」から車で7分、日本海追分ソーランラインから一本入った土地17筆をまとめて０円",https://zero.estate/?p=100128,受付終了,140.9528611,43.2175,
"岡山県浅口市｜山陽自動車道「鴨方IC」から車で5分、日本最大級の天文台を持つ浅口市にある家屋と山林をまとめて０円",https://zero.estate/?p=100112,受付終了,133.5705927,34.55971619999999,
"大分県豊後高田市｜JR日豊本線「宇佐駅」から車で17分、夕陽の名所・真玉海岸近くにある家屋と畑をまとめて０円",https://zero.estate/?p=99336,取引中止,131.4774282,33.6099438,
"山口県周南市｜果物狩りやツリークライミングが楽しめる「福田フルーツパーク」にほど近い土地17筆をまとめて０円",https://zero.estate/?p=99566,受付終了,131.9052453,34.1937704,
"千葉県東金市｜JR東金線「求名駅」から車で12分、南国ムードが漂う本須賀海水浴場にほど近い土地が０円",https://zero.estate/?p=99570,受付終了,140.4258651,35.5677559,
"京都府福知山市｜京都縦貫自動車道「京丹波みずほIC」から車で17分、歴史の道百選に選定された細野峠近くの土地が０円",https://zero.estate/?p=99496,受付終了,135.28922219999998,35.205916699999996,
"長野県軽井沢町｜JR・しなの鉄道「軽井沢駅」から車で8分、閑静な別荘地・軽井沢三笠パーク内の土地が０円",https://zero.estate/?p=99272,受付終了,138.6237778,36.3664444,
"鹿児島県枕崎市｜JR枕崎駅から車で10分、雄大な景観が楽しめる火之神公園やキャンプ場にほど近い土地が０円",https://zero.estate/?p=97724,受付終了,130.27341669999998,31.257055599999997,
"千葉県九十九里町｜東金九十九里有料道路「九十九里IC」から車で8分、片貝小学校近くにある接道のない空き地が０円",https://zero.estate/?p=98043,受付終了,140.43725419999998,35.5365435,
"静岡県東伊豆町｜伊豆急行線「片瀬白田駅」から車で10分、閑静な別荘地に建つ温泉付きの3階建て家屋が０円",https://zero.estate/?p=98242,受付終了,139.03595830000003,34.804787499999996,
"長崎県南島原市｜島原半島の南西部に位置し、南串山棚畑展望台や一夜大師水源の森にほど近い土地が０円",https://zero.estate/?p=98049,受付終了,130.1587222,32.6591944,
"北海道釧路市｜JR根室本線「音別駅」から徒歩6分、広大な自然に囲まれた住宅エリアに建つ２階建て家屋が０円",https://zero.estate/?p=98224,受付終了,143.9313091,42.8868089,
"北海道美唄市｜JR函館本線「美唄駅」から車で5分、労災病院や美唄福音キリスト教会からほど近い２階建て家屋が０円",https://zero.estate/?p=98211,受付終了,141.8750784897902,43.32912084794614,
"徳島県鳴門市｜JR鳴門線「鳴門駅」から車で10分、タイムシェアリゾート「ふるさと君内ノ海編」１週間分が０円",https://zero.estate/?p=96653,受付終了,134.59110942203762,34.208849000000015,
"鹿児島県鹿児島市｜南九州西回り自動車道「松元IC」から車で4分、自然豊かな住宅地に建つ２階建一軒家が０円",https://zero.estate/?p=97708,受付終了,130.45943699999998,31.609075800000003,
"北海道小樽市｜小樽桜陽高校から徒歩3分、玄関前から小樽の海が一望でき花火もよく見える２階建家屋が０円",https://zero.estate/?p=97917,受付終了,140.98505,43.214197999999996,
"福岡県北九州市｜JR筑豊本線「若松駅」から車で9分、小石観音寺からほど近い高台の住宅地にある土地が０円",https://zero.estate/?p=97698,受付終了,130.78515949880568,33.91344343927801,
"福岡県北九州市｜筑豊電気鉄道線「香月駅」から車で5分、徒歩圏内にコンビニがある約1,050坪の土地が０円",https://zero.estate/?p=97623,受付終了,130.7254444,33.8035278,
"香川県坂出市｜JR予讃線「坂出駅」から徒歩6分、細い路地の奥にある香川県立坂出高等学校近くの更地が０円",https://zero.estate/?p=96439,受付終了,133.8534722,34.31197219999999,
"北海道釧路市｜JR根室本線「音別駅」から徒歩8分、音別町コミュニティセンターの近くにある更地が０円",https://zero.estate/?p=97875,受付終了,143.9325,42.8940278,
"岐阜県岐阜市｜東海北陸自動車道「関IC」から車で13分、長良川にかかる藍川橋近くにある土地が０円",https://zero.estate/?p=85386,受付終了,136.834735,35.4614181,
"山梨県鳴沢村｜中央自動車道「河口湖IC」から車で13分、京王一次別荘地内のトレーラーハウス付きの土地が０円",https://zero.estate/?p=97599,受付終了,138.7395595,35.4572956,
"栃木県栃木市｜東北自動車道「佐野IC」から車で7分、のどかな田園風景が広がる住宅地に建つ２階建て家屋が０円",https://zero.estate/?p=97615,受付終了,139.6360314,36.3008601,
"北海道釧路市｜JR根室本線「音別駅」から徒歩4分、すぐ近くにスーパーがある借家だった２階建一軒家と併設スナック店舗が０円",https://zero.estate/?p=97884,受付終了,143.9307982,42.890929899999996,
"京都府綾部市｜JR山陰本線「綾部駅」から車で20分、緑豊かでのどかな地域にある２階建一軒家が０円",https://zero.estate/?p=97693,一時停止,135.2366061,35.3580612,
"三重県明和町｜近鉄山田線「斎宮駅」から車で8分、伊勢カントリークラブ近くの自然豊かな団地にある土地が０円",https://zero.estate/?p=96725,受付終了,136.6158889,34.5194167,
"山口県周防大島町｜瀬戸内海で3番目に大きな島・周防大島に建つ平屋と山林などあわせて約2100坪が０円",https://zero.estate/?p=96468,受付終了,132.3073731,33.8959413,
"千葉県横芝光町｜JR総武本線「横芝駅」から車で10分、地平線を見渡せる九十九里浜自然公園にほど近い土地２筆が０円",https://zero.estate/?p=96315,受付終了,140.5299444,35.633694399999996,
"千葉県鴨川市｜南房総エリアの自然豊かな地域にある、法人所有で未利用の土地が０円",https://zero.estate/?p=96319,受付終了,140.0442265,35.0821556,
"長崎県長崎市｜西九州新幹線・長崎本線「長崎駅」から車で8分、中学校からほど近く周囲に宿泊施設が点在する平屋が０円",https://zero.estate/?p=96354,受付終了,129.873525,32.760921,
"茨城県鉾田市｜鹿島臨海鉄道大洗鹿島線「大洋駅」から車で7分、全国有数の果物と野菜の生産地・鉾田市の土地が０円",https://zero.estate/?p=96370,受付終了,140.565414,36.123504,
"島根県益田市｜JR山陰本線「益田駅」から車で4分、生活に便利な立地で店舗スペース付きの２階建家屋が０円",https://zero.estate/?p=96711,一時停止,131.8475112,34.6744331,
"北海道比布町｜JR宗谷本線「比布駅」から徒歩7分、斜め向かいにスーパーがあり役場や郵便局も近くにある家屋が０円",https://zero.estate/?p=96491,受付終了,142.4774416,43.8743854,
"石川県加賀市｜JR北陸本線・IRいしかわ鉄道「加賀温泉駅」から車で10分、住宅街を抜けた山林の横にある更地が０円",https://zero.estate/?p=96361,受付終了,136.3599444,36.2791111,
"富山県射水市｜JR氷見線「能町駅」から車で8分、道の駅カモンパーク新湊にほど近い場所にある田畑５筆をまとめて０円",https://zero.estate/?p=96346,一時停止,137.0692552,36.7584249,
"奈良県五條市｜JR和歌山線「五条駅」から車で10分、自然豊かな地域にあり以前は柿の生産をしていた畑が０円",https://zero.estate/?p=96539,受付終了,135.6991377458774,34.32728237337332,
"群馬県沼田市｜JR上越線「沼田駅」から車で8分、コンビニや病院が徒歩圏内にある畑２筆をまとめて０円",https://zero.estate/?p=96460,一時停止,139.05636461074505,36.63960699827554,
"新潟県長岡市｜JR只見線「魚沼田中駅」から車で22分、のどかな山間の道路沿いにある家屋と農作業用の建物が０円",https://zero.estate/?p=96429,受付終了,138.9497249,37.384146400000006,
"三重県紀北町｜近鉄志摩線「船津駅」から車で10分、漁港や小学校からほど近い山間部に建つ元倉庫の物件が０円",https://zero.estate/?p=95508,受付終了,136.2753137,34.126854,
"新潟県湯沢町｜関越自動車道湯沢インター・JR越後湯沢駅から車で25分、苗場スキー場からほど近いノエル苗場が０円",https://zero.estate/?p=95746,受付終了,138.794398,36.788987,
"石川県七尾市｜能越自動車道「田鶴浜IC」から車で5分、ほたるロード近くの2階建5LDKの家屋と山林をまとめて０円",https://zero.estate/?p=95681,一時停止,136.8875516,37.041072,
"栃木県那須町｜東北自動車道「那須高原スマートIC」から車で6分、キャンプリゾート地からほど近い土地2筆が０円",https://zero.estate/?p=95701,受付終了,140.0746336,37.0718634,
"広島県呉市｜JR呉線「呉駅」から車で6分、呉三津田高等学校からほど近い坂の街・呉市に建つ２階建て家屋が０円",https://zero.estate/?p=96220,一時停止,132.554124,34.2527081,
"福岡県福岡市｜福岡高速道路「野芥IC」から車で23分、佐賀県との県境にまたがる山岳地帯からほど近い土地が０円",https://zero.estate/?p=95691,受付終了,130.3486667,33.47122220000001,
"静岡県熱海市｜JR伊東線「来宮駅」から車で15分、海と山に囲まれた熱海の閑静な別荘地エリアにある土地が０円",https://zero.estate/?p=95711,受付終了,139.0503611,35.0793611,
"青森県八戸市｜八戸市中心部まで15分弱、本八戸駅まで車で16分、テクノルアイスパーク八戸にほど近い高台の土地が０円",https://zero.estate/?p=95651,受付終了,141.5263476,40.4972372,
"岡山県美作市｜JR姫新線「林野駅」から車で8分、美作市総合運動公園や湯郷石橋ゴルフ倶楽部近くの土地が０円",https://zero.estate/?p=95097,受付終了,134.13402779999998,35.00855560000001,
"群馬県嬬恋村｜JR万座・鹿沢口駅から車で26分、北軽井沢の自然を満喫できる「寿の郷スズラン台」の一区画が０円",https://zero.estate/?p=95639,受付終了,138.5002796,36.4462925,
"愛知県南知多町｜篠島港から車で5分、「東海の松島」とも呼ばれ美しい景色が満喫できる篠島にある２階建て家屋が０円",https://zero.estate/?p=95060,受付終了,137.004451,34.6759642,
"兵庫県養父市｜JR山陰本線「八鹿駅」から車で9分、小佐川近くの道路沿いにある平屋建家屋と畑をまとめて０円",https://zero.estate/?p=95474,受付終了,134.7528879,35.4093473,
"栃木県那須塩原市｜東北自動車道「黒磯板室IC」から車で11分、青木周蔵那須別邸近くの緑豊かな別荘地が０円",https://zero.estate/?p=95643,受付終了,139.9776944,37.0055833,
"愛媛県鬼北町｜JR予土線「深田駅」から車で3分、南向きで日当たり良好な平屋建家屋と畑、山林をまとめて０円",https://zero.estate/?p=95088,受付終了,132.6511189,33.2645436,
"長野県飯田市｜中央自動車道「飯田IC」から車で6分、飯田運動公園にほど近い緑豊かな住宅地にある更地が０円",https://zero.estate/?p=95075,受付終了,137.7865326,35.490341799999996,
"岩手県八幡平市｜東北自動車道「西根IC」から車で20分、岩手山すぐふもとの別荘地エリアにある土地が０円",https://zero.estate/?p=94144,受付終了,140.9865877,39.8957289,
"北海道小樽市｜幹線道路に近く、高台から街を望む住宅街にある２階建一軒家が０円",https://zero.estate/?p=94464,受付終了,140.97221994535394,43.20517299792035,
"茨城県小美玉市｜常磐自動車道「石岡小美玉スマートIC」から車で17分、周辺に茨城空港やゴルフ場がある更地が０円",https://zero.estate/?p=94164,受付終了,140.36104326975914,36.24454655856934,
"山梨県上野原市｜JR中央本線「上野原駅」から車で10分、周りに山が多く豊かな自然を楽しめる地域にある土地が０円",https://zero.estate/?p=95105,受付終了,139.1298889,35.603944399999996,
"滋賀県長浜市｜JR北陸本線「田村駅」から車で6分、神田溜（豊島池）近くにある離れ・蔵付きの家屋が０円",https://zero.estate/?p=92965,受付終了,136.3041792,35.3550788,
"福岡県岡垣町｜JR鹿児島本線「海老津駅」から7分、住宅街の中にある溜池横の山林を3筆まとめて０円",https://zero.estate/?p=93259,受付終了,130.6241944,33.8546389,
"栃木県那須町｜東北道「黒磯板室IC」から車で10分、道の駅 明治の森・黒磯の近くにある緑豊かな雑木林が０円",https://zero.estate/?p=86589,受付終了,139.9816332,37.0040508,
"石川県かほく市｜のと里山海道「高松IC」から車で10分、小学校と中学校からほど近い２階建て家屋が０円",https://zero.estate/?p=94178,受付終了,136.716567,36.767361199999996,
"大分県佐伯市｜JR日豊線「佐伯駅」から徒歩6分、佐伯港フェリー乗り場からほど近い市街地に建つ２階建て家屋が０円",https://zero.estate/?p=93297,受付終了,131.9008889,32.9758521,
"山口県岩国市｜JR岩徳線「川西駅」から車で3分、緑豊かでのどかな地域にある２階建一軒家と畑・山林をまとめて０円",https://zero.estate/?p=92953,受付終了,132.1823256,34.1476804,
"北海道函館市｜汐首簡易郵便局から徒歩5分、汐首岬漁港が徒歩圏内にあり海が目の前に広がる２階建て家屋が０円",https://zero.estate/?p=93287,受付終了,140.9497731,41.7169985,
"北海道室蘭市｜JR室蘭本線「室蘭駅」から車で6分、スーパーアークス室蘭中央店が徒歩圏内にある港町の高台に建つ２階建て家屋が０円",https://zero.estate/?p=91474,受付終了,140.9756667,42.3103611,
"長野県塩尻市｜長野自動車道「岡谷IC」から車で15分、自然に囲まれる信州塩嶺高原別荘地の２区画をまとめて０円",https://zero.estate/?p=91928,受付終了,138.00571626963225,36.079513082160545,
"岐阜県養老町｜養老鉄道「養老駅」から車で7分、養老の滝や養老天命反転にほど近く現在は雑木林のような土地が０円",https://zero.estate/?p=92969,受付終了,136.54044299999998,35.307062,
"広島県呉市｜JR呉線「川原石駅」から徒歩7分、坂が多くあり道路幅が狭い住宅街に建つ２階建て家屋が０円",https://zero.estate/?p=92986,受付終了,132.5425961,34.2511184,
"奈良県宇陀市｜名阪国道「小倉IC」から車で15分、三重県との県境にほど近い山林の中に建つ山小屋が０円",https://zero.estate/?p=93006,受付終了,136.0503333,34.612583300000004,
"福井県越前市｜福井鉄道福武線「スポーツ公園駅」から車で6分、閑静な住宅街にたたずむ更地４筆をまとめて０円",https://zero.estate/?p=90051,受付終了,136.1808456858847,35.92253841729453,
"香川県さぬき市｜JR高徳線「鶴羽駅」から徒歩14分、鶴羽漁港からほど近く幹線道路一本入った平屋が０円",https://zero.estate/?p=93018,受付終了,134.26447965227874,34.281316029342086,
"滋賀県東近江市｜近江鉄道本線「河辺の森駅」から車で8分、湖東第三小学校からほど近い住宅街に建つ家屋などまとめて０円",https://zero.estate/?p=93001,受付終了,136.2252119,35.1311818,
"栃木県那須烏山市｜JR烏山線「大金駅」から車で10分、自然公園からほど近い桜並木が続く山林の一区画が０円",https://zero.estate/?p=92981,受付終了,140.11956937160033,36.66271929475905,
"広島県呉市｜JR呉線「呉駅」から車で18分、音戸小学校が徒歩圏内にあり海が見渡せる２階建て家屋が０円",https://zero.estate/?p=91914,受付終了,132.5366229,34.1848229,
"長野県上田市｜上信越道「上田菅平IC」から車で18分、避暑別荘地の多い地域にある古民家と付属農家２棟が０円",https://zero.estate/?p=92977,一時停止,138.3534709,36.486681,
"静岡県伊東市｜JR伊東線「宇佐美駅」から徒歩7分、宇佐美海水浴場からほど近い小高い丘に建つ元民宿が０円",https://zero.estate/?p=91253,受付終了,139.07751090000002,35.008842400000006,
"神奈川県横須賀市｜京急本線「京急田浦駅」から徒歩9分、横須賀逗子線近くの傾斜地にある土地が０円",https://zero.estate/?p=91131,受付終了,139.6216389,35.2983611,
"茨城県坂東市｜東北自動車道「坂東IC」から車で15分、公式戦が行われていた大利根カントリークラブ横にある土地が０円",https://zero.estate/?p=91920,一時停止,,,①茨城県坂東市下出島字山王54番7
"千葉県山武市｜JR総武本線「松尾駅」から車で7分、色々なレジャーが楽しめる蓮沼海浜公園にほど近い土地が０円",https://zero.estate/?p=91623,受付終了,140.4605278,35.6103889,
"茨城県鉾田市｜鹿島臨海鉄道大洗鹿島線「大洋駅」から車で4分、武与釜海岸に近く自然豊かな地域にある土地が０円",https://zero.estate/?p=91617,受付終了,140.5638056,36.1179722,
"兵庫県丹波篠山市｜京都縦貫道「京丹波みずほIC」から車で17分、キャンプ場や草山温泉が徒歩圏内の土地２筆が０円",https://zero.estate/?p=91631,受付終了,135.2798056,35.17275,
"秋田県北秋田市｜JR奥羽本線「鷹ノ巣駅」から車で3分、北秋田市役所や秋田北鷹高等学校近くの平屋建家屋が０円",https://zero.estate/?p=91972,受付終了,140.37300404580884,40.2268688496334,
"栃木県大田原市｜矢板ICから車で32分・なかがわ水遊園から８分、目の前に田園風景が広がる県道横にある物件の土地のみ０円",https://zero.estate/?p=91516,受付終了,140.1276982,36.83428,
"青森県八戸市｜JR八戸線「種差海岸駅」から徒歩5分、三陸復興国立公園内の市街化調整区域にある平屋建家屋が０円",https://zero.estate/?p=91977,取引中止,141.60703574299163,40.50576095776425,
"栃木県那須町｜東北自動車道「那須高原スマートIC」から車で13分、那須バケイションランドの別荘地一区画が０円",https://zero.estate/?p=91578,受付終了,140.0529840744389,37.1093018506357,
"栃木県那須町｜東北自動車道「那須IC」から車で5分、購入後ほぼ未使用だったチーズガーデン那須本店近くの家屋が０円",https://zero.estate/?p=90002,受付終了,140.02142036084493,37.03120009825249,
"北海道当別町｜JR学園都市線「当別駅」から車で9分、札幌圏北部に位置する当別トーホーランドみどり野の一区画が０円",https://zero.estate/?p=91188,受付終了,141.53913889999998,43.256499999999996,
"兵庫県宍粟市｜中国自動車道「山崎IC」から車で30分、豊かな自然資源に恵まれる宍粟市にある山林が０円",https://zero.estate/?p=91465,募集中,134.62736200000003,35.128395999999995,
"静岡県富士市｜JR東海道本線「富士川駅」から車で4分、農業振興地域内・農用地区域内（青地）の土地が０円",https://zero.estate/?p=91508,受付終了,138.61044440000003,35.1439722,
"群馬県桐生市｜JR両毛線「桐生駅」から徒歩12分、飲食店が多いエリアにある2階建て棟割長屋の元スナック店舗が０円",https://zero.estate/?p=91288,受付終了,139.3404051,36.4107679,
"富山県南砺市｜JR城端線「福野駅」から車で8分、東海北陸自動車道沿いにある約340坪の三角地が０円",https://zero.estate/?p=91230,受付終了,136.9057122,36.6103401,
"岐阜県岐阜市｜東海北陸自動車道「関IC」から車で10分、近隣に複数のゴルフ場がある２階建て家屋が０円",https://zero.estate/?p=89930,受付終了,136.8690387,35.4585008,
"宮城県気仙沼市｜三陸沿岸道路「気仙沼中央IC」から車で10分、かつて大工仕事の作業場として使っていた平屋建家屋が０円",https://zero.estate/?p=91138,受付終了,141.5724927,38.8737104,
"徳島県徳島市｜徳島自動車道「徳島IC」から車で5分、阿波十郎兵衛屋敷や阿波しらさぎ大橋からほど近い平屋建一軒家が０円",https://zero.estate/?p=91210,受付終了,134.58918889999998,34.0933232,
"群馬県長野原町｜しなの鉄道「中軽井沢駅」から車で約31分、共用施設も充実の「グランビュー北軽井沢」一室80日分が０円",https://zero.estate/?p=91197,受付終了,138.6137694,36.4643308,
"石川県加賀市｜IRいしかわ鉄道線「動橋駅」から車で6分、片山津小学校からほど近い２階建て木造家屋が０円",https://zero.estate/?p=89926,一時停止,136.3658665,36.3380382,
"島根県江津市｜JR山陰本線「浅利駅」から車で8分、江津市内から南下した小さな集落内にある約200坪の更地が０円",https://zero.estate/?p=89883,一時停止,132.2822778,35.001,
"青森県八戸市｜青い森鉄道「陸奥市川駅」から車で6分、海上自衛隊八戸航空基地からほど近い土地２筆と平屋建一軒家が０円",https://zero.estate/?p=90347,受付終了,141.4536873,40.5844002,
"群馬県嬬恋村｜JR万座・鹿沢口駅から車で13分、多彩なレジャーの拠点にできる別荘地「プリンスランド」の一区画が０円",https://zero.estate/?p=89652,受付終了,138.5475271,36.4696482,
"岐阜県郡上市｜東海北陸道「高鷲IC」から車で11分、四季を通じて楽しめる「ニューパークひるが野」別荘地の一区画が０円",https://zero.estate/?p=89774,受付終了,136.9204911,35.9490048,
"島根県邑南町｜香木の森公園クラフト館の近くにある、自然豊かな道路沿いの平屋建一軒家と納屋が０円",https://zero.estate/?p=89758,受付終了,132.4095634,34.8775844,
"福井県小浜市｜JR小浜線「勢浜駅」から徒歩12分、勢浜海水浴場のすぐそばで若狭湾が目の前にある物件が０円",https://zero.estate/?p=90015,一時停止,135.715945,35.4838579,
"奈良県御杖村｜道の駅「伊勢本街道御杖」から車で5分、三重県との県境に位置する御杖村に建つ２階建て古民家が０円",https://zero.estate/?p=89749,取引中止,136.1949302,34.4996359,
"岐阜県高山市｜東海北陸自動車道「荘川IC」から車で10分、大自然に囲まれた別荘地「荘川ビレッジ」の一区画が０円",https://zero.estate/?p=89764,受付終了,136.9560471,36.0069366,
"栃木県小山市｜JR宇都宮線「間々田駅」から車で6分、旧日光街道や寒沢公民館の近くにある市街化調整区域の土地が０円",https://zero.estate/?p=90357,受付終了,139.7386774,36.2503862,
"福岡県北九州市｜JRスペースワールド駅から車で9分、北九州市立槻田中学校近くの住宅地にある家屋が０円",https://zero.estate/?p=90361,受付終了,130.8297288,33.8622207,
"広島県安芸高田市｜JR芸備線「向原駅」から車で8分、広島市中心部から約1時間の自然豊かな休耕地が０円",https://zero.estate/?p=90032,受付終了,132.7331389,34.6393889,
"岐阜県高山市｜JR飛騨小坂駅から車で25分、右に御嶽、左に乗鞍　標高1,300mの「鈴蘭高原」別荘地内の一区画が０円",https://zero.estate/?p=89731,募集中,137.3573611,35.98175,
"岐阜県高山市｜荘川ICから車で11分、ゴルフ場・スキー場に近くアユ釣りも楽しめる「荘川高原」別荘地内の一区画が０円",https://zero.estate/?p=89552,受付終了,136.9630572,36.0093776,
"宮城県角田市｜阿武隈急行「角田駅」から車で4分、のどかな田園風景が広がる角田自動車学校近くの家屋と土地３筆が０円",https://zero.estate/?p=85380,受付終了,140.7662788,37.9743206,
"山口県萩市｜JR山陰本線「萩駅」から車で13分、約10,400坪を超える田畑・山林と家屋の30筆をまとめて０円",https://zero.estate/?p=86600,受付終了,131.3953602,34.3257092,
"栃木県那須町｜東北自動車道「那須IC」から車で14分、高原温泉保養地である那須高原の別荘地「平和台」の一区画が０円",https://zero.estate/?p=89919,受付終了,140.0009722,37.0551667,
"北海道函館市｜函館新外環状道路「赤川IC」から車で5分、新中野ダム近くの山間部にある２階建一軒家が０円",https://zero.estate/?p=90011,受付終了,140.7812241,41.8610995,
"栃木県日光市｜日光宇都宮道路「大沢IC」から車で5分、周辺にゴルフ場が多く山と自然に囲まれた土地が０円",https://zero.estate/?p=89787,受付終了,139.7727778,36.711,
"滋賀県甲賀市｜信楽高原鐵道「信楽駅」から車で11分、自然に囲まれた「しがらきニュータウン」の土地一区画が０円",https://zero.estate/?p=89905,受付終了,136.0219722,34.8521667,
"北海道小樽市｜JR南小樽駅から徒歩10分、境内から海と街並みが見渡せる水天宮からほど近い２階建て家屋が０円",https://zero.estate/?p=89836,取引中止,141.0037176,43.1902816,
"青森県南部町｜青い森鉄道青い森鉄道線「剣吉駅」から車で5分、コンビニの向かいに建つ２階建て家屋が０円",https://zero.estate/?p=90041,受付終了,141.31615987244868,40.43377474298698,
"千葉県東金市｜JR東金駅から車で13分、スーパーやドラッグストアが徒歩圏内で木々の緑が豊かな地区の土地が０円",https://zero.estate/?p=89644,受付終了,140.4048889,35.5506111,
"静岡県森町｜天竜浜名湖線「戸綿駅」から車で4分、太田川に近く春は桜並木の眺望が楽しめる２階建ての建物のみ０円",https://zero.estate/?p=89802,受付終了,137.9362394,34.8446466,
"北海道美唄市｜JR函館本線「美唄駅」から車で6分、給食センターからほど近い進徳東団地向かいの更地が０円",https://zero.estate/?p=89520,受付終了,141.8617222,43.3114444,
"栃木県日光市｜鬼怒川温泉近くの日数所有型マンション「鬼怒川アーバンコンフォート」の一室（20日分）が０円",https://zero.estate/?p=88809,受付終了,139.7095199220767,36.81716630231184,
"鹿児島県霧島市｜JR肥薩線「嘉例川駅」から車で9分、ゴルフ場や温泉センターからほど近い高台にある更地が０円",https://zero.estate/?p=89529,一時停止,130.6803413,31.8317319,
"静岡県伊東市｜JR伊東線「宇佐美駅」から車で7分、海と山に囲まれた宇佐美のリゾート地にある山林が０円",https://zero.estate/?p=89543,受付終了,139.0628333,34.9985278,
"栃木県那須塩原市｜東北自動車道「黒磯板室IC」から車で13分、ファミリーキャンプ場からほど近い山林の一区画が０円",https://zero.estate/?p=87835,受付終了,139.9523333,37.017888899999996,
"東京都町田市｜小田急電鉄多摩線「黒川駅」から車で7分、乗馬クラブ近くのひな壇の土地に佇む２階建一軒家が０円",https://zero.estate/?p=88430,受付終了,139.4581582,35.6017203,
"北海道滝川市｜JR函館本線「滝川駅」から車で10分、陸上自衛隊滝川駐屯地の近くにある道路沿いの２階建一軒家が０円",https://zero.estate/?p=86216,一時停止,141.9066163,43.579664,
"千葉県いすみ市｜JR外房線「長者町駅」から徒歩7分、岬ふれあい会館・文化センターの斜向かいにある更地の一部持分が０円",https://zero.estate/?p=87825,受付終了,140.38655559999998,35.300666699999994,
"岩手県滝沢市｜東北自動車道「滝沢IC」から車で11分、日本百名山秀峰「岩手山」の東側に位置する平屋が０円",https://zero.estate/?p=87814,受付終了,141.08275,39.820944399999995,
"三重県多気町｜JR紀勢本線「多気駅」から徒歩1分、駅チカの二階建て住居兼店舗（美容室）の建物のみ０円",https://zero.estate/?p=85474,受付終了,136.57219430000004,34.5164336,
"愛媛県四国中央市｜JR予讃線「伊予三島駅」から徒歩で7分、小学校と高校からほど近い住宅街にある戸建てが０円",https://zero.estate/?p=86050,受付終了,133.5458889,33.9806111,
"栃木県那須町｜東北道「那須高原スマートIC」近くのリゾート施設が多いエリアで、別荘地として購入した土地が０円",https://zero.estate/?p=86287,一時停止,140.0965183,37.0736701,
"青森県大鰐町｜弘南鉄道大鰐線「宿川原駅」から車で10分、自然豊かな山間の集落にある２階建一軒家と田をまとめて０円",https://zero.estate/?p=86259,募集中,140.5293974,40.4865258,
"北海道北見市｜JR石北本線「北見駅」から徒歩14分、かつては飲食店店舗だった木造２階建の店舗兼住宅が０円",https://zero.estate/?p=86549,受付終了,143.8885799,43.803137899999996,
"栃木県那須塩原市｜JR東北本線「黒磯駅」から車で12分、自然豊かで黒磯・那須高原エリアへのアクセス良好な土地が０円",https://zero.estate/?p=86382,一時停止,140.01769439999998,37.0023333,
"山口県上関町｜フェリーターミナル「蒲井港」から車で5分、室津半島と上関大橋で結ばれている長島にある家屋が０円",https://zero.estate/?p=85541,受付終了,132.0714607,33.8203476,
"群馬県前橋市｜東武鉄道「赤城駅」から車で19分、ぐんまフラワーパーク近くの県道大胡赤城線に面した山林３筆が０円",https://zero.estate/?p=86560,受付終了,139.1756944,36.4650556,
"香川県坂出市｜瀬戸中央自動車道与島ICから車で8分、釣りが楽しめる海や与島PAが徒歩圏内の土地建物が０円",https://zero.estate/?p=57590,受付終了,133.81971769999998,34.3839797,
"和歌山県海南市｜JR紀勢本線「加茂郷駅」から車で7分、和歌浦湾がのぞめる高台に建つ三階建ての家屋が０円",https://zero.estate/?p=86489,一時停止,135.1654227,34.1342594,
"岩手県紫波町｜JR東北本線「日詰駅」から車で5分、北上川からほど近い田園の中に建つ車庫付き二階建て家屋が０円",https://zero.estate/?p=86455,受付終了,141.178679,39.5433586,
"福岡県豊前市｜九州自動車道「豊前IC」そばの住宅地にあり、5年ほど前まで畑として使用していた土地が０円",https://zero.estate/?p=86571,取引中止,131.126601,33.590543000000004,
"栃木県日光市｜東武鉄道「下今市駅」から車で12分、第二杉の木台分譲地にある手付かずの土地一区画が０円",https://zero.estate/?p=86556,受付終了,139.7341111,36.7295278,
"栃木県那須塩原市｜塩原温泉郷や板室温泉など、複数の温泉地を有する那須塩原市内にある土地3筆が０円",https://zero.estate/?p=86470,受付終了,140.0772889,36.9246163,
"大阪府豊中市｜大阪モノレール「大阪空港駅」から徒歩13分、伊丹空港のすぐそばにある公衆用道路７筆が０円",https://zero.estate/?p=86242,受付終了,135.44308329999998,34.7929722,
"香川県多度津町｜JR多度津駅から車で5分、別荘やアウトドアの拠点としても活用可能な数十年未利用の土地が０円",https://zero.estate/?p=86210,受付終了,133.7479213,34.2647474,
"京都府亀岡市｜新名神高速道路「茨木千提寺IC」から17分、小野小町が湯治で訪れたという伝承もある地域の土地が０円",https://zero.estate/?p=86251,受付終了,135.5213362,34.9332044,
"北海道足寄町｜道東自動車道「足寄IC」から車で35分、雌阿寒岳の近くにある約8,100坪の土地などがまとめて０円",https://zero.estate/?p=85467,受付終了,143.8836944,43.3789167,
"宮城県亘理町｜常磐自動車道「鳥の海スマートIC」から車で6分、汽水湖「鳥の海」が目の前に広がる土地が０円",https://zero.estate/?p=85533,受付終了,140.8980556,38.031027800000004,
"北海道美唄市｜JR函館本線「美唄駅」から徒歩5分、国道12号線に面していて市内中心部にある貸店舗が０円",https://zero.estate/?p=86293,受付終了,141.86054338679628,43.3331409395099,
"北海道美唄市｜JR函館本線「美唄駅」から車で9分、周辺に田畑が広がる農村地域に佇む平屋建一軒家と倉庫が０円",https://zero.estate/?p=86267,受付終了,141.8400499,43.307946,
"北海道函館市｜函館市電「谷地頭停留場」から徒歩10分、函館の街と大森浜が見渡せる高台に建つ家屋が０円",https://zero.estate/?p=86009,受付終了,140.7107943,41.7503391,
"岐阜県山県市｜東海環状自動車道「山県IC」から車で7分、如来ヶ岳や鳥羽川からほど近い土地２筆をまとめて０円",https://zero.estate/?p=85508,受付終了,136.77875,35.495194399999995,
"新潟県新潟市｜越後シーサイドラインに面し、日本海を望むロケーションのリゾートホテル「トーコー白岩」の一室が０円",https://zero.estate/?p=84610,受付終了,138.7907112,37.7202884,
"福岡県福津市｜JR鹿児島本線「東福間駅」から車で3分、福岡市と北九州市の中間地ベッドタウン福津市にある土地が０円",https://zero.estate/?p=85527,受付終了,130.5020569,33.769025,
"北海道小樽市｜JR南小樽駅から車で7分、小樽天狗山ロープウエイ近くの住宅地にある1棟2戸建のアパートが０円",https://zero.estate/?p=84628,受付終了,140.97769157615204,43.183233271128316,
"茨城県坂東市｜圏央道「坂東IC」から車で3分、T&#038;Aゴルフガーデン近くの道路沿いにある未利用の雑木林が０円",https://zero.estate/?p=84640,受付終了,139.9014444,36.0882778,
"福岡県北九州市｜JR若松駅から徒歩10分、金刀比羅神社に続く階段のそばにある手付かずの２階建家屋が０円",https://zero.estate/?p=84007,受付終了,130.8003091935918,33.898935861638755,
"北海道釧路市｜釧路空港から車で約12分、未開拓の分譲地内にある原野が０円",https://zero.estate/?p=85338,受付終了,144.26088027228687,43.03573022666426,
"愛知県常滑市｜名鉄常滑線「榎戸駅」から徒歩3分、駅近の住宅地にある下水道引き込み済みで現在更地の田畑２筆が０円",https://zero.estate/?p=85017,受付終了,136.8286111,34.9068611,
"新潟県湯沢町｜四季折々のレジャーが楽しめるリゾートマンション「西武ヴイラ苗場３号館」の一室が０円",https://zero.estate/?p=84837,受付終了,138.79146000000003,36.791497,
"青森県弘前市｜JR弘前駅から車で5分、重要文化財・旧弘前偕行社からほど近い家屋が０円",https://zero.estate/?p=84801,受付終了,140.4784661,40.5894527,
"北海道札幌市｜札幌市営地下鉄「真駒内駅」から車で8分、真駒内公園近くの住宅地奥に位置し樹木がある原野２筆が０円",https://zero.estate/?p=84883,受付終了,141.329,43.0011389,
"福岡県久山町｜JR鹿児島本線「香椎駅」から車で20分、コストコもある大型商業施設「トリアス」にほど近い原野が０円",https://zero.estate/?p=84874,受付終了,130.4811667,33.6701389,
"和歌山県由良町｜JRきのくに線「紀伊由良駅」から車で4分、元々は店舗兼住居として活用されていた２階建家屋が０円",https://zero.estate/?p=84896,受付終了,135.1169715,33.9609175,
"茨城県鹿嶋市｜鹿島臨海鉄道大洗鹿島線「鹿島灘駅」から徒歩3分、鹿島灘高校の裏にある山林の一画が０円",https://zero.estate/?p=84814,受付終了,140.5953611,36.0754167,
"福岡県豊前市｜JR日豊本線「宇島駅」から徒歩8分、小学校や公園からほど近い豊前市中心部の住宅街にある更地が０円",https://zero.estate/?p=84789,受付終了,131.1249508,33.6171553,
"北海道名寄市｜JR宗谷本線「風連駅」から車で6分、広大な農地約6万平米と二階建て家屋、納屋などまとめて０円",https://zero.estate/?p=84783,取引中止,142.3878889,44.2965278,
"北海道美唄市｜JR函館本線「光珠内駅」から車で6分、陸上自衛隊美唄駐屯地近くにある２階建一軒家の建物のみ０円",https://zero.estate/?p=82472,募集中,141.8711111,43.3039444,
"群馬県みなかみ町｜JR上牧駅近くの日数所有型リゾートマンション「バイスバーデン月夜野ヴィラⅢ」の一室80日分が０円",https://zero.estate/?p=84658,受付終了,138.9822994,36.7381564,
"広島県大崎上島町｜白水港から車で4分、広島商船高等専門学校の学生寮そばにある家屋と農地が０円",https://zero.estate/?p=83976,募集中,132.9097778,34.25836110000001,
"長崎県佐世保市｜松浦鉄道「中佐世保駅」から車で5分、市街地に近いエリアで市道に面した段差と傾斜のある土地が０円",https://zero.estate/?p=84016,受付終了,129.71100490290755,33.17633187570054,
"栃木県那須町｜東北自動車道「那須IC」から車で30分、近隣に多くの観光地をかまえる別荘地の二階建て家屋が０円",https://zero.estate/?p=83930,受付終了,139.97355249999998,37.0897283,
"長崎県長崎市｜長崎電気軌道「平和公園停留場」から車で6分、若草町商店街近くにある見晴らし良好な高台の更地が０円",https://zero.estate/?p=83905,受付終了,129.8515509,32.7741193,
"長野県上田市｜しなの鉄道「大屋駅」から車で46分、晴天率が高く少雨乾燥地帯上田市の「美しの国 別荘地」一区画が０円",https://zero.estate/?p=83952,受付終了,138.1748581,36.220892,
"兵庫県上郡町｜JR智頭線「上郡駅」から車で6分、安室川からほど近い上郡アルプスの麓に位置する山林が０円",https://zero.estate/?p=83977,受付終了,134.338,34.8726111,
"長野県長野市｜長野市信更支所から徒歩6分、夏はホタルの鑑賞スポットになる田野口の棚田近くの土地が０円",https://zero.estate/?p=83900,受付終了,138.0684722,36.56955560000001,
"新潟県柏崎市｜道の駅じょんのびの里・高柳から車で8分、4年前まで居住していた5LDKの家屋と山林2筆が０円",https://zero.estate/?p=83867,取引中止,138.64183504602323,37.23938278896643,
"北海道登別市｜JR室蘭本線「登別駅」から車で8分、森林に囲まれた閑静な住宅街に佇む二階建て家屋が０円",https://zero.estate/?p=81606,受付終了,141.1680477,42.4520841,
"北海道室蘭市｜道央自動車道「室蘭IC」から車で5分、のどかな高台の住宅地にある２階建一軒家が０円",https://zero.estate/?p=83010,受付終了,140.9879502,42.3822325,
"群馬県太田市｜東武鉄道「世良田駅」から車で7分、日野自動車新田工場からほど近い畑４筆をまとめて０円（農業者限定）",https://zero.estate/?p=82334,一時停止,139.27463889999999,36.281472199999996,
"山口県下関市｜JR山陽本線「下関駅」から車で7分、彦島の高台にある日当たりの良い平家建一軒家の建物のみ０円",https://zero.estate/?p=81320,受付終了,130.9091759,33.94722,
"新潟県湯沢町｜JR上越線「岩原スキー場駅」から徒歩11分、リゾートマンション「ロイヤルプラザ湯沢」の一室が０円",https://zero.estate/?p=81615,一時停止,138.8382469,36.9310734,
"広島県尾道市｜JR山陽新幹線「新尾道駅」から車で3分、車も通れる道路沿いに位置し大きな栗の木がある土地が０円",https://zero.estate/?p=82253,受付終了,133.19188790061784,34.42595971526767,
"山口県宇部市｜JR厚東駅から車で15分、車でのアクセス良好で定期的に草刈りしている休耕地が０円（農業者限定）",https://zero.estate/?p=82260,受付終了,131.2390556,34.0852222,
"静岡県伊東市｜伊豆スカイライン「天城高原IC」から車で16分、リゾート施設も充実の天城高原別荘地の一区画が０円",https://zero.estate/?p=82276,受付終了,139.05019439999998,34.8745,
"広島県尾道市｜JR山陽本線「尾道駅」からほど近い「瀬戸内の十字路」尾道市にある建物３棟をまとめて０円",https://zero.estate/?p=82321,受付終了,133.1951370879799,34.407913320776665,
"茨城県日立市｜JR常磐線「日立駅」から車で9分、静かな環境で徒歩圏内に商業施設や郵便局・病院のある更地が０円",https://zero.estate/?p=82238,受付終了,140.6374025,36.5825765,
"広島県呉市｜本州へ繋ぐ音戸大橋から車で16分、瀬戸内海に浮かぶ芸予諸島の一つ倉橋島にある家屋が０円",https://zero.estate/?p=82316,受付終了,132.5201148,34.1582281,
"岩手県奥州市｜釜石自動車道「江刺田瀬IC」から車で5分、周辺に田畑や山林が広がる山間の平屋建一軒家が０円",https://zero.estate/?p=81787,一時停止,141.2803586,39.2876173,
"奈良県御杖村｜道の駅「伊勢本街道 御杖」から車で7分、赤目グリーンビレッジ別荘地内にある一区画が０円",https://zero.estate/?p=81620,受付終了,136.2137177,34.5259837,
"香川県高松市｜道の駅しおのえ・日帰り温泉「行基の湯」から徒歩5分、高松市民病院塩江分院そばの２階建一軒家が０円",https://zero.estate/?p=81915,受付終了,134.0800884,34.1713377,
"栃木県那須塩原市｜野岩鉄道会津鬼怒川線「上三依塩原温泉口駅」から車で13分、近くに温泉がある別荘地一区画が０円",https://zero.estate/?p=81073,募集中,139.7874444,36.9756667,
"新潟県見附市｜JR信越本線「見附駅」から車で17分、のどかな住宅地にある県道見附栃尾線近くの土地が０円",https://zero.estate/?p=81428,募集中,138.9633781,37.5085063,
"愛知県半田市｜名鉄河和線「青山駅」から車で10分、かつては田んぼだった半田IC近くの耕作放棄地が０円",https://zero.estate/?p=81455,受付終了,136.8888333,34.88652779999999,
"香川県宇多津町｜JR宇多津駅から車で7分、大型ショッピングセンターが近くにある山沿いの２階建一軒家が０円",https://zero.estate/?p=81204,受付終了,133.8324945,34.3141916,
"香川県坂出市｜JR予讃線「鴨川駅」から徒歩13分、城山温泉近くの土地建物と田畑など14筆をまとめて０円",https://zero.estate/?p=81497,受付終了,133.8962124,34.3094154,
"静岡県伊豆の国市｜「大場・函南IC」から車で18分、伊豆半島で最大の別荘地「伊豆エメラルドタウン」の土地一区画が０円",https://zero.estate/?p=80891,受付終了,138.99499295811782,35.07777269767411,
"熊本県八代市｜JR鹿児島本線「有佐駅」から車で21分、氷川ダム近くの自然豊かな山間にある平屋建一軒家が０円",https://zero.estate/?p=80685,受付終了,130.78983119999998,32.5742337,
"新潟県妙高市｜しなの鉄道「妙高高原駅」から車で5分、赤倉温泉が近くスキーやゴルフも楽しめるリゾート地の土地が０円",https://zero.estate/?p=80466,受付終了,138.1977623,36.8854768,
"広島県福山市｜うつみ市民交流センターから徒歩11分、備後灘に浮かぶ備後群島のひとつ、横島に建つ２階建て家屋が０円",https://zero.estate/?p=81086,受付終了,133.27943779999998,34.3558502,
"香川県坂出市｜JR坂出駅から車で5分、鎌田池や角山近くの住宅街にありスーパーも徒歩圏内の更地が０円",https://zero.estate/?p=80620,受付終了,133.8522843,34.3048477,
"栃木県那須町｜東北縦貫自動車道「那須IC」から車で10分、那須岳のふもとで観光スポットが多い地域の別荘地が０円",https://zero.estate/?p=80922,一時停止,140.02480560000004,37.0368056,
"兵庫県加東市｜中国自動車道「ひょうご東条IC」から車で16分、周辺にゴルフ場が多い安政池近くの土地が０円",https://zero.estate/?p=80484,一時停止,135.0092213,34.8956618,
"栃木県那須町｜東北自動車道「那須IC」から車で13分、日数所有型リゾ－トマンション・ロワジール那須高原ハイジの一室（20日分）が０円",https://zero.estate/?p=79876,受付終了,140.0308986,37.0589955,
"島根県江津市｜JR浅利駅から車で9分、波積ダム近くの集落にある２階建一軒家と畑・原野の5筆をまとめて０円",https://zero.estate/?p=80348,募集中,132.3314167,35.0338889,
"岩手県宮古市｜JR・三陸鉄道リアス線「宮古駅」から徒歩7分、駅近で2014年12月に大規模修繕済みの宿泊施設が０円",https://zero.estate/?p=80328,一時停止,141.9497621,39.6427538,
"三重県熊野市｜JR熊野市駅から徒歩4分、ユネスコ世界遺産登録の「鬼ヶ城」や大泊海水浴場がほど近い２階建一軒家が０円",https://zero.estate/?p=79654,募集中,136.0997735,33.8912971,
"京都府福知山市｜京都丹後鉄道「公庄駅」から徒歩7分、鮎の漁場として知られる由良川が近くを流れる家屋などが０円",https://zero.estate/?p=79862,受付終了,135.1249269171983,35.37067188675079,
"群馬県みどり市｜わたらせ渓谷鐵道「大間々駅」から車で4分、渡良瀬川清流と渓谷の景色が堪能できる地域の家屋が０円",https://zero.estate/?p=79796,受付終了,139.28703199999998,36.4337957,
"岐阜県飛騨市｜JR高山本線「飛騨細江駅」から車で15分、近くにゴルフ場がある飛騨数河リゾート別荘地の一区画が０円",https://zero.estate/?p=79645,受付終了,137.2132895,36.2947036,
"長野県塩尻市｜中央道「岡谷IC」から車で15分、車でのアクセス良好で自然豊かな「塩嶺高原別荘地」の一区画が０円",https://zero.estate/?p=79622,受付終了,138.0101389,36.0823333,
"長野県長野市｜JR篠ノ井線「聖高原駅」から車で32分、聖山オートキャンプ場からほど近い土地が０円",https://zero.estate/?p=79325,受付終了,138.0294806,36.4882321,
"愛知県南知多町｜名古屋鉄道「内海駅」から徒歩7分、徒歩圏内に内海海岸海水浴場やドラッグストアがある土地が０円",https://zero.estate/?p=79639,受付終了,136.87202779999998,34.742,
"愛知県常滑市｜名古屋鉄道「常滑駅」から車で9分、伊勢湾沿いの道路にほど近い雑木林２筆が０円",https://zero.estate/?p=79633,受付終了,136.8532617,34.8685625,
"北海道深川市｜納内駅から車で12分、旭川と芦別を結ぶ幹線道路沿いにある土地7筆をまとめて０円",https://zero.estate/?p=79217,受付終了,142.17316369359645,43.688251248573785,
"北海道釧路市｜JR根室本線「武佐駅」から車で11分、国内最大級の砂岩脈「春採太郎」がほど近い２階建て家屋が０円",https://zero.estate/?p=78438,受付終了,144.41526288528487,42.96003628560367,
"北海道本別町｜道東自動車道「本別IC」から車で6分、徒歩圏内にコンビニ、ドラッグストア、スーパーがある２階建て一軒家が０円",https://zero.estate/?p=75673,受付終了,143.6126826,43.1178399,
"北海道伊達市｜JR室蘭本線「有珠駅」から徒歩10分、白鳥やサギが飛来する有珠湾が目の前に望める家屋が０円",https://zero.estate/?p=79212,受付終了,140.7792746,42.5139881,
"新潟県湯沢町｜JR上越線「岩原スキー場前駅」から徒歩1分、日数所有型リゾートマンション「アーバンヒルズ湯沢リゾート」の一室60日分が0円",https://zero.estate/?p=79041,受付終了,138.8391357,36.9248645,
"徳島県徳島市｜JR牟岐線「地蔵橋駅」から車で3分、徳島市立南部中学校近くの耕作放棄地3筆が０円",https://zero.estate/?p=79061,受付終了,134.5536667,34.0194167,
"北海道函館市｜函館市電本線「函館どつく前停留場」から車で4分、函館山ふもとに位置する更地2筆が０円",https://zero.estate/?p=79052,受付終了,140.7013333,41.767361099999995,
"三重県南伊勢町｜南海線バス停「礫口」から徒歩7分、漁船の停泊場が目の前にある古屋付き土地が０円",https://zero.estate/?p=78469,受付終了,136.66892679677093,34.313367396682246,
"静岡県三島市｜伊豆縦貫自動車道「三島玉沢IC」から車で4分、緑豊かな住宅地の一角にある傾斜地が０円",https://zero.estate/?p=78791,受付終了,138.9567222,35.11530559999999,
"愛媛県伊方町｜四国で最も西に位置する佐田岬半島に位置し、船揚げ場がすぐ近くの物置付き２階建て家屋が０円",https://zero.estate/?p=78715,受付終了,132.2195342,33.4257669,
"三重県四日市市｜四日市あすなろう鉄道「西日野駅」から徒歩8分、四郷小学校の近くにあるメガドンキも徒歩圏内の更地が０円",https://zero.estate/?p=78414,受付終了,136.586275,34.9537299,
"北海道妹背牛町｜JR函館本線「妹背牛駅」から車で4分、妹背牛中学校からほど近い住宅街にある２階建一軒家が０円",https://zero.estate/?p=78155,受付終了,141.9662664,43.6978818,
"静岡県裾野市｜東名高速「裾野IC」から車で20分、富士急十里木高原別荘地の隣接した更地２区画をまとめて０円",https://zero.estate/?p=78144,受付終了,138.79475,35.2654722,
"新潟県湯沢町｜温泉街からほど近い湯沢高原、日数所有型リゾートマンション「プリンスハイム湯沢」の一室60日分が０円",https://zero.estate/?p=77662,受付終了,138.8366827240979,36.926639704845655,
"静岡県熱海市｜JR伊東線「網代駅」そば、眺めの良い温泉付き看護師常駐の高齢者向け住宅「中銀ライフケア南熱海」の一室が０円",https://zero.estate/?p=77625,受付終了,139.0970615833283,35.03755823805632,
"栃木県那須町｜JR黒田原駅から車で18分、豊かな自然が楽しめる別荘地「エンゼルフォレスト那須五峰平」の土地が０円",https://zero.estate/?p=77812,一時停止,140.0425084,37.1031127,
"岩手県一関市｜JR大船渡線「摺沢駅」から徒歩８分、スーパーやドラッグストアも徒歩圏内にある曽慶川沿いの土地が０円",https://zero.estate/?p=77675,受付終了,141.3227355,38.9940429,
"千葉県東金市｜JR東金駅から車で12分、海水浴や海釣りが楽しめる九十九里浜にほど近い住宅地の更地が０円",https://zero.estate/?p=77689,受付終了,140.3993611,35.5363611,
"北海道石狩市｜札幌市のベッドタウンとして知られている石狩市の毘砂別エリアにある畑と２階建一軒家の建物のみ０円",https://zero.estate/?p=77460,取引中止,141.37301809258292,43.55774678410846,
"静岡県熱海市｜JR伊豆多賀駅から車で18分、山と海に挟まれた熱海にある閑静な「熱海自然郷別荘地」の一区画が０円",https://zero.estate/?p=76816,受付終了,139.0534444,35.0715,
"岡山県井原市｜井原鉄道井原線「子守唄の里高屋駅」から車で5分、緑豊かな住宅街の中にある更地が０円",https://zero.estate/?p=77468,取引中止,133.4375616,34.566359,
"福島県大玉村｜東北自動車道「本宮IC」から車で33分、ゴルフ場にも近い別荘地「守谷温泉郷」の更地が０円",https://zero.estate/?p=77472,受付終了,140.2991404,37.5322096,
"長崎県佐世保市｜松浦鉄道西九州線「北佐世保駅」から車で5分、清水小学校からほど近い平屋建一軒家が０円",https://zero.estate/?p=76876,受付終了,129.7113904,33.1871771,
"秋田県鹿角市｜秋北バス「大湯温泉バス停」より徒歩10秒、道の駅おおゆからほど近い元アパートと家屋、土地をまとめて０円",https://zero.estate/?p=76576,受付終了,140.8285833,40.2949722,
"北海道赤平市｜JR根室本線「茂尻駅」から徒歩15分、自然豊かな高台の住宅地にある２階建一軒家が０円",https://zero.estate/?p=76610,受付終了,142.08298449999998,43.536193999999995,
"岐阜県瑞穂市｜JR東海道本線「穂積駅」から車で8分、ゴルフ練習場のそばにある更地4筆をまとめて０円",https://zero.estate/?p=75815,一時停止,136.6819303,35.409589,
"佐賀県みやき町｜JR長崎本線「中原駅」から車で8分、佐賀競馬場から程近い住宅街にある空き地が０円",https://zero.estate/?p=75856,受付終了,130.4618315,33.3479936,
"北海道名寄市｜JR宗谷本線「風連駅」から車で6分、広大な田園地帯にただずむ２階建一軒家と物置・車庫が０円",https://zero.estate/?p=75834,受付終了,142.4459444,44.31141669999999,
"岡山県津山市｜中国自動車道「院庄IC」から車で7分、城下町の風情を残す津山市にある土地7筆と建物3軒をまとめて０円",https://zero.estate/?p=75782,受付終了,133.9630657,35.090873699999996,
"青森県大間町｜本州最北端の地「大間崎」から徒歩圏内、周囲に宿泊施設が多い場所にある畑と原野の3筆をまとめて０円",https://zero.estate/?p=75693,受付終了,140.8976824,41.5401623,
"山口県防府市｜JR山陽本線「防府駅」から車で15分、消防署や小学校から程近い住宅街にある農地を5筆まとめて０円（農業者限定）",https://zero.estate/?p=74972,受付終了,131.6095833,34.0539722,
"新潟県湯沢町｜JR上越線「岩原スキー場前駅」から徒歩で9分、リゾートマンション「ホワイトプラザ湯沢1号館」の一室が０円",https://zero.estate/?p=75678,受付終了,138.839466,36.930609,
"北海道七飯町｜JR函館本線「大沼駅」から車で8分、旧七飯町立東大沼小学校から程近い２階建家屋が０円",https://zero.estate/?p=75701,受付終了,140.7287902,41.9996335,
"山梨県甲府市｜JR中央本線・身延線「甲府駅」から車で10分、森林に囲まれた閑静なエリアに建つ家屋が０円",https://zero.estate/?p=75686,取引中止,138.5840585,35.677322,
"秋田県大仙市｜JR奥羽本線「神宮寺駅」から車で5分、花火のまち大仙市の住宅街にある農地が０円",https://zero.estate/?p=75189,受付終了,140.4020111,39.501235,
"青森県おいらせ町｜青い森鉄道「向山駅」から車で6分の山林と、JR有畑駅から車で12分の原野がそれぞれ０円",https://zero.estate/?p=75718,受付終了,141.29758329999999,41.12175,
"佐賀県嬉野市｜西九州最大級の温泉街がある嬉野市にある家屋と土地(農地)をまとめて０円",https://zero.estate/?p=75360,受付終了,130.02340545467936,33.102585497508336,
"北海道羽幌町｜焼尻島フェリーターミナルから車で7分、日本海に浮かぶ自然豊かな島にある畑2筆が０円",https://zero.estate/?p=75666,受付終了,140.26680530737355,44.43497200000002,
"広島県三次市｜JR福塩線「吉舎駅」から車で4分、石見銀山街道にある２階建て店舗と倉庫をまとめて０円",https://zero.estate/?p=75194,受付終了,132.9909065,34.7169205,
"新潟県湯沢町｜白樺平ゲレンデまで徒歩10秒のリゾートマンション「西武ヴィラ苗場5号館」の南東向きの一室が０円",https://zero.estate/?p=75213,受付終了,138.79023279999998,36.7917051,
"北海道室蘭市｜JR室蘭本線「本輪西駅」から車で3分、坂の途中にあり海が見えて見晴らしのよい更地が０円",https://zero.estate/?p=74672,受付終了,140.9676111,42.3633889,
"千葉県茂原市｜JR外房線「本納駅」から車で10分、豊岡小学校が徒歩圏内、裏手に広いグラウンドがある土地が０円",https://zero.estate/?p=74958,受付終了,140.3531171889495,35.47650611379639,
"徳島県鳴門市｜鳴門渡し船が楽しめる土佐泊から車で5分、タイムシェアリゾート「ふるさと君渦潮編」１週間分が０円",https://zero.estate/?p=74948,受付終了,134.624309,34.197637,
"長野県南牧村｜JR小海線「佐久広瀬駅」から車で8分、標高が高く避暑地として有名な南牧村にある建物が０円",https://zero.estate/?p=74952,受付終了,138.5048889,35.9906667,
"新潟県湯沢町｜苗場スキー場が目の前のリゾートマンション「西武ヴィラ苗場5号館」の一室が０円",https://zero.estate/?p=74669,受付終了,138.79002,36.791601,
"佐賀県武雄市｜JR筑肥線「桃川駅」から車で10分、自然豊かな山間にある宅地、山林、畑など全14筆が０円",https://zero.estate/?p=74739,受付終了,129.9603514,33.2388548,
"長崎県佐世保市｜松浦鉄道西九州線「北佐世保駅」から徒歩12分、自然豊かな住宅街に建つ平家と土地3筆が０円",https://zero.estate/?p=74625,受付終了,129.7174467,33.1910734,
"栃木県那須塩原市｜東北自動車道「黒磯板室IC」から車で10分、リゾート開発未完成エリアにある土地が０円",https://zero.estate/?p=74663,受付終了,139.9720556,36.9771667,
"岐阜県神戸町｜養老鉄道養老線「広神戸駅」から徒歩8分、名古屋圏まで1時間程度で行ける神戸町の住宅街にある更地が０円",https://zero.estate/?p=74617,受付終了,136.6052647,35.4209578,
"新潟県湯沢町｜JR越後湯沢駅から徒歩3分、日数所有型リゾートマンション「シャルマン湯沢」の一室60日分が０円",https://zero.estate/?p=74409,受付終了,138.8046622,36.93687,
"静岡県熱海市｜JR伊東線「伊豆多賀駅」から車で15分、別荘地エンゼルフォレストリゾート熱海自然郷の土地一区画が０円",https://zero.estate/?p=74484,一時停止,139.0520278,35.072805599999995,
"山形県鶴岡市｜JR羽越本線「鶴岡駅」から車で13分、コンビニからほど近い更地が０円",https://zero.estate/?p=74474,一時停止,139.8152778,38.7052778,
"滋賀県長浜市｜北陸自動車道「長浜IC」から車で12分、自然豊かで閑静な住宅エリアにある更地が０円",https://zero.estate/?p=74122,受付終了,136.3365556,35.4270833,
"広島県尾道市｜JR山陽本線「松永駅」から車で15分、しまなみ海道の玄関口尾道市にある家屋などまとめて０円",https://zero.estate/?p=74008,受付終了,133.2793644,34.40734949999999,
"新潟県湯沢町｜苗場スキー場近くのリゾートマンション「西武ヴィラ苗場5号館」最上階の一室が０円",https://zero.estate/?p=74021,受付終了,138.79002,36.791601,
"岡山県吉備中央町｜中国横断自動車道「賀陽IC」から車で20分、吉備中央町にある古民家と土地が０円",https://zero.estate/?p=74042,受付終了,133.7597294,34.8970984,
"山口県平生町｜JR山陽本線「田布施駅」から車で17分、釣場として人気な佐賀漁港がほど近い土地2筆が０円",https://zero.estate/?p=74013,取引中止,132.08352779999998,33.8914444,
"宮崎県日南市｜JR日南線「南郷駅」から車で6分、外浦漁協からほど近い住宅街にある山林2筆が０円",https://zero.estate/?p=73972,一時停止,131.3710556,31.5173333,
"北海道長万部町｜道央自動車道「長万部IC」から車で2分、周囲に住宅がない閑静なエリアに建つ未登記古民家が建物のみ０円",https://zero.estate/?p=73824,受付終了,140.37173239999998,42.5235481,
"徳島県鳴門市｜大塚国際美術館にほど近く、設備も充実のタイムシェアリゾート「ふるさと君渦潮編」１週間分が０円",https://zero.estate/?p=73588,受付終了,134.624309,34.197637,
"兵庫県佐用町｜JR佐用駅から車で8分、佐用城跡近くにある別荘地が０円",https://zero.estate/?p=73592,受付終了,134.3423333,34.995611100000005,
"茨城県牛久市｜JR常磐線「牛久駅」から徒歩16分、牛久市を南北に渡るふれあい通りからすぐの家屋と土地が０円",https://zero.estate/?p=69729,受付終了,140.1503219808178,35.97171968308964,
"秋田県潟上市｜JR男鹿線「出戸浜駅」から車で5分、秋田市に隣接するベットタウン潟上市にある2LDKの家屋が０円",https://zero.estate/?p=73299,受付終了,140.0334871,39.8475915,
"山口県下関市｜JR下関駅から車で6分、下関市立本村小学校近くにある室内程度良好な２階建一軒家の家屋のみ０円",https://zero.estate/?p=73372,受付終了,130.9099014,33.9442563,
"長野県上田市｜北陸新幹線「上田駅」から車で45分、大自然に囲まれた別荘地に建つログハウス風の家屋と小屋が０円",https://zero.estate/?p=73313,受付終了,138.1872176,36.2262896,
"山口県岩国市｜中国自動車道「六日市IC」から車で23分、「清流の郷」からほど近い家屋と土地が0円",https://zero.estate/?p=73227,受付終了,132.0214444,34.3758333,
"奈良県吉野町｜近鉄吉野線「大和上市駅」から車で21分、家庭菜園も楽しめる平屋建一軒家が０円",https://zero.estate/?p=72950,受付終了,135.9347185,34.3852279,
"徳島県鳴門市｜磯遊び・浜遊びが楽しめる海岸が目の前に広がるタイムシェアリゾート「ふるさと君渦潮編」１週間分が０円",https://zero.estate/?p=72929,受付終了,134.624309,34.197637,
"徳島県鳴門市｜大鳴門橋架橋記念館エディから車で12分、タイムシェアリゾート「ふるさと君渦潮編」１週間分が０円",https://zero.estate/?p=72918,受付終了,134.624309,34.197637,
"茨城県かすみがうら市｜日本で2番目の大きさの湖、霞ヶ浦からほど近い土地が０円",https://zero.estate/?p=72935,受付終了,140.3318056,36.1233889,
"長野県軽井沢町｜JR軽井沢駅より車で16分、自然観光スポットが周囲に点在する軽井沢のレイクニュータウン別荘地一区画が０円",https://zero.estate/?p=72540,受付終了,138.6176389,36.2894167,
"徳島県鳴門市｜淡路島と昭島を望める海岸からほど近いタイムシェアリゾート「ふるさと君渦潮編」１週間分が０円",https://zero.estate/?p=72318,受付終了,134.624309,34.197637,
"徳島県鳴門市｜リラックスにもアクティブにも楽しめる、ウチノ海総合公園からもほど近いタイムシェアリゾート「ふるさと君渦潮編」１週間分が０円",https://zero.estate/?p=72334,募集中,134.624309,34.197637,
"広島県世羅町｜観光スポットの美波羅川千本桜から車で6分、田園風景が広がる道路沿いに佇む家屋や蔵・土地をまとめて０円",https://zero.estate/?p=72614,受付終了,132.89268719999998,34.63177299999999,
"香川県坂出市｜JR坂出駅から徒歩12分、教育施設が多い地域にありコンビニやスーパーも近い物件が０円",https://zero.estate/?p=71757,受付終了,133.8531,34.3080666,
"群馬県高崎市｜JR群馬八幡駅から車で12分、のどかな地域の静かな高台にある6DKの２階建一軒家が０円",https://zero.estate/?p=72556,受付終了,138.9515102,36.37485710000001,
"北海道遠軽町｜JR石北本線「遠軽駅」から車で5分、北海道遠軽高等学校から程近い２階建て家屋が０円",https://zero.estate/?p=72516,受付終了,143.5236707,44.05083929999999,
"岐阜県高山市｜北アルプスの山々に囲まれた奥飛騨温泉郷も近く、自然を満喫できる土地24筆と倉庫をまとめて０円",https://zero.estate/?p=72337,受付終了,,,①岐阜県高山市上宝町岩井戸字ヲセバ927番
"岡山県美作市｜智頭急行智頭線「大原」駅より車で5分、鳥取自動車道「大原」ICより車で5分、山々に囲まれた住宅街に佇む家屋２軒が０円",https://zero.estate/?p=62474,受付終了,134.340614,35.1252968,
"徳島県鳴門市｜大塚国際美術館にほど近く、眺望良好なタイムシェアリゾート「ふるさと君渦潮編」１週間分が０円",https://zero.estate/?p=71816,受付終了,134.624309,34.197637,
"三重県伊賀市｜伊賀鉄道「伊賀上野駅」から車で12分、キャンプ場併設の岩倉峡公園からほど近い土地が０円",https://zero.estate/?p=71804,受付終了,136.0981911,34.7780081,
"北海道富良野市｜JR根室本線「山部駅」から徒歩10分、セブンイレブンが徒歩圏内の住宅街にある土地が０円",https://zero.estate/?p=71810,受付終了,142.3804212,43.2386152,
"山梨県道志村｜「的様の滝」や「道志村林間広場」の近くにある、自然豊かな土地が０円",https://zero.estate/?p=71823,受付終了,139.0253889,35.505527799999996,
"岩手県普代村｜三陸鉄道リアス線「堀内駅」から徒歩5分、堀内漁港まで1キロ圏内にある木造2階建て家屋が０円",https://zero.estate/?p=71695,受付終了,141.85794439999998,40.0526111,
"北海道当麻町｜JR当麻駅から車で4分、「道の駅とうま」にも近く周囲に畑が広がる２階建一軒家と農地をまとめて０円",https://zero.estate/?p=71742,取引中止,142.50802779999998,43.836833299999995,
"北海道名寄市｜JR名寄駅から車で3分、名寄公園やセイコーマート近くの住宅地にある２階建一軒家が０円",https://zero.estate/?p=71702,受付終了,142.470112,44.347978,
"山口県周防大島町｜瀬戸内海に浮かぶ「浮島」の樽見港待合所から徒歩6分、樽見観音からほど近い場所にある平屋建一軒家が０円",https://zero.estate/?p=71446,受付終了,132.3498351,33.9581736,
"千葉県南房総市｜名倉海水浴場まで車で3分、太平洋の絶景が楽しめる野島埼灯台にもほど近い平家建一軒家が０円",https://zero.estate/?p=71333,受付終了,139.89748840030566,34.909604472151514,
"茨城県水戸市｜常磐自動車道「水戸北IC」から車で21分、水戸ニュータウン・メガソーラーパーク近くの林が０円",https://zero.estate/?p=71460,受付終了,140.3871111,36.4539722,
"群馬県嬬恋村｜しなの鉄道「中軽井沢」駅から車で37分、日数所有型リゾートマンション「グランナチュール浅間高原」の一室（20日分）が０円",https://zero.estate/?p=71049,受付終了,138.5369337,36.4949233,
"静岡県伊東市｜JR伊東線「宇佐美駅」から車で15分、約1200区画を保有する別荘地「宇佐美みのりの村」内にある土地が０円",https://zero.estate/?p=71064,受付終了,139.0544722,34.9935556,
"鹿児島県南さつま市｜野間池漁港から徒歩10分、鹿児島本土の最西南端に位置する南さつま市に建つ家屋と土地が０円",https://zero.estate/?p=71073,受付終了,130.1376287,31.4155428,
"千葉県山武市｜JR総武本線「八街駅」から車で10分、山武市と八街市の市境に位置する土地が2筆が０円",https://zero.estate/?p=70742,受付終了,140.3457434,35.659132,
"千葉県白子町｜九十九里有料道路「長生IC」から車で3分、九十九里浜まで車で5分の距離にある土地と建物が０円",https://zero.estate/?p=70748,受付終了,140.3894092022073,35.42253326278556,
"栃木県那須町｜東北自動車道「那須IC」から車で12分、那須高原りんどう湖ファミリー牧場がほど近い別荘地の土地２筆が０円",https://zero.estate/?p=70469,受付終了,140.0552711,37.0425977,
"千葉県千葉市｜京成千原線「大森台駅」から徒歩7分、ベースンゴルフクラブ近くの住宅地にある土地が０円",https://zero.estate/?p=70588,受付終了,140.1453717,35.5826795,
"山口県山口市｜JR徳佐駅から徒歩20分、養仲寺近くにある約10,000坪超の山林が０円",https://zero.estate/?p=70342,受付終了,131.7188056,34.38949999999999,
"長野県木曽町｜四季折々の自然とレジャーが楽しめる、御嶽山の麓にある別荘地「オリンポス三岳」の土地が０円",https://zero.estate/?p=69972,受付終了,137.6001174,35.9037506,
"新潟県湯沢町｜苗場スキー場の花火が見える、リゾートマンション「西武ヴィラ苗場5号館」14階の一室が０円",https://zero.estate/?p=70074,受付終了,138.79002,36.791601,
"秋田県大館市｜JR早口駅から車で3分、釣りスポットが多い米代川にほど近い、手つかずの土地が０円",https://zero.estate/?p=69963,受付終了,140.4508889,40.27480560000001,
"山梨県鳴沢村｜中央自動車道「河口湖IC」より車で18分、富士山北麗に広がる広大な別荘地「紅葉台センチュリーヴィラ」の一区画が０円",https://zero.estate/?p=69703,受付終了,138.6753889,35.4718333,
"石川県穴水町｜のと鉄道「穴水」駅から車で17分、穴水マリーナ近くにある椿崎リゾート別荘地の山林が０円",https://zero.estate/?p=69786,受付終了,136.9716944,37.2106944,
"茨城県鹿嶋市｜鹿島臨海鉄道大洗鹿島線「鹿島大野駅」より車で3分、自然豊かな住宅地に佇む土地が０円",https://zero.estate/?p=70349,受付終了,140.60425,36.0448333,
"福井県越前市｜JR武生駅から徒歩10分、「ちひろの生まれた家」記念館近くの商店街にある３階建の物件が０円",https://zero.estate/?p=69745,受付終了,136.16380256672323,35.90197544523443,
"秋田県美郷町｜JR飯詰駅から車で10分、スーパーやコンビニに近く様々な用途に利用可能な元旅館の２階建家屋が０円",https://zero.estate/?p=69733,受付終了,140.54744599999998,39.420744899999995,
"北海道旭川市｜旭川駅から車で5分、ショッピングセンターからほど近い住宅街にあるマンションの南向き3LDK一室が０円",https://zero.estate/?p=69708,受付終了,142.37430629972232,43.75018570221033,
"茨城県常陸太田市｜JR東館駅から車で21分、「里美温泉保養センター ぬく森の湯」近くの角地が０円",https://zero.estate/?p=69557,受付終了,140.4948332,36.7426593,
"北海道小樽市｜JR小樽駅から車で10分、高台の住宅街にある２階建一軒家が０円",https://zero.estate/?p=69542,受付終了,140.970838,43.180527,
"北海道小樽市｜海を見ながらスキーが楽しめる「小樽天狗山スキー場」が徒歩圏内の２階建一軒家が０円",https://zero.estate/?p=69550,受付終了,140.975885,43.179535,
"大分県姫島村｜瀬戸内海に浮かぶ大分県の離島、姫島村にある家屋2軒と倉庫2棟をまとめて０円",https://zero.estate/?p=69513,受付終了,131.63917559643764,33.72574862184879,
"静岡県伊豆の国市｜JR伊豆長岡駅から車で17分、世界遺産「韮山反射炉」にほど近く周辺に別荘地も多い土地が０円",https://zero.estate/?p=69566,取引中止,138.9694866,35.0448699,
"静岡県熱海市｜熱海駅より車で10分、リゾートマンション「熱海アビタシオン」第２号棟の２階一部屋が０円",https://zero.estate/?p=66849,取引中止,139.0863291,35.11503669999999,
"石川県珠洲市｜自然豊かで観光スポットも多い能登半島の先端・珠洲市にある9DKの２階建一軒家が０円",https://zero.estate/?p=69060,受付終了,137.2956288,37.4573992,
"広島県府中市｜JR福塩線「府中駅」から車で5分、小高い住宅街にある墓地一区画が０円",https://zero.estate/?p=68995,受付終了,133.2341944,34.57975,
"山口県防府市｜JR山陽本線「防府駅」から車で約20分、自動車工場近くの防府市立西浦小学校の裏手にある更地が０円",https://zero.estate/?p=69067,受付終了,131.5197768,34.0230438,
"大分県九重町｜九州横断自動車道「九重IC」から車で15分、人里を離れ、森に囲まれた閑静なエリアにある建物と土地をまとめて０円",https://zero.estate/?p=68504,取引中止,131.2543279,33.2531587,
"栃木県那須塩原市｜東北自動車道「那須IC」から車で33分、セカンドライフを楽しめる別荘地「那須白笹温泉郷」の一区画が０円",https://zero.estate/?p=68932,受付終了,139.9385437,37.0904163,
"新潟県新潟市｜JR越後赤塚駅から車で5分、周囲に田園風景が広がる8DKの２階建一軒家が０円",https://zero.estate/?p=69030,受付終了,138.92054869999998,37.820075599999996,
"鹿児島県日置市｜JR東市来駅から車で5分、海水浴や釣りが楽しめる江口浜近くの高台にある土地8筆と建物をまとめて０円",https://zero.estate/?p=68896,受付終了,130.3353195,31.649370799999996,
"茨城県稲敷市｜JR下総神崎駅から車で約20分、霞南ゴルフ倶楽部にほど近いのどかな場所にある畑が０円",https://zero.estate/?p=68554,取引中止,140.40425000000002,35.9405278,
"兵庫県宍粟市｜中国縦貫自動車道「山崎IC」から車で35分、宍粟50名山の山々に囲まれた土地と陶芸窯をまとめて０円",https://zero.estate/?p=68476,受付終了,134.5213738,35.1577017,
"徳島県鳴門市｜観光スポット鳴門公園からもほど近い、タイムシェアリゾート「ふるさと君渦潮編」１週間分が０円",https://zero.estate/?p=68490,受付終了,134.624309,34.197637,
"兵庫県西脇市｜JR加古川線「黒田庄駅」より徒歩8分、日本のまんなか西脇市に位置する更地2筆が０円",https://zero.estate/?p=68434,受付終了,134.9906991,35.0255107,
"熊本県天草市｜松島有明道路「知十IC」から車で30分、青い海に囲まれた120余の島々からなる天草に建つ平屋と土地あわせて０円",https://zero.estate/?p=68409,受付終了,130.281077,32.4171589,
"千葉県白子町｜JR外房線「本納」駅より車で15分、広大な海に面し、一年中穏やかな気候に恵まれる白子町にある土地が０円",https://zero.estate/?p=68498,受付終了,140.3567778,35.452,
"千葉県南房総市｜JR館山駅から車で23分、「白鳥の灯台」とも呼ばれる野島埼灯台近くの土地が０円",https://zero.estate/?p=68293,受付終了,139.87025,34.90722219999999,
"大分県佐伯市｜東九州自動車道「佐伯堅田IC」から車で5分、佐伯総合運動公園にもほど近い古屋付き土地が０円",https://zero.estate/?p=68283,受付終了,131.8618056,32.9146111,
"長野県長野市｜長野自動車道「麻績IC」から車で41分、自然豊かな聖山高原にある別荘地が０円",https://zero.estate/?p=67874,受付終了,138.0157216,36.4899275,
"岐阜県高山市｜JR高山本線「杉崎駅」から車で35分、北アルプス双六岳を源流とする双六渓谷から程近い2階建一軒家が０円",https://zero.estate/?p=67962,受付終了,137.3717778,36.2919444,
"北海道深川市｜JR函館本線・留萌本線「深川駅」から徒歩7分、深川市の繁華街内にある戸建・アパート・事務所が一体となった二階建て家屋が０円",https://zero.estate/?p=67983,受付終了,142.04420437618026,43.72096967109894,
"北海道室蘭市｜JR室蘭駅から車で6分、測量山展望台近くの高台にある住宅地の一区画が０円",https://zero.estate/?p=67946,受付終了,140.9615884,42.3233435,
"広島県江田島市｜瀬戸内シーライン三高港から車で3分、広島湾が見える宅地と田の2筆をまとめて０円",https://zero.estate/?p=67957,募集中,132.4039349,34.2562493,
"三重県津市｜近鉄大阪線「東青山」駅から車で26分、自然豊かな避暑地の青山高原にある土地が０円",https://zero.estate/?p=67883,受付終了,136.31219439999998,34.6861944,
"千葉県鴨川市｜JR内房線「保田駅」から車で25分、鴨川市と富津市の県境付近にある建物と土地23筆をまとめて０円",https://zero.estate/?p=67785,受付終了,139.9491838,35.1512494,
"山梨県鳴沢村｜中央自動車道「河口湖IC」から車で17分、雄大な富士山北麗に広がる、緑豊かな富士箱根伊豆国立公園区域内にある別荘地が０円",https://zero.estate/?p=67795,受付終了,138.67658330000003,35.4672778,
"茨城県鉾田市｜鹿島臨海鉄道大洗鹿島線「北浦湖畔駅」から車で5分、畑や森林に囲まれた閑静な住宅街に潜む土地建物が０円",https://zero.estate/?p=67806,受付終了,140.5449343,36.1067511,
"山口県下関市｜JR山陽本線「長府駅」から車で5分、周囲に公園が多い住宅街の中にある二階建て一軒家が０円",https://zero.estate/?p=67339,受付終了,130.9849614,34.0173907,
"大分県中津市｜JR日豊本線「吉富駅」から車で5分、福岡県と大分県の県境からほど近い場所にある土地3筆をまとめて０円",https://zero.estate/?p=67451,受付終了,131.1828664,33.6081455,
"広島県尾道市｜バス停「浦崎中学校前」から徒歩10分、瀬戸内海を望む山林地帯を６筆まとめて０円",https://zero.estate/?p=67327,受付終了,133.2749722,34.395444399999995,
"北海道枝幸町｜枝幸バスターミナルから徒歩10分、枝幸町役場から程近い、街の中心部に位置する店舗兼住居が０円",https://zero.estate/?p=67417,受付終了,142.5833344,44.9376622,
"長野県富士見町｜JR中央本線「信濃境駅」から車で5分、住宅街を抜けた先にある森林地帯の土地約1,500㎡が０円",https://zero.estate/?p=67424,取引中止,138.2837778,35.8961389,
"北海道名寄市｜JR宗谷本線「名寄駅」から車で5分、名寄市内の閑静な住宅街の角地にある２階建家屋と土地2筆が０円",https://zero.estate/?p=66949,受付終了,142.47038404155415,44.3609676171904,
"新潟県田上町｜JR信越本線「田上駅」から車で5分、長閑な田園に囲まれた住宅地に佇むが一軒家が０円",https://zero.estate/?p=67019,取引中止,139.0463748586957,37.71679500012887,
"青森県むつ市｜バス九艘泊線「蛸田」の停留所から徒歩2分、目の前に陸奥湾を望む二階建ての家屋と土地が０円",https://zero.estate/?p=66826,受付終了,140.7843355,41.1318234,
"栃木県那須塩原市｜東北自動車道「黒磯板室」ICから車で15分、戸田南霊園付近の山林2筆をまとめて０円",https://zero.estate/?p=66867,受付終了,139.95863889999998,37.0052778,
"三重県伊賀市｜名阪国道「壬生野」ICから車で3分、周囲を広大な田畑と住宅に囲まれた土地が０円",https://zero.estate/?p=66655,受付終了,136.1923611,34.8000833,
"岩手県一戸町｜八戸自動車道一戸ICから車で9分、自然豊かな山間に佇む9DKの２階建一軒家と小屋が０円",https://zero.estate/?p=66660,受付終了,141.341937,40.2184717,
"北海道美唄市｜JR美唄駅から徒歩10分、スーパーやドラッグストアが徒歩圏内で生活に便利な一軒家が０円",https://zero.estate/?p=65555,受付終了,141.8578413,43.3272323,
"岐阜県飛騨市｜JR高山本線「飛騨細江」駅より車で15分、「飛騨数河リゾート」別荘地内にある土地が０円",https://zero.estate/?p=66104,受付終了,137.2075279,36.2897952,
"栃木県矢板市｜JR矢板駅から車で10分、東北道へのアクセスも良好な矢板運動公園近くの土地が０円",https://zero.estate/?p=66236,受付終了,139.8956389,36.80999999999999,
"千葉県千葉市｜JR稲毛駅から車で10分、宮野木JCT近くの住宅地にある道路沿いの法地が０円",https://zero.estate/?p=66231,受付終了,140.0957778,35.65625,
"栃木県那須塩原市｜東北自動車道「黒磯板室」ICから車で35分、温泉付き別荘地「那須白笹温泉郷」の一区画が０円",https://zero.estate/?p=66203,受付終了,139.9381726,37.0854567,
"山梨県身延町｜JR久那土駅から車で3分、自然豊かで近くに温泉もある２階建古民家と土蔵・納屋をまとめて０円",https://zero.estate/?p=64167,受付終了,138.4834534,35.4857415,
"東京都八王子市｜JR八王子駅から車で13分、中央自動車道へのアクセス良好で周辺に商業施設も多い土地が０円",https://zero.estate/?p=65591,受付終了,139.33486109999998,35.677583299999995,
"栃木県大田原市｜JR東北新幹線「那須塩原」駅より車で12分、県道342号中田原寒井線からほど近い山林が０円",https://zero.estate/?p=65328,受付終了,140.07284449865674,36.9028428515244,
"栃木県那須町｜JR東北本線「黒田原」駅より車で7分、住宅や田畑に囲まれる所在不明の山林2筆をまとめて０円",https://zero.estate/?p=65157,受付終了,140.1352358,37.0081854,
"石川県輪島市｜能越自動車道「穴水IC」から車で11分、八ケ川ダム近くの平屋建一軒家と物置小屋が０円",https://zero.estate/?p=65152,受付終了,136.8428187,37.2702178,
"新潟県長岡市｜JR長岡駅から徒歩11分、大花火大会で知られる長岡市の中心部から徒歩圏内の土地が０円",https://zero.estate/?p=65134,受付終了,138.8603889,37.4541667,
"山形県鶴岡市｜山形自動車道「鶴岡」ICより車で10分、青龍寺川横の畑4筆をまとめて０円",https://zero.estate/?p=64182,取引中止,139.8129444,38.7179722,
"京都府伊根町｜岩に囲まれた入り江の泊海水浴場より車で5分、舟屋で有名な伊根町にある一軒家が０円",https://zero.estate/?p=63906,取引中止,135.2847778,35.702999999999996,
"新潟県柏崎市｜JR礼拝駅から車で3分、田中角栄記念館そばの土地13筆をまとめて０円",https://zero.estate/?p=64743,一時停止,138.6584164,37.4516647,
"福井県敦賀市｜JR北陸本線「新疋田」駅から徒歩7分、「三足富士」を望む見晴らしの良い高台の土地が０円",https://zero.estate/?p=64749,受付終了,136.09924999999998,35.5971111,
"栃木県那須塩原市｜東北自動車道「黒磯板室」ICより車で15分、近隣で様々なアクティビティが楽しめる平家建一軒家が０円",https://zero.estate/?p=64329,受付終了,139.90691429999998,36.9931723,
"北海道名寄市｜JR名寄駅から車で3分、名寄公園に近くセイコーマートも徒歩圏内の２階建一軒家が０円",https://zero.estate/?p=60945,受付終了,142.4701115,44.3479777,
"和歌山県海南市｜JR下津駅から徒歩13分、周辺に海釣りスポットも多い山沿いの２階建一軒家が０円",https://zero.estate/?p=64051,取引中止,135.1361469,34.1083112,
"神奈川県横須賀市｜京浜急行「安針塚」駅から徒歩8分、横須賀港が一望できる安針台公園のそばにある土地建物が０円",https://zero.estate/?p=64222,受付終了,139.6474413,35.2897049,
"岩手県一関市｜JR東北新幹線、東北本線「一ノ関」駅より車で5分、母屋と離れ2軒、物置すべてまとめて０円",https://zero.estate/?p=64192,受付終了,141.1419967,38.9135153,
"長野県軽井沢町｜しなの鉄道線「信濃追分」駅から車で7分、夏の喧騒から逃れられる軽井沢・自由が丘別荘地の一区画が０円",https://zero.estate/?p=64218,受付終了,138.5646234,36.3210661,
"富山県魚津市｜富山地方鉄道本線「電鉄魚津」駅から徒歩6分、住宅地の中にある未利用の土地が０円",https://zero.estate/?p=64077,受付終了,137.4051464,36.8146209,
"北海道秩父別町｜JR秩父別駅から車で9分、周囲に田園風景が広がりカントリーライフが楽しめる土地が０円",https://zero.estate/?p=64063,受付終了,141.97408330000002,43.807,
"兵庫県豊岡市｜京都府との境に位置する高竜寺ヶ岳登山口、産霊神社近くにある一軒家と田畑をまとめて０円",https://zero.estate/?p=63864,一時停止,134.9751944,35.50880559999999,
"静岡県伊東市｜伊豆急行線「川奈」駅より車で10分、市街地にほど近い閑静なエリアにある山林が０円",https://zero.estate/?p=63911,受付終了,139.1278677,34.9311572,
"広島県庄原市｜JR芸備線「東城」駅から徒歩10分、住宅街に佇むプレハブ小屋付き土地が０円",https://zero.estate/?p=63972,受付終了,133.2757778,34.8978056,
"静岡県伊東市｜JR宇佐美駅から車で10分、南向きで日当たり良好な中銀宇佐美別荘地の土地建物が０円",https://zero.estate/?p=63609,受付終了,139.0595339,35.0104656,
"新潟県柏崎市｜JR東柏崎駅から徒歩8分、周辺に飲食店も多く駅から徒歩圏内の２階建空き店舗が０円",https://zero.estate/?p=63387,受付終了,138.5599167,37.37619439999999,
"徳島県鳴門市｜渦潮を楽しめる鳴門公園からもほど近い、タイムシェアリゾート「ふるさと君渦潮編」１週間分が０円",https://zero.estate/?p=63397,受付終了,134.624309,34.197637,
"佐賀県伊万里市｜JR筑肥線「大川野」駅より車で6分、大自然に佇む住宅地の横にある約150坪の土地が０円",https://zero.estate/?p=63483,受付終了,129.9980288,33.3119207,
"富山県富山市｜JR高山本線「越中八尾」駅より車で10分、「おわら風の盆の里」八尾町旧町まで徒歩10分、のどかな自然に囲まれた二階建て家屋と蔵を合わせて０円",https://zero.estate/?p=62103,受付終了,137.1256625,36.5675397,
"栃木県那須塩原市｜JR黒磯駅から車で12分、鳥野目河川公園オートキャンプ場からもほど近い土地が０円",https://zero.estate/?p=62805,取引中止,140.0170833,36.9908056,
"北海道豊浦町｜JR室蘭本線「豊浦」駅から徒歩10分、豊浦漁港がすぐ目の前にある4LDKの一軒家が０円",https://zero.estate/?p=62674,受付終了,140.7125422,42.5801678,
"長野県富士見町｜中央自動車道「小淵沢」ICから車で8分、16万坪に広がる富士見高原リゾート内にある別荘地の一区画が０円",https://zero.estate/?p=62669,受付終了,138.2840833,35.95802779999999,
"徳島県鳴門市｜大塚国際美術館や鳴門公園にもほど近い、タイムシェアリゾート「ふるさと君渦潮編」１週間分が０円",https://zero.estate/?p=62656,受付終了,134.624309,34.197637,
"静岡県函南町｜JR函南駅から車で25分、伊豆半島一大きい別荘地「伊豆エメラルドタウン」にある一角の土地が０円",https://zero.estate/?p=62573,募集中,138.99625,35.0830556,
"宮城県気仙沼市｜三陸沿岸道路「気仙沼中央IC」から車で5分、気仙沼湾にほど近い住宅街にある平屋建一軒家が０円",https://zero.estate/?p=62403,受付終了,141.57889849999998,38.878554,
"長崎県長崎市｜長崎電鉄「崇福寺駅」から徒歩8分、傾斜地の宅地にありスーパーも徒歩圏内の土地が０円",https://zero.estate/?p=62418,受付終了,129.8855386,32.7365305,
"青森県南部町｜青い森鉄道 苫米地駅から車で6分、道路沿いの角地にある２階建一軒家が０円",https://zero.estate/?p=62045,受付終了,141.3862619,40.4522997,
"大阪府枚方市｜京阪電気鉄道交野線「宮之阪駅」から徒歩7分、閑静な住宅街にある土地が０円※建築不可",https://zero.estate/?p=62030,受付終了,135.6566389,34.8174167,
"栃木県那須町｜東北自動車道「那須高原スマートIC」から車で15分、管理された閑静な別荘地にある土地が０円",https://zero.estate/?p=62002,募集中,140.03725,37.0903889,
"鹿児島県大崎町｜東九州自動車道 大崎ICから車で6分、大崎小学校のそばにある土地が０円",https://zero.estate/?p=62038,受付終了,131.0031334,31.4288177,
"山梨県鳴沢村｜中央自動車道「河口湖IC」から車で約20分、周囲に多くのキャンプ場をかまえる別荘地の土地が０円",https://zero.estate/?p=62021,受付終了,138.6836389,35.4692222,
"山梨県富士河口湖町｜富士山を間近で仰ぎみれる別荘地「富士ドクタービレッジ」内にある土地一区画が０円",https://zero.estate/?p=61790,受付終了,138.6311332,35.4187386,
"兵庫県南あわじ市｜タイムシェアリゾート「ふるさと君淡路島」１週間分が０円",https://zero.estate/?p=61785,受付終了,134.735175,34.336969,
"福岡県北九州市｜JR鹿児島本線「戸畑」駅・「枝光」駅ともに車で5分、築61年木造２階建の廃墟アパートが０円",https://zero.estate/?p=61550,受付終了,130.81521279999998,33.8874756,
"北海道小樽市｜JR函館本線「小樽」駅から車で10分、住宅街にある2階建一軒家の土地建物が０円",https://zero.estate/?p=61536,受付終了,140.9708597,43.1804954,
"栃木県日光市｜東武鉄道 小佐越駅・新高徳駅から車で6分、周囲に多くの観光地がある鬼怒川付近の山林が０円",https://zero.estate/?p=61524,受付終了,139.69902779999998,36.7895833,
"山形県新庄市｜山形新幹線の終着駅「新庄駅」から徒歩6分、飲食店街の一角にあるテナント物件が０円",https://zero.estate/?p=60262,受付終了,140.3021944,38.7619167,
"東京都町田市｜小田急電鉄多摩線「黒川」駅から車で7分、東京と神奈川の県境に位置する小高い場所にある土地が０円",https://zero.estate/?p=61254,受付終了,139.4585833,35.60158330000001,
"神奈川県横浜市｜相模鉄道「西谷」駅から徒歩12分、東海道新幹線沿線すぐ横の住宅地にある山林の一角が０円",https://zero.estate/?p=61244,受付終了,139.5714722,35.481333299999996,
"千葉県市原市｜小湊鉄道 海士有木駅から車で7分、山倉ダム沿いで「千葉こどもの国」にもほど近い山林が０円",https://zero.estate/?p=61059,受付終了,140.1315,35.4970833,
"茨城県鉾田市｜鹿島臨海鉄道 大洋駅から車で9分、ザ・ロイヤルゴルフクラブにほど近い土地が０円",https://zero.estate/?p=61052,受付終了,140.5733333,36.0809167,
"千葉県船橋市｜新京成線 滝不動駅から車で6分、御滝公園に近くスーパーも徒歩圏内の土地が０円",https://zero.estate/?p=61037,受付終了,140.0158611,35.73899999999999,
"千葉県横芝光町｜銚子連絡道路 横芝光ICから車で10分、別荘地やキャンプ場にも活用できる東京から90分圏内の土地が０円",https://zero.estate/?p=61020,受付終了,140.515,35.6427778,
"北海道紋別市｜オホーツク紋別空港から車で約10分、イオン紋別店まで徒歩圏内の２階建アパートが１棟まとめて０円",https://zero.estate/?p=60761,取引中止,143.3492351134542,44.34821792795524,
"北海道小樽市｜小樽天狗山ロープウェイ・スキー場まで徒歩5分、住宅街にある2階建一軒家が０円",https://zero.estate/?p=60784,受付終了,140.9758255,43.1794682,
"愛知県半田市｜ユネスコ無形文化遺産「潮干祭」が行われるビーチまで約５分、神社が立ち並ぶエリアの土地建物が０円",https://zero.estate/?p=60666,受付終了,136.9709749,34.9187839,
"山梨県北杜市｜中央自動車道「長坂」ICより車で10分、南アルプス・奥秩父・八ヶ岳の大自然に囲まれた北杜市の土地をまとめて０円",https://zero.estate/?p=60234,受付終了,138.3968256,35.8571623,
"秋田県仙北市｜「日本百名月」に認定された田沢湖から車で10分、小さな集落の土地と建物合わせて０円",https://zero.estate/?p=60296,受付終了,140.6953441,39.7638588,
"岡山県倉敷市｜山陽新幹線新倉敷駅から車で10分、県内では有名な圓通寺に近い建物が０円",https://zero.estate/?p=59474,受付終了,133.66433329999998,34.54113890000001,
"三重県伊賀市｜JR関西本線・草津線「柘植駅」より車で5分、三重県と滋賀県の県境付近にある更地が０円",https://zero.estate/?p=59879,受付終了,136.2490848,34.8431389,
"神奈川県藤沢市｜小田急線六会日大前駅から車で6分、住宅地と農地に囲まれる山林が０円",https://zero.estate/?p=59884,受付終了,139.4856944,35.37388889999999,
"栃木県那須町｜周囲に多くの観光地があり、四季折々の那須高原の自然を満喫できる別荘地にある建物が０円",https://zero.estate/?p=59762,受付終了,139.9921755,37.088647300000005,
"岐阜県瑞浪市｜JR釜戸駅から車で10分、瑞浪ICから車で20分の別荘地にある土地が０円",https://zero.estate/?p=59773,受付終了,137.31552779999998,35.40863889999999,
"長野県飯田市｜JR元善光寺駅から車で3分、住宅街から少し抜けた森林に囲まれた一角が０円",https://zero.estate/?p=59747,受付終了,137.8511389,35.5316111,
"石川県羽咋市｜のと里山海道「千里浜」ICから車で6分、子浦川沿いの耕作地の土地が０円",https://zero.estate/?p=59781,受付終了,136.7948611,36.8926389,
"岡山県笠岡市｜JR笠岡駅から車で14分、宅地・山林・原野の計7筆と平家建一軒家など建物3軒をまとめて０円",https://zero.estate/?p=57604,受付終了,133.5332118,34.545829499999996,
"千葉県横芝光町｜JR横芝駅より車で１５分、周囲を住宅に囲まれた未利用の土地が０円",https://zero.estate/?p=59457,受付終了,140.5226111,35.635388899999995,
"茨城県小美玉市｜常磐道岩間ICから車で10分、合計約1800坪の山林、田畑地帯の4筆をまとめて０円",https://zero.estate/?p=59622,受付終了,140.3708779,36.2609585,
"栃木県大田原市｜JR野崎駅から車で約22分、ジョセフィンファーム近くにある陽当たり良好な土地が０円",https://zero.estate/?p=59466,受付終了,140.0729196,36.807432299999995,
"京都府伊根町｜泊海水浴場まで車で5分、閑静な別荘地にある土地が０円",https://zero.estate/?p=58808,受付終了,135.284361,35.7009837,
"長野県麻績村｜特別急行列車「しなの」の停車駅聖高原駅より車で10分の山林が０円",https://zero.estate/?p=59462,受付終了,138.0446111,36.4734167,
"北海道白老町｜白老漁港まで車で6分、周囲を木々に囲まれた閑静な住宅地の一角が０円",https://zero.estate/?p=58838,受付終了,141.3076705,42.5356104,
"愛知県弥富市｜近鉄弥富駅から車で10分、筏川横の周囲を田畑に囲まれた稲作耕作地が０円",https://zero.estate/?p=58812,一時停止,136.75478703891505,35.088720393196155,
"千葉県白子町｜剃金海水浴場近くのマンション「ダイアパレス白子第２」の一室が０円",https://zero.estate/?p=58773,受付終了,140.40137385333736,35.45181919720826,
"千葉県白子町｜南白亀川と海が一望できるマンション「ダイアパレス白子」の一室が０円",https://zero.estate/?p=58787,受付終了,140.402723,35.4507876,
"富山県黒部市｜北陸新幹線黒部宇奈月温泉駅から車で3分、農地を含む土地8筆と建物をまとめて０円",https://zero.estate/?p=56653,受付終了,137.4780715,36.8792205,
"和歌山県印南町｜阪和自動車道「御坊南IC」から車で6分、木造かわらぶきの平屋建一軒家と倉庫など合わせて０円",https://zero.estate/?p=57820,受付終了,135.187856,33.8693647,
"千葉県茂原市｜JR本納駅から車で12分、九十九里浜や白子海岸の近くにある土地が０円",https://zero.estate/?p=58616,受付終了,140.35038889999998,35.4679444,
"宮城県白石市｜JR貝田駅から徒歩15分、周辺は懐かしい街並みで通勤・通学にも便利な2階建一軒家が０円",https://zero.estate/?p=57448,受付終了,140.591156,37.91531570000001,
"岐阜県岐阜市｜JR那加駅から車で14分、資材置き場等にも活用できる山沿いの土地が０円",https://zero.estate/?p=58261,受付終了,136.8330278,35.4341667,
"茨城県北茨城市｜常磐自動車道北茨城ICより車で10分、磯原海岸が車で15分圏内の土地が０円",https://zero.estate/?p=58211,受付終了,140.6908611,36.7889167,
"広島県広島市｜山林・保安林等、合計10,684㎡の土地10筆をまとめて０円",https://zero.estate/?p=57035,受付終了,132.60075899377452,34.42083485559767,
"茨城県日立市｜JR十王駅から車で6分、山部小学校近くにある手付かずの山林が０円",https://zero.estate/?p=57541,受付終了,140.6697222,36.696111099999996,
"福岡県みやま市｜JR瀬高駅から車で8分、矢部川近くの住宅地にある土地が０円",https://zero.estate/?p=57663,受付終了,130.46425,33.156833299999995,
"佐賀県大町町｜JR大町駅から徒歩12分、大町町民グラウンドそばの2階建一軒家が０円",https://zero.estate/?p=57194,受付終了,130.11309839999998,33.2152211,
"静岡県伊東市｜JR宇佐美駅から車で11分、みのりの村別荘地の土地2筆が０円",https://zero.estate/?p=57668,受付終了,139.0584573,34.9940514,
"群馬県嬬恋村｜中軽井沢駅から車で28分、森の暮らしを楽しめる北軽井沢あやめヶ原別荘地の土地が０円",https://zero.estate/?p=57554,受付終了,138.56025,36.4532778,
"千葉県山武市｜JR成東駅から車で7分、周辺に森や田畑が広がるのどかな土地が０円",https://zero.estate/?p=57631,受付終了,140.40266670000003,35.6203889,
"千葉県香取市｜JR佐原駅から車で19分、森の中に広がる畑付近の土地が０円",https://zero.estate/?p=57625,受付終了,140.4878889,35.83483329999999,
"千葉県八街市｜JR八街駅から車で10分、市中心部へのアクセス良好な土地が０円",https://zero.estate/?p=57536,受付終了,140.3005,35.644666699999995,
"兵庫県姫路市｜JR御着駅から車で6分、歴史を感じる古墳の町・四郷町にある住宅地の土地が０円",https://zero.estate/?p=57560,取引中止,134.7202778,34.8148056,
"栃木県日光市｜日光駅から車で6分、数多くのホテルやペンションが近隣にある観光地の土地が０円",https://zero.estate/?p=57039,受付終了,139.6137222,36.766388899999995,
"徳島県鳴門市｜大塚国際美術館や鳴門公園もほど近い、タイムシェアリゾート「ふるさと君渦潮編」１週間分が０円",https://zero.estate/?p=57185,受付終了,134.624309,34.197637,
"石川県志賀町｜のと里山海道西山ICから車で9分、温泉付きの別荘地「能登温泉健康村」の一区画が０円",https://zero.estate/?p=57198,受付終了,136.7643333,37.0173333,
"静岡県島田市｜大井川鐵道家山駅から車で4分、大井川近くにある「あずなんの郷」別荘地の土地建物が０円",https://zero.estate/?p=56756,受付終了,138.0873468,34.943520899999996,
"福岡県北九州市｜JR九州工大前から車で5分、北九州高速2号線からのアクセスも良好な土地が０円",https://zero.estate/?p=56877,受付終了,130.8548401,33.8937142,
"栃木県那須塩原市｜JR黒磯駅から車で9分、那須カントリークラブにほど近い土地が０円",https://zero.estate/?p=57060,受付終了,140.0946226932367,36.97365594778526,
"三重県伊賀市｜JR新堂駅から車で12分、緑豊かで静かな住宅地にある土地が０円",https://zero.estate/?p=56872,受付終了,136.2323333,34.7815278,
"栃木県那須町｜JR黒田原駅から車で8分、芦野温泉にほど近い山林が０円",https://zero.estate/?p=56803,受付終了,140.1441111,36.9966389,
"千葉県館山市｜JR館山駅から車で18分、アロハガーデンたてやま近くの土地建物が０円",https://zero.estate/?p=56782,受付終了,139.833299,34.9339278,
"新潟県湯沢町｜苗場スキー場そばのリゾートマンション「ダイアパレス苗場」13階一室が０円",https://zero.estate/?p=56767,受付終了,138.791006,36.791314,
"新潟県湯沢町｜苗場スキー場が徒歩圏内のリゾートマンション「ダイアパレス苗場」12階一室が０円",https://zero.estate/?p=56774,受付終了,138.791006,36.791314,
"北海道石狩市｜JR篠路駅から車で10分、イオン・コストコも近い森の一角にある手付かずの土地が０円",https://zero.estate/?p=56350,受付終了,141.3225906,43.1609161,
"兵庫県豊岡市｜静かな山間にある小さな村の山林・合計約22,000㎡をまとめて０円",https://zero.estate/?p=56336,受付終了,134.9620490671666,35.51447457638372,
"群馬県嬬恋村｜JR万座・鹿沢口駅から車で19分、自然豊かな三井浅間高原別荘地の一区画が０円",https://zero.estate/?p=56062,取引中止,138.5563864,36.4547231,
"長野県諏訪市｜JR上諏訪駅から車で28分、山間の集落にある土間と蔵付き２階建一軒家が０円",https://zero.estate/?p=56034,受付終了,138.06425,35.978861099999996,
"茨城県日立市｜JR日立駅から車で9分、助川城跡公園近くの家庭菜園も楽しめる土地が０円",https://zero.estate/?p=52814,受付終了,140.6422633,36.5920882,
"石川県羽咋市｜JR羽咋駅から車で5分、徒歩圏内に道の駅やコンビニがある2階建一軒家が０円",https://zero.estate/?p=55546,受付終了,136.7784575,36.8851673,
"北海道小樽市｜JR小樽駅から車で7分、定期的に手入れのされている木造一軒家が建物のみ０円",https://zero.estate/?p=55912,募集中,140.9675032,43.2042053,
"青森県鶴田町｜JR陸奥鶴田駅まで徒歩10分、町中心部近くにある一戸建ての土地建物が０円",https://zero.estate/?p=55895,受付終了,140.4292633,40.755131,
"群馬県みなかみ町｜高齢者向けマンション「セーフティヴィラ」購入以来未入居の２階一室が０円",https://zero.estate/?p=55560,受付終了,138.982893,36.738645,
"北海道遠軽町｜JR遠軽駅から車で6分、町中心部にほど近い2階建一軒家・納屋・畜舎をまとめて０円",https://zero.estate/?p=55489,受付終了,143.50093099999998,44.075123,
"北海道小樽市｜札樽自動車道「朝里IC」から車で5分、海が見える眺望・日当たり良好な土地が０円",https://zero.estate/?p=52513,取引中止,141.05075,43.1610278,
"北海道美唄市｜JR美唄駅から車で6分、旧居酒屋の木造2階建店舗の建物のみ０円",https://zero.estate/?p=54891,取引中止,141.875899,43.313843,
"北海道美唄市｜JR美唄駅から車で6分、厨房設備付きの旧店舗と土地4筆が０円",https://zero.estate/?p=54876,募集中,141.875925,43.31373299999999,
"宮城県加美町｜JR西古川駅から車で20分、スーパーが徒歩圏内にある国道沿いの土地建物と畑が０円",https://zero.estate/?p=55200,受付終了,140.7790043,38.5750938,
"北海道美幌町｜JR美幌駅から車で5分、パイロット国道近くにある2階建一軒家と物置が０円",https://zero.estate/?p=55174,受付終了,144.10709458533734,43.821151027223834,
"愛媛県今治市｜JR伊予富田駅から車で7分、長山広場公園近くの住宅地にある土地建物が０円",https://zero.estate/?p=55148,受付終了,132.9906879,34.0283516,
"栃木県日光市｜JR日光線文挾駅より約1.8km、緑あふれる山林が０円",https://zero.estate/?p=55134,受付終了,139.73686110000003,36.64375,
"栃木県日光市｜東武日光線下小代駅より約900m、自然豊かな地域にある土地が０円",https://zero.estate/?p=55124,受付終了,139.7221667,36.6493056,
"千葉県白子町｜JR茂原駅から車で19分、徒歩圏内に白子町役場やコンビニがある土地が０円",https://zero.estate/?p=55036,受付終了,140.3780833,35.45469440000001,
"千葉県市川市｜京成本線京成中山駅から徒歩16分、生活にも便利な中山競馬場近くの土地建物が０円",https://zero.estate/?p=55029,受付終了,139.95380559999998,35.72425,
"広島県廿日市市｜中国縦貫自動車道 吉和ICから車で7分、自然豊かなリゾート地「吉和の里」の別荘地が０円",https://zero.estate/?p=54626,受付終了,132.1309722,34.4863056,
"山口県下関市｜中国自動車道「下関IC」から車で4分、関門橋からもほど近い高台の土地建物が０円",https://zero.estate/?p=54619,受付終了,130.94893730422177,33.96565546661533,
"徳島県鳴門市｜大塚国際美術館から車で6分、タイムシェアリゾート「ふるさと君渦潮編」１週間分が０円",https://zero.estate/?p=54807,受付終了,134.624309,34.197637,
"栃木県日光市｜野岩鉄道・東武鉄道 新藤原駅から車で3分、日光の別荘地「鬼怒川竜王苑」の土地が０円",https://zero.estate/?p=54611,受付終了,139.7340556,36.8575833,
"長崎県新上五島町｜祈りの島とも呼ばれる、自然あふれる五島列島にある土地建物が０円",https://zero.estate/?p=54643,受付終了,129.084331,32.891089,
"山口県下関市｜JR下関駅から車で7分、高台にあり市街地へのアクセスも良好な2階建一軒家が０円",https://zero.estate/?p=54667,受付終了,130.9374609,33.9608778,
"長野県軽井沢町 ｜旧あさま山荘まで２００メートル、別荘地レイクニュータウンの土地２筆が０円",https://zero.estate/?p=54663,受付終了,138.6211492,36.290334,
"新潟県湯沢町｜苗場スキー場が徒歩圏内のリゾートマンション「西武ヴイラ苗場３号館」の一室が０円",https://zero.estate/?p=54003,受付終了,138.79146000000003,36.791497,
"静岡県伊東市｜伊豆急行富戸駅から車で7分、都心から好アクセスのリゾート地・伊豆高原の土地が０円",https://zero.estate/?p=54604,受付終了,139.1167222,34.9035278,
"島根県浜田市｜JR浜田駅から車で4分、市中心部へのアクセス良好な土地と建物３棟をまとめて０円",https://zero.estate/?p=54046,受付終了,132.0782858,34.8953967,
"富山県南砺市｜JR福光駅から車で6分、2階建住宅と納屋・車庫・農業ハウスを土地建物まとめて０円",https://zero.estate/?p=53887,受付終了,136.8904587,36.5437188,
"愛知県半田市｜JR亀崎駅から徒歩12分、海が見える高台の傾斜地にある土地が０円",https://zero.estate/?p=53872,受付終了,136.968959,34.918473,
"広島県呉市｜JR呉駅から車で12分、新焼山トンネル近くの傾斜地にある土地が０円",https://zero.estate/?p=54142,受付終了,132.5464609,34.2868977,
"大分県杵築市｜大分県杵築市｜大分空港道路「杵築IC」から車で4分、緑豊かな山間の集落にある建物が０円",https://zero.estate/?p=54075,取引中止,131.5818056,33.4359167,
"大分県杵築市｜大分空港道路「杵築IC」から車で4分、周囲に田畑が広がるのどかな場所にある一軒家が０円",https://zero.estate/?p=54064,取引中止,131.5835335,33.4349021,
"北海道遠軽町｜森林が多く、四季を通じてアクティビティが楽しめる緑豊かな町にある土地が０円",https://zero.estate/?p=53928,受付終了,143.51716853894126,44.04024699277166,
"茨城県鉾田市｜鹿島臨海鉄道大洋駅から車で5分、周辺にのどかな風景が広がる土地が０円",https://zero.estate/?p=54182,受付終了,140.5852222,36.0909444,
"茨城県鉾田市｜鹿島臨海鉄道大洋駅から車で5分、ザ・ロイヤルゴルフクラブ近くの土地が０円",https://zero.estate/?p=54175,受付終了,140.5821667,36.0929444,
"茨城県鉾田市｜鹿島臨海鉄道大洋駅から車で4分、周辺に畑が広がる自然豊かな土地が０円",https://zero.estate/?p=54164,受付終了,140.5684444,36.1074722,
"茨城県鉾田市｜鹿島臨海鉄道 鹿島灘駅から車で3分、平成5年築の2階建一軒家と土地が０円",https://zero.estate/?p=54154,受付終了,140.5933315,36.0866588,
"山口県下関市｜JR小串駅から車で3分、白い砂浜と水平線が美しい小串海水浴場の近くにある土地が０円",https://zero.estate/?p=54082,受付終了,130.9246389,34.1646667,
"山梨県北杜市｜高原リゾートホテル「八ケ岳美術館ソサエティ」の会員権（区分所有）が０円",https://zero.estate/?p=53910,受付終了,138.382669,35.893046,
"山口県萩市｜JR越ヶ浜駅から車で4分、国指定天然記念物の海跡湖「明神池」近くにある2階建一軒家が０円",https://zero.estate/?p=53960,受付終了,131.4091566307719,34.44924712348276,
"新潟県湯沢町｜苗場スキー場が徒歩圏内のリゾートマンション「西武ヴィラ苗場６号館」３階一室が０円",https://zero.estate/?p=53532,受付終了,138.7910445949376,36.79247855068669,
"愛媛県伊方町｜四国の玄関口・三崎港から徒歩10分、温暖な佐多岬半島にある2階建一軒家が０円",https://zero.estate/?p=53004,受付終了,132.122103,33.3891147,
"高知県香南市｜香南かがみICから車で6分、閑静な住宅地にある宅地および原野をあわせて０円",https://zero.estate/?p=53617,受付終了,133.7576389,33.5689444,
"北海道小樽市｜JR南小樽駅から車で7分、小樽天狗山ロープウエイ・スキー場にほど近い平屋の建物のみ０円",https://zero.estate/?p=53570,取引中止,140.9890242,43.1668063,
"福岡県北九州市｜JR戸畑駅から車で6分、都島展望公園にほど近い高台の土地が０円",https://zero.estate/?p=53442,受付終了,130.8125129,33.8873871,
"新潟県湯沢町｜夏は避暑、冬はスキーで一年中楽しめるリゾートマンション「ダイアパレス苗場」７階一室が０円",https://zero.estate/?p=53624,受付終了,138.79162942774968,36.791172919827765,
"北海道美深町｜JR美深駅から徒歩6分、コンビニも徒歩圏内の木造2階建一軒家が建物のみ０円",https://zero.estate/?p=53418,受付終了,142.34822219999998,44.4796111,
"千葉県木更津市｜JR木更津駅から車で約5分、木更津市交通公園にほど近い住宅地にある土地が０円",https://zero.estate/?p=53049,受付終了,139.9208333,35.3895556,
"群馬県嬬恋村｜周辺にペンションやコテージも多く、木々に囲まれた自然豊かな別荘地が０円",https://zero.estate/?p=53354,受付終了,138.52525,36.4657222,
"北海道七飯町｜七飯藤城ICから車で約4分、周囲を木々に囲まれた土地が０円",https://zero.estate/?p=53344,受付終了,140.68941669999998,41.91719440000001,
"栃木県鹿沼市｜東武日光線「新鹿沼駅」から車で4分、周辺に公園やゴルフ場も多い土地が０円",https://zero.estate/?p=53363,受付終了,139.73236110000002,36.563611099999996,
"静岡県伊東市｜JR宇佐美駅より車で14分、みのりの村別荘地の土地一区画が０円",https://zero.estate/?p=48476,受付終了,139.05355559999998,34.9921389,
"東京都八王子市｜JR八王子駅から車で9分、森林浴が楽しめる小宮公園の近くにある土地が０円",https://zero.estate/?p=53024,受付終了,139.3426667,35.6704444,
"京都府和束町｜JR加茂駅から車で15分、緑まぶしい茶畑が周辺に広がる平屋の建物のみ０円",https://zero.estate/?p=53010,取引中止,135.9168099346797,34.81217399392129,
"東京都日野市｜京王線長沼駅から車で4分、線路沿いにある手付かずの山林が０円",https://zero.estate/?p=52528,受付終了,139.3648542760913,35.65179308361911,
"北海道釧路市｜JR釧路駅から車で10分、市街地へのアクセス良好な住宅地にある土地が０円",https://zero.estate/?p=52518,受付終了,144.3741111,42.969166699999995,
"山形県南陽市｜JR宮内駅より車で14分、自然豊かな山間地にある古民家風の建物が０円",https://zero.estate/?p=52374,受付終了,140.1662988,38.1472052,
"茨城県桜川市｜桜川筑西ICから車で約9分、アジア下館カントリー倶楽部近くの土地が０円",https://zero.estate/?p=52356,受付終了,140.0551667,36.3383056,
"千葉県香取市｜JR大戸駅より車で4分、コンビニやスーパーも徒歩圏内の土地が０円",https://zero.estate/?p=52439,受付終了,140.4685833,35.87805559999999,
"群馬県嬬恋村｜JR万座・鹿沢口駅より車で14分、周辺に観光スポットも多い避暑地にある土地が０円",https://zero.estate/?p=52425,受付終了,138.5562699,36.4612679,
"宮城県大崎市｜東北道古川ICから車で8分、家庭菜園が楽しめる畑や土地建物をまとめて０円",https://zero.estate/?p=52294,受付終了,140.9107805,38.5815693,
"広島県呉市｜JR安芸阿賀駅から車で7分、高台で日当たり良好な縁側のある2階建一軒家が０円",https://zero.estate/?p=52225,取引中止,132.5978032,34.2515555,
"山口県周南市｜JR櫛ケ浜駅から車で16分、海が見える粭島(すくもじま)の土地2筆が０円",https://zero.estate/?p=51860,受付終了,131.7580131584149,33.98063680068206,
"神奈川県大磯町｜JR大磯駅より車で6分、204㎡の山林と通路（持分9分の1）をまとめて０円",https://zero.estate/?p=52219,受付終了,139.3112487,35.3170331,
"静岡県焼津市｜大井川焼津藤枝スマートICから車で3分、アクセス良好な農地が０円",https://zero.estate/?p=51419,受付終了,138.25723315223055,34.81461261557439,
"宮城県大崎市｜伊達家ゆかりの旧有備館まで車で4分、五右衛門風呂付きの土地建物が０円",https://zero.estate/?p=51850,受付終了,140.8613173,38.6523557,
"長野県立科町｜長野県屈指の高原リゾート地、白樺湖近くの別荘地にある旧宿舎 (保養研修所)が建物のみ０円",https://zero.estate/?p=51469,受付終了,138.2493194,36.1048151,
"岩手県奥州市｜JR陸中折居駅から徒歩10分、周辺にのどかな田園風景が広がる２階建一軒家が０円",https://zero.estate/?p=51441,受付終了,141.1318345,39.094881199999996,
"神奈川県箱根町｜リゾートマンション「グランヴェール強羅B棟」の一室、うち持分１８分の１（２０日分）が０円",https://zero.estate/?p=51386,受付終了,139.03518539597044,35.248913515278325,
"三重県津市｜近鉄西青山駅から車で8分、関西の軽井沢とも言われる青山高原の土地が０円",https://zero.estate/?p=51111,受付終了,136.2726389,34.6603889,
"新潟県湯沢町｜苗場スキー場近くのリゾートマンション「西武ヴィラ苗場7号館」の最上階一室が０円",https://zero.estate/?p=51127,受付終了,138.7916703,36.7925686,
"静岡県伊東市｜伊豆急行南伊東駅から車で7分、高台にある見晴らしのよい土地が０円",https://zero.estate/?p=51119,受付終了,139.0924444,34.94180559999999,
"北海道小樽市｜JR南小樽駅から徒歩13分、二軒長屋が一軒にリフォームされた戸建てが土地建物０円",https://zero.estate/?p=50329,受付終了,141.0031217,43.1800576,
"愛知県東浦町｜JR東浦駅まで徒歩12分、車庫・納屋付きの一軒家が０円",https://zero.estate/?p=50148,受付終了,136.9536653,34.9485881,
"北海道小樽市｜JR小樽築港駅から車で5分、市立桜町中学校裏手にある土地が０円",https://zero.estate/?p=49884,受付終了,141.02849999999998,43.173166699999996,
"新潟県長岡市｜JR小千谷駅まで車で約30分、渋海川そばの土地建物が０円",https://zero.estate/?p=49885,受付終了,138.7076051,37.266828,
"新潟県柏崎市｜JR柏崎駅から徒歩9分、スーパーやコンビニも徒歩圏内の物件が０円",https://zero.estate/?p=49684,取引中止,138.558247,37.358783,
"山梨県鳴沢村｜京王富士スバル高原別荘地第二次にある土地一区画が０円",https://zero.estate/?p=49883,受付終了,138.7030881,35.4563543,
"岩手県奥州市｜JR前沢駅より車で10分、田畑に囲まれた風情ある土地建物が０円",https://zero.estate/?p=49683,受付終了,141.0787363,39.0810939,
"北海道足寄町｜国道沿いにある2400㎡の土地と、約700坪の旧パチンコ店建物をあわせて０円",https://zero.estate/?p=48976,受付終了,143.5444188152423,43.23336977913793,
"神奈川県伊勢原市｜小田急鶴巻温泉駅まで車で12分、周辺にみかん農園も多い土地が0円",https://zero.estate/?p=49746,受付終了,139.28074999999998,35.4079444,
"神奈川県伊勢原市｜小田急伊勢原駅から車で16分、新東名高速ICも近い土地が０円",https://zero.estate/?p=49637,受付終了,139.29175,35.423944399999996,
"香川県坂出市｜JR坂出駅まで徒歩16分、市の中心部へもアクセス良好な物件が０円",https://zero.estate/?p=49606,受付終了,133.8465251,34.3148655,
"秋田県鹿角市｜JR鹿角花輪駅から車で5分、スキー場にも近い2階建て一軒家と小屋2軒が０円",https://zero.estate/?p=49489,受付終了,140.78281719999998,40.1776016,
"長野県佐久市｜北陸新幹線佐久平駅より車で19分「うぐいすの森別荘地」の土地一区画が０円",https://zero.estate/?p=49033,受付終了,138.4050299,36.2341945,
"青森県五戸町｜JR八戸駅から車で21分、自然豊かな庭付き平屋住宅が０円",https://zero.estate/?p=48871,受付終了,141.3083928,40.51816,
"兵庫県佐用町｜JR三日月駅まで徒歩約4分、家屋２棟と納屋・畑をまとめて０円",https://zero.estate/?p=49040,受付終了,134.4336185,34.9873965,
"福井県勝山市｜えちぜん鉄道越前竹原駅より車で5分、九頭竜川にほど近いのどかな一軒家が０円",https://zero.estate/?p=48622,受付終了,136.4169365,36.0857182,
"広島県三原市｜三原久井ICまで車で4分、田畑に囲まれた平屋建住宅および農地・山林が０円",https://zero.estate/?p=48491,受付終了,133.0675939,34.470445,
"山口県長門市｜JR人丸駅から徒歩1分、スーパーなども徒歩圏内の一軒家が０円",https://zero.estate/?p=48180,受付終了,131.05866670000003,34.3738333,
"鳥取県江府町｜JR武庫駅より車で7分、閑静な住宅地の道路沿いにある土地が０円",https://zero.estate/?p=48008,受付終了,133.5176589,35.267261,
"新潟県長岡市｜JR分水駅より車で13分、マンション野積の里の３階一室が０円",https://zero.estate/?p=47918,受付終了,138.782054,37.66876,
"新潟県湯沢町｜リゾートマンション「西武ヴィラ苗場クリスタル一号館」の一室が０円",https://zero.estate/?p=42684,受付終了,138.8056817,36.7827744,
"島根県浜田市｜JR浜田駅まで車で6分、浜田城や日本海までほど近い物件が０円",https://zero.estate/?p=48089,受付終了,132.0762222,34.903999999999996,
"栃木県真岡市｜JR石橋駅より車で19分、鬼怒川にほど近い古屋2棟と土地が０円",https://zero.estate/?p=48107,受付終了,139.9406667,36.4086944,
"茨城県鉾田市｜鹿島臨海鉄道新鉾田駅より車で8分、自動車工場すぐそばの土地が０円",https://zero.estate/?p=48106,受付終了,140.5514167,36.148416700000006,
"茨城県鉾田市｜鹿島臨海鉄道鹿島灘駅より車で8分、庭木に囲まれた土地が０円",https://zero.estate/?p=47445,受付終了,140.5732778,36.0810278,
"福岡県筑紫野市｜JR基山駅から車で15分、手つかずの桧が林立する原野が０円",https://zero.estate/?p=47934,受付終了,130.4895833,33.440638899999996,
"滋賀県高島市｜琵琶湖や箱館山スキー場などの近場にある山林が０円",https://zero.estate/?p=48007,受付終了,135.9647922,35.4504655,
"栃木県佐野市｜多田町にある農地など計２７筆、約１万９千平米の土地をまとめて０円",https://zero.estate/?p=47778,受付終了,139.59463383673707,36.38634120000001,
"栃木県日光市｜JR下野大沢駅より車で10分、周囲を木々に囲まれた分譲地が０円",https://zero.estate/?p=47146,受付終了,139.7778146,36.6903393,
"長崎県壱岐市｜壱岐商業高校まで徒歩約10分、庭や雑木林に囲まれた古民家が０円",https://zero.estate/?p=47147,受付終了,129.7153482,33.835221,
"静岡県伊豆の国市｜伊豆箱根鉄道伊豆長岡駅より車で6分、高台にある土地が０円",https://zero.estate/?p=47444,受付終了,138.9590278,35.03002779999999,
"静岡県静岡市｜静岡鉄道桜橋駅より車で12分、日本平さくら公園近くの山林が０円",https://zero.estate/?p=46609,受付終了,138.4836944,34.9771389,
"神奈川県海老名市｜JR社家駅より車で7分、道路沿いにある竹林が０円",https://zero.estate/?p=47145,受付終了,139.3936111,35.4146389,
"大阪府泉大津市｜泉大津駅より徒歩9分、生活に便利な場所にある土地建物が０円",https://zero.estate/?p=46974,受付終了,135.39961612835117,34.50203858830775,
"山梨県富士河口湖町｜富士ドクタービレッジ別荘地にある土地一区画が０円",https://zero.estate/?p=47012,受付終了,138.6440833,35.42041669999999,
"島根県松江市｜東松江駅より車で13分、長閑な住宅地にある土地建物が０円",https://zero.estate/?p=46472,受付終了,133.1039291,35.4124362,
"広島県尾道市｜JR尾道駅より車で16分、向島の高台に建つ一軒家が０円",https://zero.estate/?p=46973,受付終了,133.2336111,34.3945833,
"神奈川県逗子市｜JR逗子駅より車で10分、蘆花記念公園から徒歩圏内の山林が０円",https://zero.estate/?p=46608,受付終了,139.57475,35.284194400000004,
"群馬県嬬恋村｜浅間山の裾野にある「三井の森浅間高原別荘地」の土地一区画が０円",https://zero.estate/?p=46607,受付終了,138.55827779999998,36.452999999999996,
"群馬県長野原町｜JR羽根尾駅から車で18分、市街地から離れた山林が０円",https://zero.estate/?p=45773,受付終了,138.61075,36.522305599999996,
"長野県長野市｜JR長野駅まで車で約40分、温泉やキャンプ場にも近い一軒家が０円",https://zero.estate/?p=46064,受付終了,138.0507791912738,36.68296891100716,
"三重県伊賀市｜JR島ケ原駅より車で8分、雉子の里「清流台」の土地一区画が０円",https://zero.estate/?p=46314,募集中,136.050196,34.7610749,
"石川県加賀市｜JR加賀温泉駅より車で7分、片山津温泉近くにある山林が０円",https://zero.estate/?p=46063,受付終了,136.36121588640893,36.33306297988959,
"岩手県北上市｜JR村崎野駅まで徒歩14分、街中心部にあるアパートの一室が０円",https://zero.estate/?p=45765,受付終了,141.1174348,39.3183017,
"山口県防府市｜JR防府駅より車で18分、向島や海も近くにある山林が０円",https://zero.estate/?p=46062,受付終了,131.53747220000002,34.00616670000001,
"静岡県伊東市｜なだらかな丘陵地帯に広がる、イトーピア一碧別荘地内にある土地一区画が０円",https://zero.estate/?p=45827,取引中止,139.09961048815885,34.91492999876772,
"広島県尾道市｜新尾道駅まで車で6分程、長江中学校まで徒歩圏内にある農地が０円",https://zero.estate/?p=44054,募集中,133.1969645,34.42001235,
"愛媛県四国中央市｜JR伊予土居駅まで車で７分、漁港も近くにある一軒家が０円",https://zero.estate/?p=38458,受付終了,133.4161871,33.9759546,
"長野県軽井沢町｜JR軽井沢駅より車で16分、別荘地レイクニュータウン内の土地が０円",https://zero.estate/?p=43944,募集中,138.6170833,36.2869167,
"京都府伊根町｜海水浴場も徒歩圏内、伊根温泉リゾートにある土地一区画が０円",https://zero.estate/?p=45757,受付終了,135.2848889,35.702666699999995,
"茨城県つくばみらい市｜TXみらい平駅より車で8分、ゴルフ場も間近にある一軒家が０円",https://zero.estate/?p=45451,受付終了,140.0602863,35.9793079,
"静岡県函南町｜韮山峠ICより車で10分、南箱根ダイヤランド別荘地内の土地一区画が０円",https://zero.estate/?p=45452,受付終了,139.01511109999998,35.08225,
"神奈川県藤沢市｜小田急電鉄湘南台駅から車で5分、市街地にも近い土地が０円",https://zero.estate/?p=44640,受付終了,139.47305559999998,35.405333299999995,
"兵庫県豊岡市｜野生のコウノトリの生息地、豊岡市にある農地6,000平米をまとめて０円",https://zero.estate/?p=16198,受付終了,134.974922415254,35.50552778023572,
"北海道名寄市｜JR名寄駅まで徒歩12分、駅裏手の角地にある一軒家が０円",https://zero.estate/?p=45090,受付終了,142.46774499999998,44.348639000000006,
"千葉県白子町｜九十九里浜まで車で12分、閑静な場所にある土地が０円",https://zero.estate/?p=45075,受付終了,140.3509246,35.4494772,
"岡山県津山市｜JR津山駅より徒歩7分、吉井川沿いにある四軒長屋のうち一軒と裏の隣地建物をまとめて０円",https://zero.estate/?p=45084,受付終了,134.0045699,35.0578949,
"千葉県鴨川市｜JR安房鴨川駅から車で30分、大山千枚田近くにある閑静なログハウスが土地建物０円",https://zero.estate/?p=44407,受付終了,139.95831064786546,35.125312800756795,
"福井県福井市｜えちぜん鉄道福井口駅から徒歩1分、駅前にある店舗兼住宅が０円",https://zero.estate/?p=43929,受付終了,136.2322993,36.0712183,
"栃木県那須塩原市｜那須ガーデンアウトレットまで徒歩10分の裏手にある山林が０円",https://zero.estate/?p=44639,受付終了,139.9954722,36.9684444,
"栃木県那須塩原市｜黒磯板室ICより車で18分、ゴルフ場や温泉も近い山林が０円",https://zero.estate/?p=43658,受付終了,139.9421944,36.95197220000001,
"滋賀県長浜市｜市立朝日小学校グラウンドのそばにある土地建物が０円",https://zero.estate/?p=44406,募集中,136.2120238,35.4450349,
"長野県佐久市｜北陸新幹線佐久平駅より車で15分、佐久高原の中にある「うぐいすの森別荘地」内の土地が０円",https://zero.estate/?p=44426,受付終了,138.39897801503577,36.231138880069665,
"北海道枝幸町｜旧歌登町立本幌別小中学校そばにある教職員住宅が建物のみ０円",https://zero.estate/?p=44055,取引中止,142.375,44.7648611,
"静岡県伊豆の国市｜ゴルフ場から車で１０分、四季折々の変化が楽しめる未利用の土地が０円",https://zero.estate/?p=43943,取引中止,138.9950556,35.061583299999995,
"神奈川県逗子市｜逗子マリーナオーナーズ・ワシントニヤ会の法人枠（４口）が０円",https://zero.estate/?p=44072,一時停止,,,参考資料参照
"新潟県村上市｜JR今川駅から徒歩１０秒、目の前に日本海が広がる一軒家が０円",https://zero.estate/?p=43723,受付終了,139.4682807,38.410645,
"宮城県蔵王町｜遠刈田温泉の別荘地「蔵王苑」にある土地建物が０円",https://zero.estate/?p=43573,受付終了,140.5841294,38.1168785,
"静岡県伊豆の国市｜伊豆箱根鉄道田京駅より車で4分、富士山を遠望する土地が０円",https://zero.estate/?p=43571,受付終了,138.9525833,35.021166699999995,
"長崎県五島市｜福江空港より車で13分、漁港そばの五島列島・福江島にある一軒家が０円",https://zero.estate/?p=43430,受付終了,128.8779444,32.6565833,
"宮城県栗原市｜JR瀬峰駅より車で3分、旧築館高等学校瀬峰校すぐそばの土地が０円",https://zero.estate/?p=43506,受付終了,141.0660039,38.6634713,
"東京都八王子市｜三井アウトレットパーク多摩南大沢から車で約10分、堀之内にある傾斜地が０円",https://zero.estate/?p=43657,受付終了,139.3740678,35.6371123,
"栃木県日光市｜JR文挟駅より車で7分、舗装された道路に挟まれた土地が０円",https://zero.estate/?p=43656,受付終了,139.72683329999998,36.656305599999996,
"群馬県嬬恋村｜JR大前駅より車で13分、豊富な緑に囲まれた土地が０円",https://zero.estate/?p=42569,受付終了,138.5615833,36.4830556,
"北海道当麻町｜JR伊香牛駅より車で4分、周囲を田んぼに囲まれた一軒家が０円",https://zero.estate/?p=43259,受付終了,142.5327968,43.8786759,
"北海道古平町｜JR余市駅より車で25分、古平漁港すぐ裏手にある元店舗兼住宅が０円",https://zero.estate/?p=43347,受付終了,140.6377221,43.2764975,
"栃木県日光市｜JR下野大沢駅まで車で12分、長閑な山裾に位置する土地が０円",https://zero.estate/?p=42539,受付終了,139.7814722,36.69044439999999,
"福島県泉崎村｜JR東北本線泉崎駅まで徒歩1分、駅前にある元店舗兼住宅が０円",https://zero.estate/?p=42546,受付終了,140.2950432281107,37.15760979301031,
"新潟県湯沢町｜苗場スキー場近くのマンション「西武ヴィラ苗場9号館」の１０階一室が０円",https://zero.estate/?p=39181,受付終了,138.7887808,36.7926904,
"静岡県富士市｜JR富士川駅まで徒歩6分、東海道新幹線沿線近くの旧直売所物件が０円",https://zero.estate/?p=42545,受付終了,138.61607235807935,35.13583329508135,
"静岡県下田市｜須崎港から徒歩圏内、海のアクティビティに便利な旧旅館の土地建物が０円",https://zero.estate/?p=42265,受付終了,138.9668327,34.6572075,
"静岡県西伊豆町｜大浜海水浴場まで車で12分、海・山へもアクセス良好な固定資産税もかからない土地が０円",https://zero.estate/?p=41966,受付終了,138.781722,34.7847253,
"青森県鶴田町｜JR陸奥鶴田駅まで徒歩10分、町中心部近くの土地建物が０円",https://zero.estate/?p=42407,受付終了,140.4292633,40.755131,
"栃木県日光市｜大沢ICまで車で4分、道路沿いにある木々の茂る土地が０円",https://zero.estate/?p=42568,受付終了,139.7685,36.6963333,
"栃木県高根沢町｜JR宝積寺駅から車で7分、草木が生い茂る古屋付き土地が０円",https://zero.estate/?p=42567,受付終了,139.9783348,36.607845399999995,
"栃木県那須塩原市｜JR那須塩原駅まで車で21分、間口が広めの山林が０円",https://zero.estate/?p=42192,受付終了,139.9601944,36.9973889,
"長野県茅野市｜別荘地「蓼科ビレッジ」にある１ＬＤＫウッドデッキ付建物が０円",https://zero.estate/?p=42213,受付終了,138.3028781,36.0449052,
"静岡県伊豆市｜中伊豆スカイランド別荘地内にある、木々に囲まれた一軒家が０円",https://zero.estate/?p=42090,受付終了,139.0195833,34.928250000000006,
"群馬県嬬恋村｜奥軽井沢郷別荘地にある、周囲を木々に囲まれた土地が０円",https://zero.estate/?p=42191,受付終了,138.56225,36.46,
"群馬県草津町｜草津温泉湯畑から徒歩圏内、笹薮の向こうにある建物付き土地が０円",https://zero.estate/?p=42190,受付終了,138.597284,36.6256531,
"神奈川県逗子市｜JR逗子駅より徒歩15分、擁壁に囲まれた土地が０円",https://zero.estate/?p=41067,受付終了,139.5837778,35.303,
"長野県長和町｜蓼科山が見える、森の中にたたずむロッジ風別荘が０円",https://zero.estate/?p=42089,受付終了,138.2214106,36.1198568,
"新潟県上越市｜JR柿崎駅より徒歩12分、海岸まで徒歩圏内の県道沿いにある土地が０円",https://zero.estate/?p=41163,受付終了,138.3825,37.2723611,
"北海道小樽市｜小樽港まで徒歩10分、小樽中心市街地へも寄りやすい土地建物が０円",https://zero.estate/?p=41063,受付終了,140.9944167,43.2083611,
"新潟県加茂市｜加茂市役所まで車で６分、周囲を空き地に囲まれた土地３筆が０円",https://zero.estate/?p=39741,取引中止,139.0328611,37.682611099999995,
"新潟県加茂市｜JR加茂駅から車で5分、加茂中学校近くの住宅地にある土地が０円",https://zero.estate/?p=39740,受付終了,139.0571829,37.6677666,
"北海道深川市｜カムイスキーリンクスの麓にある道道4号線沿いの土地建物が０円",https://zero.estate/?p=40633,受付終了,142.175088,43.6875142,
"秋田県湯沢市｜JR湯沢駅から車で3分、市内中心部へも行き来しやすい家屋解体済み土地が０円",https://zero.estate/?p=41081,受付終了,140.4795,39.168111100000004,
"秋田県能代市｜JR能代駅まで徒歩9分、市の中心部へもアクセス良好な一軒家が土地建物０円",https://zero.estate/?p=41064,取引中止,140.025728,40.2061895,
"北海道奈井江町｜JR奈井江駅まで車で3分、閑静な住宅地にある一軒家が０円",https://zero.estate/?p=41065,受付終了,141.8973243,43.4256219,
"宮崎県川南町｜JR川南駅まで車で2分、町役場近くの海岸沿いにある農地が０円",https://zero.estate/?p=40665,受付終了,131.5501741,32.1783528,
"新潟県上越市｜JR高田駅より車で6分、金谷山スキー場近くの倉庫付き土地が０円",https://zero.estate/?p=40669,受付終了,138.22908329999999,37.108444399999996,
"栃木県日光市｜東武鉄道下小代駅より車で4分、JR日光線沿線にある土地が０円",https://zero.estate/?p=41066,受付終了,139.7226389,36.6537778,
"静岡県伊豆市｜伊豆スカイラインカントリー倶楽部に隣接した、別荘地内の土地が０円",https://zero.estate/?p=39674,受付終了,139.0334167,34.985222199999995,
"大阪府和泉市｜JR信太山駅より車で6分、惣ヶ池公園そばの住宅街にある一軒家が土地建物０円",https://zero.estate/?p=40632,受付終了,135.4454081,34.4971026,
"群馬県嬬恋村｜北軽井沢の別荘地「プリンスランド 鳥の街」内にある土地建物が０円",https://zero.estate/?p=40519,取引中止,138.5342579,36.4664871,
"栃木県那須塩原市｜野岩鉄道「上三依塩原温泉口」まで車で13分、別荘地内の物件が０円",https://zero.estate/?p=40518,受付終了,139.7789444,36.981500000000004,
"大阪府大阪市｜阪神電鉄伝法駅より徒歩6分、淀川そば線路沿いの此花区内にある土地が０円",https://zero.estate/?p=39742,受付終了,135.4532222,34.687638899999996,
"秋田県八峰町｜JR沢目駅より徒歩10分、周囲にのどかな風景が広がる一軒家が０円",https://zero.estate/?p=38637,募集中,140.040553,40.3016503,
"徳島県阿南市｜JR新野駅より徒歩7分、周囲を田畑に囲まれた平成元年築建物と土地が０円",https://zero.estate/?p=39761,受付終了,134.59796369999998,33.84849299999999,
"兵庫県姫路市｜山陽電鉄白浜の宮駅より徒歩3分、白浜海水浴場も近い平屋建て一軒家が０円",https://zero.estate/?p=39598,受付終了,134.7077945,34.7855482,
"北海道栗山町｜JR栗山駅から徒歩１分、生活に便利な施設が徒歩圏内にある線路沿いの土地建物が０円",https://zero.estate/?p=39588,受付終了,141.775276,43.0599789,
"茨城県かすみがうら市｜JR神立駅から車で10分、樹木に囲まれた土地が０円",https://zero.estate/?p=37888,受付終了,140.2823889,36.1003056,
"群馬県みなかみ町｜高齢者向けマンション「セーフティヴィラ」の５階一室が０円",https://zero.estate/?p=37976,受付終了,138.978746,36.738351,
"滋賀県高島市｜JR安曇川駅より車で7分、琵琶湖の西岸に位置する管理された土地が０円",https://zero.estate/?p=38172,受付終了,136.039775,35.3336072,
"北海道小樽市｜JR南小樽駅から車で5分、倒壊家屋２軒が残る土地７００平米が０円",https://zero.estate/?p=38641,受付終了,140.9965645,43.1843098,
"奈良県三郷町｜王寺駅より徒歩１５分、石垣の上にある家屋解体済みの更地が０円",https://zero.estate/?p=38716,受付終了,135.68632382924378,34.59733399877882,
"香川県三木町｜高松琴平電鉄・平木駅より徒歩2分の駅近物件と、近郊にある山林・約40000平米が０円",https://zero.estate/?p=38638,受付終了,134.1306641,34.2713147,
"埼玉県飯能市｜西武鉄道飯能駅より車で15分、日当り良好な傾斜地にある市街化調整区域内の農地が０円",https://zero.estate/?p=38717,募集中,139.2640556,35.872111100000005,
"新潟県三条市｜上越新幹線・燕三条駅より車で12分、高速ICも近い好立地の物件が０円",https://zero.estate/?p=38640,受付終了,138.9483809,37.612006,
"北海道美深町｜国道４０号線沿い、名寄美深道路の出入口付近にある7LDK一軒家が０円",https://zero.estate/?p=38137,受付終了,142.3355906,44.5015927,
"北海道旭川市｜豊岡エリアの分譲マンション「旭コーポラス」３階一室が０円",https://zero.estate/?p=37938,受付終了,142.4065807,43.7586445,
"兵庫県佐用町｜JR作用駅まで車で5分、長閑な田園風景を臨む風情ある古民家が０円",https://zero.estate/?p=37961,取引中止,134.3590212,35.0153103,
"北海道奈井江町｜奈井江商業高校そば、町中心地へアクセス良好な一戸建てが土地建物０円",https://zero.estate/?p=37970,受付終了,141.8824596,43.4177498,
"岐阜県高山市｜御嶽山のふもと、丸美リゾート飛騨秋神高原別荘地の一区画が０円",https://zero.estate/?p=37924,受付終了,137.36597049999997,36.0004263,
"山口県宇部市｜JR宇部新川駅より車で10分、木々に囲まれた廃屋のある土地が０円",https://zero.estate/?p=38160,受付終了,131.2624657,33.9752916,
"山形県長井市｜山形鉄道長井駅から徒歩16分、全１３室のアパート１棟がまるごと０円",https://zero.estate/?p=38124,受付終了,140.0251961,38.1107132,
"新潟県湯沢町｜リゾートマンション「西武ヴィラ苗場5号館」最上階の一室が０円",https://zero.estate/?p=37733,受付終了,138.789157,36.7912694,
"宮崎県串間市｜一里崎浜まで車で5分、サーフィンの拠点としても活用できる物件が０円",https://zero.estate/?p=37523,受付終了,131.2537145,31.4268476,
"愛媛県西予市｜JR近永駅より車で36分、緑豊かな山間の集落にある土地建物が０円",https://zero.estate/?p=37524,受付終了,132.70179059999998,33.3752137,
"福岡県北九州市｜JR黒崎駅より車で5分、閑静な住宅街の中にある家屋解体済み土地が０円",https://zero.estate/?p=37756,受付終了,130.7738889,33.8691944,
"新潟県阿賀野市｜JR水原駅より車で10分、温泉付き別荘地「真光寺ヴィレッジ」にある土地が０円",https://zero.estate/?p=37209,受付終了,139.2558329,37.8294885,
"栃木県日光市｜日数所有型マンション「鬼怒川アーバンコンフォート」の一室が０円",https://zero.estate/?p=35546,受付終了,139.7097661,36.8172014,
"茨城県河内町｜JR滑河駅より車で11分、田園風景広がる見晴らしのよい土地が０円",https://zero.estate/?p=36777,受付終了,140.3082565,35.8838556,
"栃木県日光市｜JR下野大沢駅まで車で10分、緑豊かな新栄郷別荘地内の土地が０円",https://zero.estate/?p=36769,受付終了,139.7660556,36.7090556,
"岐阜県大垣市｜JR大垣駅まで車で5分、大垣城下町が徒歩圏内にある土地建物が０円",https://zero.estate/?p=37201,受付終了,136.6188472,35.3566146,
"北海道根室市｜JR根室駅まで２０メートル、駅前ロータリー内にある旧食堂の店舗兼住宅が０円",https://zero.estate/?p=37180,受付終了,145.58227879999998,43.3273466,
"新潟県燕市｜JR吉田駅から徒歩2分、駅前にある旧スーパー店舗の土地建物と駐車場用地２ヶ所をあわせて０円",https://zero.estate/?p=36873,受付終了,138.8221658,37.6800005,
"山形県南陽市｜山形鉄道宮内駅まで車で4分、スーパーなども徒歩圏内の一軒家が０円",https://zero.estate/?p=35542,取引中止,140.1420998,38.0771765,
"北海道三笠市｜市役所徒歩圏内、三笠高校の裏手にある一軒家が土地建物０円",https://zero.estate/?p=36856,受付終了,141.8802213,43.2493262,
"北海道室蘭市｜JR鷲別駅より車で8分、室蘭工業大学すぐそばの一軒家が０円",https://zero.estate/?p=35543,受付終了,141.028927,42.3798466,
"広島県広島市｜ゴルフ場やキャンプ場からほど近い、佐伯区内にある緑豊かな土地が０円",https://zero.estate/?p=36318,受付終了,132.2931389,34.4214722,
"千葉県匝瑳市｜九十九里浜に車で13分、吉崎浜に徒歩18分と海に囲まれた建物付土地が０円",https://zero.estate/?p=36776,受付終了,140.61983329999998,35.6751389,
"千葉県白子町｜白子ICから車で6分、海水浴場にもアクセスしやすい土地が０円",https://zero.estate/?p=34443,受付終了,140.3870833,35.441972199999995,
"栃木県日光市｜第二杉の木台分譲地内にある整地された土地が０円",https://zero.estate/?p=36166,受付終了,139.74145049999998,36.7311522,
"兵庫県加東市｜周辺ゴルフ場まで車で10分圏内、木々に囲まれた古い一軒家が０円",https://zero.estate/?p=34379,取引中止,135.06083329999998,34.9254167,
"広島県尾道市｜石見銀山街道から近い、元ミカン畑の自然豊かな土地を2筆まとめて０円",https://zero.estate/?p=36187,受付終了,133.1968889,34.423944399999996,
"徳島県吉野川市｜JR鴨島駅より徒歩6分、コンビニなども近くにある土地が０円",https://zero.estate/?p=36177,受付終了,134.36022219999998,34.0731944,
"兵庫県香美町｜景勝地「桑野本の大イチョウ」近くの山林と畑をまとめて０円",https://zero.estate/?p=35516,受付終了,134.6823061,35.5930743,
"山口県下関市｜生活に便利な大型スーパー真向かい、国道に面した海沿いにある高台の土地が０円",https://zero.estate/?p=35515,受付終了,130.98750167953725,33.9868718888849,
"広島県尾道市｜JR尾道駅から徒歩3分、繁華街にも近い好立地にある土地が０円",https://zero.estate/?p=33472,受付終了,133.1932778,34.40630559999999,
"新潟県湯沢町｜窓から苗場山を望むリゾートマンション「ノエル苗場」７階１ＬＤＫ一室が０円",https://zero.estate/?p=34381,受付終了,138.7930107,36.7889887,
"鹿児島県いちき串木野市｜JR串木野駅から車で8分、山間にある緑豊かな土地が０円",https://zero.estate/?p=35514,受付終了,130.2955831,31.7509266,
"茨城県鉾田市｜鹿島臨海鉄道北浦湖畔駅から車で5分、田園風景の中の原野が０円",https://zero.estate/?p=35502,受付終了,140.5519757,36.1186469,
"岐阜県可児市｜市街中心部にもアクセス良好な、管理の行き届いた土地をまとめて０円",https://zero.estate/?p=34400,受付終了,137.0151626,35.4289139,
"福島県福島市｜JR金谷川駅から車で6分、豊富な緑に囲まれた土地が０円",https://zero.estate/?p=33538,受付終了,140.4269756,37.6775127,
"富山県小矢部市｜田園風景が広がるのどかな立地の家屋、農地がまとめて０円",https://zero.estate/?p=34276,受付終了,136.7892928,36.622356599999996,
"新潟県湯沢町｜苗場スキー場徒歩圏内、リゾートマンション「西武ヴィラ苗場６号館」３階一室が０円",https://zero.estate/?p=26089,受付終了,138.7907905,36.7922397,
"大分県津久見市｜津久見ICから車で6分、徒歩圏内に海が見える港町にある土地が０円",https://zero.estate/?p=34298,受付終了,131.8553825,33.0916166,
"岡山県真庭市｜蒜山高原の米子自動車道蒜山ICから車で10分、管理された別荘地の土地が０円",https://zero.estate/?p=33675,受付終了,133.6232222,35.2965,
"長野県駒ヶ根市｜JR駒ヶ根駅まで徒歩4分、市中心部へのアクセス良好な物件が０円",https://zero.estate/?p=34263,受付終了,137.9376357,35.7351688,
"栃木県那須塩原市｜JR高久駅より車で9分、キャンプ場も近い緑豊かな土地が０円",https://zero.estate/?p=34425,受付終了,140.0943456,36.9741793,
"静岡県熱海市｜海が見える見晴らしの良い高台に建つ温泉付きマンションが０円",https://zero.estate/?p=34428,受付終了,139.0977375,35.0375231,
"静岡県伊東市｜高台に建つ見晴らしの良い温泉付き別荘地にある土地建物が０円",https://zero.estate/?p=34235,受付終了,139.0842451,34.870304,
"香川県善通寺市｜JR善通寺駅から車で5分、生活に便利な立地にある一軒家が０円",https://zero.estate/?p=33701,受付終了,133.7771467,34.224313599999995,
"福島県只見町｜玄関先から浅草岳が見える、温泉・スキー場からも近場の一軒家が０円",https://zero.estate/?p=33495,受付終了,139.3861391208187,37.302762137059695,
"長野県小諸市｜小諸ICから車で7分、旧北国街道からすぐの3箇所にある農地が０円",https://zero.estate/?p=33548,受付終了,138.38308329999998,36.3421111,
"長野県信濃町｜スキー場や湖に近い高台にある木造平屋建ての物件が０円",https://zero.estate/?p=33032,受付終了,138.1698889,36.83524999999999,
"北海道木古内町｜JR木古内駅から車で8分、津軽海峡が眼前に広がる一軒家が０円",https://zero.estate/?p=33685,受付終了,140.4655851,41.6973446,
"岐阜県養老町｜名神高速道路に近い、閑静な住宅街にある一軒家が０円",https://zero.estate/?p=33454,受付終了,136.557873,35.3185927,
"三重県伊賀市｜島ヶ原カントリークラブの近くに位置する清流台住宅団地１区画の土地が０円",https://zero.estate/?p=32746,受付終了,136.0520833,34.758861100000004,
"長野県飯綱町｜JR豊野駅から車で13分、閑静な住宅地にある土地１区画が０円",https://zero.estate/?p=33517,受付終了,138.2521667,36.7403889,
"東京都八王子市｜野猿街道沿い、野猿峠バス停近くの斜面に位置する土地が０円",https://zero.estate/?p=33510,取引中止,139.3629528,35.6330203,
"新潟県妙高市｜周囲に温泉やスキー場、ゴルフ場がある妙高ニューライフヴィレッジの別荘地が０円",https://zero.estate/?p=33468,受付終了,138.2036958041661,36.91868154089683,
"千葉県山武市｜草木に囲まれ、道路から高低差のない平坦な土地が０円",https://zero.estate/?p=32376,受付終了,140.4630278,35.6223333,
"神奈川県横浜市｜駅から近く、奈良しぜん緑地に隣接した調整区域の土地が０円",https://zero.estate/?p=33196,受付終了,139.4870556,35.5483056,
"静岡県伊豆の国市｜富士見ニュータウン内にある、温泉引き込みも可能な傾斜地が０円",https://zero.estate/?p=32581,募集中,138.98415131448607,35.05484798034508,
"兵庫県朝来市｜天空の城 竹田城跡近くの田園風景、周辺環境が整った旧宅と土地が０円",https://zero.estate/?p=33031,受付終了,134.8865734,35.3144187,
"北海道小樽市｜JR小樽駅まで車で8分、小樽運河も徒歩圏内にある一軒家の土地建物が０円",https://zero.estate/?p=32726,受付終了,140.9891944,43.2083333,
"北海道えりも町｜目の前には海が広がる静かな港町にある一軒家が０円",https://zero.estate/?p=32345,受付終了,143.160749,41.9976588,
"北海道比布町｜比布駅前通り沿い、元寿司店の店舗兼住宅が土地建物０円",https://zero.estate/?p=32548,受付終了,142.47552779999998,43.8745833,
"大分県日出町｜日出ICより車で5分、日出自然郷分譲地内の山林が０円",https://zero.estate/?p=32744,受付終了,131.5416122,33.391034,
"北海道比布町｜比布町役場まで車で3分、町道に面した田園地帯の中にある土地が０円",https://zero.estate/?p=32743,受付終了,142.4881016,43.8681136,
"北海道当麻町｜JR当麻駅まで車で3分、閑静な住宅街の角地にある土地が０円",https://zero.estate/?p=32745,受付終了,142.5230299,43.8267472,
"栃木県鹿沼市｜東武線新鹿沼駅まで車で8分、新興住宅地内にある土地が０円",https://zero.estate/?p=32569,受付終了,139.7259988,36.5637886,
"群馬県嬬恋村｜大型別荘地「浅間ハイランド別荘地」内にある土地が０円",https://zero.estate/?p=32576,受付終了,138.5238498,36.4698501,
"静岡県伊東市｜伊豆急行伊豆高原駅から車で16分、海を遠望できる別荘地が０円",https://zero.estate/?p=32365,募集中,139.0811111,34.87136110000001,
"北海道赤平市｜JR赤平駅から徒歩6分、国道沿いの生活に便利な立地にある旧店舗兼住宅が０円",https://zero.estate/?p=32476,受付終了,142.0534442,43.5529508,
"北海道美唄市｜桜の名所・東明公園の入口周辺にある二戸一の炭鉱長屋のうち１戸分が建物のみ０円",https://zero.estate/?p=32333,受付終了,141.89830551548746,43.33637577913348,
"三重県津市｜青山高原保健休養地の徒歩圏内、山間にある別荘用の土地建物が０円",https://zero.estate/?p=32475,受付終了,136.2680554,34.6597322,
"岡山県浅口市｜JR鴨方駅から車で10分、長閑な田園風景の中にある古家つき土地が０円",https://zero.estate/?p=31594,受付終了,133.5590061,34.5427128,
"徳島県徳島市｜徳島市中央卸売市場そば、海にも近い一軒家が０円",https://zero.estate/?p=31907,受付終了,134.5939159,34.0678329,
"静岡県河津町｜伊豆急行今井浜海岸駅より徒歩7分、今井浜温泉近く家付の土地が０円",https://zero.estate/?p=32375,受付終了,139.0012867,34.7529403,
"福島県白河市｜JR白川駅より車で10分、周囲を山林に囲まれた土地が０円",https://zero.estate/?p=31434,受付終了,140.2316667,37.1388056,
"北海道増毛町｜日本海側の海のまち、信砂川の河口付近にある一戸建てが土地建物０円",https://zero.estate/?p=31687,受付終了,141.58852779999998,43.875944399999995,
"北海道当麻町｜JR当麻駅まで徒歩13分、閑静な住宅街にある一軒家が土地建物０円",https://zero.estate/?p=31131,受付終了,142.5201836,43.8254498,
"群馬県桐生市｜赤城神社まで車で10分、赤城山の麓にある山林が０円",https://zero.estate/?p=28405,受付終了,139.21958329999998,36.476388899999996,
"長崎県佐世保市｜JR日宇駅まで徒歩10分、中心街へもアクセス良好な土地が０円",https://zero.estate/?p=30999,受付終了,129.76345918535745,33.15918363531786,
"北海道旭川市｜伊ノ沢市民スキー場から車で4分、丘の上に建つ一軒家が０円",https://zero.estate/?p=31000,受付終了,142.3337206,43.741467,
"鳥取県伯耆町｜JR伯耆溝口駅より徒歩8分、溝口小学校近くの庭木付き家屋が０円",https://zero.estate/?p=31107,受付終了,133.4351921,35.3432534,
"静岡県伊東市｜伊豆高原駅より車で16分、相模湾を一望する「あかざわ恒陽台」古屋付き別荘地が０円",https://zero.estate/?p=30980,受付終了,139.0708612,34.8593599,
"静岡県伊豆の国市｜韮山反射炉から車で20分、富士見ニュータウン内の山林が０円",https://zero.estate/?p=30991,募集中,138.98036109999998,35.051694399999995,
"神奈川県横浜市｜横須賀スタジアムまで車で8分、階段の先にある高台の土地建物が０円",https://zero.estate/?p=31412,受付終了,139.6185159,35.3216642,
"静岡県熱海市｜JR湯河原駅まで車で5分、急こう配の坂の奥にある一軒家が０円",https://zero.estate/?p=30646,受付終了,139.0850556,35.13975,
"北海道深川市｜JR深川駅から車で2分、市街地に近く利便性も高い住宅が０円",https://zero.estate/?p=30746,受付終了,142.0474385,43.7095764,
"北海道夕張市｜JR新夕張駅まで車で13分、自然豊かな地域にある土地２区画が０円",https://zero.estate/?p=30329,受付終了,142.0110019,42.998272799999995,
"北海道岩見沢市｜陸上自衛隊岩見沢駐屯地近くの高台にある事務所兼住宅が０円",https://zero.estate/?p=30912,受付終了,141.79880060000002,43.21102330000001,
"北海道美唄市｜JR美唄駅まで徒歩10分、コンビニや病院も近くにある一軒家が０円",https://zero.estate/?p=30936,受付終了,141.8674646,43.3276952,
"神奈川県横浜市｜菜園などに活用可能な、JR本郷台駅近くの住宅地にある土地が０円",https://zero.estate/?p=30979,受付終了,139.5402632,35.3668465,
"北海道積丹町｜積丹半島突端の神威岬まで車で15分、緑に囲まれた隠れ家的民家が０円",https://zero.estate/?p=30585,受付終了,140.466968,43.3321397,
"大分県由布市｜自然豊かな湯平温泉街にある以前旅館だった2階建住宅が０円",https://zero.estate/?p=24817,受付終了,131.3237607,33.192806,
"群馬県嬬恋村｜都会の喧騒から離れた、寿の郷青山台別荘地内の平家戸建が土地建物０円",https://zero.estate/?p=30111,受付終了,138.52114294723046,36.48947748743429,
"神奈川県大磯町｜JR大磯駅から徒歩17分、海からも近い高台にある土地が０円",https://zero.estate/?p=30641,受付終了,139.3103611,35.3165,
"静岡県南伊豆町｜道の駅下賀茂温泉湯の花まで車で7分、温泉も引ける土地が０円",https://zero.estate/?p=30636,受付終了,138.8626195291914,34.64216669877812,
"静岡県伊豆の国市｜緑に囲まれた高原別荘地、富士見ニュータウンの土地を０円で譲渡",https://zero.estate/?p=29349,募集中,138.9856111,35.05480560000001,
"青森県八戸市｜JR本八戸駅より車で9分、さくら野百貨店も近い住宅地の建物が０円",https://zero.estate/?p=28382,受付終了,141.5012097,40.5081998,
"北海道登別市｜JR登別駅まで車で5分、登別伊達時代村近くの一軒家が０円",https://zero.estate/?p=29979,受付終了,141.16880559999998,42.4654167,
"栃木県那須町｜那須陽光ゴルフクラブ近くにある、自然豊かな土地が０円",https://zero.estate/?p=30096,受付終了,140.1435588,37.01884585,
"北海道釧路市｜たんちょう釧路空港より車で約30分、阿寒町の自然豊かな山林が０円",https://zero.estate/?p=30109,受付終了,144.1193655,43.2117616,
"岐阜県岐阜市｜JR那加駅より車で13分、ひな壇式住宅地にある眺望良好の土地が０円",https://zero.estate/?p=29350,受付終了,136.8456973,35.4414767,
"北海道妹背牛町｜妹背牛中学校まで徒歩3分、周囲に田園地帯が広がる一軒家が建物のみ０円",https://zero.estate/?p=29331,受付終了,141.9644778,43.6987906,
"北海道比布町｜街の中心部から徒歩圏内、閑静な住宅街にある土地建物が０円",https://zero.estate/?p=29608,受付終了,142.4722512,43.8700778,
"山口県防府市｜JR防府駅より徒歩15分、周辺も生活に便利な住宅地の土地建物が０円",https://zero.estate/?p=29417,受付終了,131.575032,34.047532,
"北海道上川町｜JR上川駅まで徒歩7分、大雪山や層雲峡温泉からも近い一軒家が０円",https://zero.estate/?p=29590,受付終了,142.7640561,43.8523054,
"北海道豊浦町｜洞爺湖温泉まで車で15分、旧寿司店兼住宅が土地建物０円",https://zero.estate/?p=29204,受付終了,140.7172111,42.5818844,
"北海道小樽市｜JR小樽駅まで車で10分、小樽港も散歩圏内の高台にある土地が０円",https://zero.estate/?p=29084,受付終了,140.9896689,43.21631266153644,
"静岡県熱海市｜長浜海浜公園から車で8分、近くに沢がある原野が０円",https://zero.estate/?p=28692,受付終了,139.0396402,35.0674849,
"愛媛県伊方町｜道の駅 瀬戸農業公園から車で10分、海岸も徒歩圏内の建物が０円",https://zero.estate/?p=29080,受付終了,132.2214539,33.4262263,
"神奈川県横浜市｜京急弘明寺駅まで徒歩15分の住宅地内にある一軒家が０円",https://zero.estate/?p=29209,受付終了,139.5884669,35.4214855,
"栃木県矢板市｜JR片岡駅より車で8分、近場にゴルフ場や温泉もある土地が０円",https://zero.estate/?p=27644,受付終了,139.91308329999998,36.75591670000001,
"北海道室蘭市｜JR室蘭駅まで車で10分、祝津ふ頭まで徒歩圏内の一軒家が０円",https://zero.estate/?p=27852,受付終了,140.9471353,42.3355909,
"北海道今金町｜今金小学校より徒歩10分、町の中心市街地にある土地建物が０円",https://zero.estate/?p=28679,受付終了,140.0123158,42.4257929,
"北海道士別市｜JR士別駅から車で6分、市街地から近い納屋付きの土地建物が０円",https://zero.estate/?p=28589,受付終了,142.37474931547752,44.194155479106435,
"茨城県鹿嶋市｜浜津賀海岸まで車で8分、マリンレジャーにも便利な立地にある土地建物合わせて０円",https://zero.estate/?p=27818,受付終了,140.5933945,36.06201210000001,
"岐阜県恵那市｜JR恵那駅から車で20分、恵那山麓にある閑静な別荘地の土地が０円",https://zero.estate/?p=28408,受付終了,137.4148896190195,35.38727405728341,
"千葉県山武市｜JR成東駅から車で5分、区画整理された住宅地にある土地が０円",https://zero.estate/?p=28418,受付終了,140.40320854893065,35.60380559598534,
"広島県江田島市｜切串港から徒歩8分、閑静な住宅地にある家屋・保安林が０円",https://zero.estate/?p=27084,受付終了,132.47690416754727,34.28026044677828,
"山形県酒田市｜史跡山居倉庫まで車で7分、国道１１２号線沿いの畑と保安林を合わせて０円",https://zero.estate/?p=27610,受付終了,139.80994848815942,38.89346404251855,
"大分県国東市｜国東市役所まで車で4分、周辺に田園が広がる静かな山林にある土地建物合わせて０円",https://zero.estate/?p=27603,受付終了,131.72315819999994,33.5594766,
"北海道当麻町｜JR当麻駅まで徒歩4分、当麻小学校も間近の住宅街にある土地建物を合わせて０円",https://zero.estate/?p=27796,受付終了,142.51368616555166,43.82441669749356,
"千葉県山武市｜新千葉カントリークラブまで車で7分、山武成東ICやJR成東駅からもアクセス良好な土地が０円",https://zero.estate/?p=27501,受付終了,140.37381346175113,35.610888897551725,
"栃木県那須町｜JR高久駅から車で5分、那須ICからもアクセス良好な手つかずの山林が０円",https://zero.estate/?p=27095,受付終了,140.0598073,37.0108707,
"静岡県伊東市｜一碧湖から徒歩10分、自然の緑が豊かな土地を０円で",https://zero.estate/?p=26810,受付終了,139.1101638,34.932187,
"千葉県市原市｜帝京平成大学 千葉キャンパスから車で4分、畑に囲まれた平坦な土地が０円",https://zero.estate/?p=27634,受付終了,140.1839167,35.497,
"神奈川県愛川町｜静かな山裾に建つ古い家屋付きの土地が０円",https://zero.estate/?p=27621,受付終了,139.2619666,35.5462223,
"栃木県鹿沼市｜東武日光線下小代駅より車で6分、山林にある平坦な土地が０円",https://zero.estate/?p=27627,受付終了,139.7044444,36.6619167,
"静岡県伊豆市｜太平ICから車で5分、綺麗な山並みが見られる高台の土地が０円",https://zero.estate/?p=26850,受付終了,138.9427778,34.95247219999999,
"山口県下関市｜下関総合病院から徒歩9分の山林に囲まれたのどかな平屋住宅が土地建物０円",https://zero.estate/?p=26801,受付終了,130.9378345,34.0336071,
"山口県田布施町｜棚田の頂上にあり見晴らしのよい母屋と離れに、近隣の山林・田も含め０円で譲渡。営農支援も。",https://zero.estate/?p=12481,受付終了,132.05473091257014,33.983126839763756,
"長野県小谷村｜小谷村役場まで車で10分、自然豊かな山間地にある土地建物が０円",https://zero.estate/?p=26863,受付終了,137.9233877,36.7817164,
"山形県山形市｜山形市球技場から車で5分、住宅地内の一戸建て土地建物が０円",https://zero.estate/?p=26858,受付終了,140.3503333462984,38.26703110494271,
"愛媛県西条市｜伊予三芳駅から車で6分、漁港近くの海の町にある土地建物が合わせて０円",https://zero.estate/?p=26924,受付終了,133.0650941,33.96839,
"静岡県裾野市｜富士山の南裾野に位置する、冷涼な別荘地にある土地が０円",https://zero.estate/?p=26823,受付終了,138.79372801524744,35.266694380293075,
"静岡県浜松市｜JR飯田線下川合駅から車で4分、平成７年築一戸建ほか周辺にある田畑8250㎡合わせて０円",https://zero.estate/?p=26234,受付終了,137.77880081524202,35.063014880343,
"北海道小樽市｜小樽ICまで車で7分、日本海が一望できる住宅地にある土地が０円",https://zero.estate/?p=26782,受付終了,141.03649121291178,43.16824999556873,
"静岡県函南町｜富士山がきれいに望める伊豆半島の別荘地が０円、さらに譲受者に１５０万円進呈",https://zero.estate/?p=25940,受付終了,138.99375,35.0841111,
"茨城県坂東市｜坂東ゴルフクラブから車で10分、県道135号からもほど近い山林が０円",https://zero.estate/?p=26080,受付終了,139.8905402883796,36.108972197007894,
"山口県下関市｜関門海峡が目前、海の見える高台にある土地が０円",https://zero.estate/?p=26072,受付終了,130.9638359,33.971345,
"石川県穴水町｜風情のある古民家住宅と、その近隣にある約20坪の雑種地をまとめて０円",https://zero.estate/?p=15942,受付終了,137.0601949,37.2138426,
"熊本県玉名市｜肥後伊倉駅から徒歩約１０分、庭木付きの日本家屋が０円",https://zero.estate/?p=26077,受付終了,130.5852798,32.909885,
"新潟県湯沢町｜苗場スキー場徒歩圏内、ワンルームのリゾートマンション「ヴィラ苗場」一室が０円",https://zero.estate/?p=23468,受付終了,138.79146000000003,36.791497,
"愛知県知多市｜セントレア空港から30分、静かな住宅街にたたずむ古民家・土地・近隣田合わせて０円",https://zero.estate/?p=25361,受付終了,136.8378141,34.9500815,
"静岡県御殿場市｜御殿場ICすぐ近く、県道沿いの三叉路付近にある空き地が０円",https://zero.estate/?p=25779,受付終了,138.94470620940467,35.2937348918731,
"兵庫県豊岡市｜牛舎の横にある、合計１０００坪超の山林・畑・原野をまとめて０円",https://zero.estate/?p=24925,受付終了,134.97279437737976,35.5062206465659,
"山梨県富士河口湖町｜富士ヶ嶺高原別荘地にある富士山を望める角地が０円",https://zero.estate/?p=25708,受付終了,138.64363662270904,35.424638896726414,
"山口県平生町｜上関温泉より車で約3分、平屋住宅・宅地・田・畑・山林をまとめて０円",https://zero.estate/?p=25790,受付終了,132.12171929741538,33.87091669803594,
"茨城県大子町｜国道118号からアクセス良好で豊富な緑に囲まれた原野が０円",https://zero.estate/?p=25352,受付終了,140.36827176682434,36.80719439724306,
"北海道北斗市｜道道96号線すぐの場所にある、三角形の土地４００坪が０円",https://zero.estate/?p=24840,受付終了,140.63199806833612,41.88944438792263,
"茨城県行方市｜のどかな住宅街にある区画整理地内の宅地と道路共有持分をまとめて０円",https://zero.estate/?p=24924,受付終了,140.44810744268477,36.11793600997508,
"神奈川県大井町｜細い山道の先にある、高台の南向き傾斜地が０円",https://zero.estate/?p=25562,受付終了,139.17030438917408,35.343123097674884,
"静岡県伊東市｜大自然に囲まれた別荘地「みのりの村」内の別荘用地が０円",https://zero.estate/?p=25164,受付終了,139.06180040389364,34.99894439730527,
"大阪府東大阪市｜横小路公園から徒歩3分、眺望良好な高台にある農地が０円",https://zero.estate/?p=25201,受付終了,135.647899,34.6484355,
"兵庫県加古川市｜周囲を池に囲まれた、約187平米の未活用更地が０円",https://zero.estate/?p=24028,受付終了,134.8803102,34.7525349,
"千葉県白子町｜九十九里浜にも近い、手入れが行き届いた土地約４０坪が０円",https://zero.estate/?p=24666,受付終了,140.3589898,35.462622,
"千葉県山武市｜豊かな自然に囲まれた未活用の分譲地、約５０坪が０円",https://zero.estate/?p=24923,受付終了,140.3967696,35.6430359,
"岡山県倉敷市｜最寄りの市営バス停まで徒歩3分、家屋付き宅地が０円",https://zero.estate/?p=24493,受付終了,133.8170161,34.553959,
"和歌山県有田市｜有田川が近くに流れる住宅街の2階建住宅2棟をまとめて０円",https://zero.estate/?p=24260,受付終了,135.1170044,34.0853988,
"茨城県鉾田市｜周囲を農業用ハウスに囲まれた雑種地約３０坪が０円",https://zero.estate/?p=22932,受付終了,140.52448062922525,36.19438889875489,
"静岡県函南町｜穏やかな傾斜で眺望良好な南箱根ダイヤランド別荘地一区画を０円",https://zero.estate/?p=24491,受付終了,139.01602017155997,35.087899173723876,
"北海道池田町｜いけだワイン城の近くにある、貸出中の平家建住宅が０円",https://zero.estate/?p=24026,受付終了,143.4565694881782,42.91464999869067,
"新潟県小千谷市｜小千谷駅徒歩圏内、信濃川すぐの住宅地にある擁壁上の土地が０円",https://zero.estate/?p=24665,受付終了,138.8066402,37.3033059,
"佐賀県大町町｜大町二千年蓮池公園に近い、のどかな住宅地に佇む平家住宅が０円",https://zero.estate/?p=24492,受付終了,130.1052318200771,33.22237416043709,
"福島県富岡町｜紅葉山「宝泉寺」近くの住宅街にある土地、約250平米が０円",https://zero.estate/?p=23547,受付終了,140.9967852,37.347235,
"三重県伊賀市｜青山高原国定公園内にある、築３０年の別荘が土地建物０円",https://zero.estate/?p=23771,受付終了,136.26910143488328,34.682711693249665,
"長野県富士見町｜キャンプやスポーツも楽しめる、富士見町民広場に近い土地と蔵をあわせて０円",https://zero.estate/?p=23067,受付終了,138.2568157,35.9093093,
"兵庫県加東市｜資材置き場として利用していた、横長に広い１６４１平米の土地が０円",https://zero.estate/?p=24027,受付終了,135.0031168292523,34.899759998773995,
"茨城県かすみがうら市｜霞ヶ浦近くの自然豊かでのどかな場所にある土地が０円",https://zero.estate/?p=23543,受付終了,140.350507,36.066723,
"栃木県日光市｜文挾ため池など、憩いの場が豊富な住宅街内にある土地が０円",https://zero.estate/?p=23068,受付終了,139.73001909291614,36.64282282561609,
"滋賀県大津市｜国道161号より山に向かい入った先にある未利用の土地が０円",https://zero.estate/?p=23519,受付終了,135.924006,35.2195025,
"新潟県湯沢町｜苗場スキー場すぐ近くのリゾートマンション6階1室が０円",https://zero.estate/?p=18527,受付終了,138.790707,36.791442,
"広島県呉市｜呉三津田高校にも近い、住宅街にある土地建物をまとめて０円",https://zero.estate/?p=22782,受付終了,132.55709424156024,34.253256760067664,
"秋田県潟上市｜八郎潟調整池にも近い、2階建住宅と納屋・畑を土地建物まとめて０円",https://zero.estate/?p=21145,募集中,140.08828011717821,39.862415626699466,
"静岡県富士宮市｜一部に他人名義の家屋が建つ、飛び地の土地１筆を０円",https://zero.estate/?p=22921,募集中,138.6078594,35.1995502,
"静岡県富士宮市｜管理が行き届いた、資材置き場として賃貸中の土地約250平米が０円",https://zero.estate/?p=22784,受付終了,138.60387133749867,35.19319167380438,
"長野県軽井沢町｜JR軽井沢駅より車で約20分、丸紅南軽井沢の傾斜あり別荘用地が０円",https://zero.estate/?p=21917,受付終了,138.6270331,36.2899964,
"北海道七飯町｜北海道縦貫自動車道が近くを走る、整備された分譲地内の土地１区画が０円",https://zero.estate/?p=22383,受付終了,140.6876852,41.9138224,
"兵庫県宍粟市｜のどかな山間地にある一戸建てと倉庫、その裏の畑をまとめて０円",https://zero.estate/?p=22698,受付終了,134.5089504202364,35.150346507199586,
"高知県東洋町｜港がすぐ側にある築約５０年の２階建一軒家、建物のみが０円",https://zero.estate/?p=22720,受付終了,134.29514384854636,33.54768430321081,
"秋田県横手市｜国道107号線沿いに佇む、元小料理屋の2階建て店舗兼住宅が土地建物０円",https://zero.estate/?p=22564,受付終了,140.46447754741385,39.268410730946094,
"千葉県大網白里市｜のどかな住宅街にある整形された既造成地が０円",https://zero.estate/?p=21432,受付終了,140.38017502922403,35.48980559876497,
"三重県伊勢市｜伊勢神宮まで３kmの位置に所在、8,235㎡の広大な山林のうち持分2分の1を無償譲渡",https://zero.estate/?p=21705,受付終了,136.6856277944044,34.47806777026234,
"群馬県みどり市｜大自然に抱かれた、赤城ロマンドの別荘用地一区画が０円",https://zero.estate/?p=22363,取引中止,139.23936255970156,36.47846545292407,
"群馬県嬬恋村｜人気の高い別荘地、浅間サンランドの別荘用地一区画が０円",https://zero.estate/?p=21721,受付終了,138.56218412972987,36.50698149691761,
"北海道釧路市｜教育大そば、市街地の高台にある傾斜ありの宅地約440平米が０円",https://zero.estate/?p=21455,受付終了,144.39536411901582,42.97986093386889,
"長野県軽井沢町｜浅間山を望む、軽井沢の別荘用地が約510平米が０円",https://zero.estate/?p=21350,受付終了,138.60412484822865,36.36398487666886,
"静岡県伊東市｜伊豆急行線南伊豆駅から車で約10分の別荘用分譲地が０円",https://zero.estate/?p=21704,受付終了,139.0887486103645,34.94107882591652,
"長野県塩尻市｜住宅街の一区画で幹線道路に面した場所にある宅地が０円",https://zero.estate/?p=21719,受付終了,137.96377935460924,36.05191559646289,
"愛媛県四国中央市｜JR川之江駅から徒歩5分、駅前商店街に面した鉄筋コンクリートの3階建て建物が０円",https://zero.estate/?p=16960,受付終了,133.57306424630968,34.01433016199096,
"北海道せたな町｜漁師町にたたずむ一軒家と、山林など約4,500㎡の土地があわせて０円",https://zero.estate/?p=21307,受付終了,139.82953661345474,42.59608152953612,
"秋田県にかほ市｜日本海がすぐ側の住宅街にある２階建住居・作業場を２棟まとめて土地建物０円",https://zero.estate/?p=21143,受付終了,139.9108587,39.2631126,
"千葉県市原市｜のどかな住宅街の一区画で擁壁上にある土地が０円",https://zero.estate/?p=20638,受付終了,140.16923062922388,35.39430559876638,
"岡山県倉敷市｜県道60号線に面する歴史ある平屋建住宅と二階建住宅の２棟を建物のみ０円",https://zero.estate/?p=13019,取引中止,,,岡山県倉敷市玉島長尾字土手根436番地1
"長野県上田市｜クリニックや小学校が近くにある上塩尻地区の一軒家が０円",https://zero.estate/?p=21144,受付終了,138.2150323,36.4165969,
"静岡県函南町｜山間にある伊豆エメラルドタウンの角地一区画が０円",https://zero.estate/?p=20629,受付終了,138.99789722922335,35.08469439877111,
"千葉県成田市｜成田空港より５km圏内、住宅街内にある土地が０円",https://zero.estate/?p=19525,受付終了,140.39959172922462,35.81408329876021,
"茨城県鉾田市｜豊富な自然に囲まれた場所にある建物付きの土地が０円",https://zero.estate/?p=20628,受付終了,140.5437112581464,36.10674999502436,
"静岡県伊東市｜近郊に宿泊施設や貸別荘が多数、山間にある１０００平米の土地が０円",https://zero.estate/?p=20149,受付終了,139.12117044871772,34.911225865942626,
"栃木県那須町｜那須ハイランドパークに近い、別荘地の平屋住宅が土地建物０円",https://zero.estate/?p=20148,受付終了,139.9636007,37.0598618,
"岐阜県高山市｜窓から御嶽山が見られる「鈴蘭高原」内の温泉権付き別荘が０円",https://zero.estate/?p=18516,受付終了,137.34803550009056,35.99391662231258,
"岩手県奥州市｜周囲を豊富な緑に囲まれた、山のふもとの一戸建てが土地建物０円",https://zero.estate/?p=19534,受付終了,141.353832480162,39.19019438927359,
"静岡県伊東市｜相模湾・大島が一望できる伊豆高原・名鉄赤沢別荘地の一区画が０円",https://zero.estate/?p=19230,募集中,139.0818428,34.8699705,
"千葉県山武市｜圏央道松尾横芝IC近く、日当たりの良い家屋解体済み更地が０円",https://zero.estate/?p=20094,受付終了,140.4270021,35.6533768,
"静岡県南伊豆町｜南伊豆マリンパーク内にある、傾斜ありの別荘用地200平米が０円",https://zero.estate/?p=19862,受付終了,138.87935785672784,34.62817490775526,
"静岡県西伊豆町｜国道１３６号沿いにある約２５０坪の平坦な土地が０円",https://zero.estate/?p=20070,受付終了,138.77537848813847,34.80799109990981,
"群馬県嬬恋村｜レジャー施設や宿泊施設が近隣にある、紀州鉄道・第一せせらぎの森別荘地内の一区画が０円",https://zero.estate/?p=19451,受付終了,138.5594116474476,36.46535628582811,
"愛媛県宇和島市｜山の麓でのどかな場所に佇む一軒家と、その裏の畑3枚をまとめて０円",https://zero.estate/?p=19231,受付終了,132.5637084,33.2120208,
"埼玉県狭山市｜航空自衛隊入間基地すぐ側の囲繞地に立つ一軒家が土地建物０円",https://zero.estate/?p=18868,受付終了,139.40310903000326,35.85217396336549,
"群馬県嬬恋村｜浅間白根崋山ルート近くの別荘地内にある完全未利用の土地が０円",https://zero.estate/?p=18369,受付終了,138.53928541257923,36.48693544521887,
"群馬県嬬恋村｜浅間山の豊かな自然に囲まれた別荘地にある完全未利用の土地が０円",https://zero.estate/?p=19011,受付終了,138.5497276414088,36.46665037742228,
"静岡県伊豆の国市｜別荘地が並ぶ山林の一区画、約110坪の土地が０円",https://zero.estate/?p=19498,受付終了,138.99856392922337,35.080444398771185,
"神奈川県横須賀市｜住宅街から少し離れた静かな場所にある土地が０円",https://zero.estate/?p=19490,受付終了,139.61735922981518,35.302916686964494,
"埼玉県吉見町｜住宅街にある道路に面した約150平米の土地が０円",https://zero.estate/?p=19458,受付終了,139.43589395470053,36.04883604200162,
"鹿児島県南さつま市｜吹上浜海岸砂丘のそば、農家づくりの一軒家が土地建物０円",https://zero.estate/?p=18512,受付終了,130.319333715149,31.455341681391115,
"静岡県南伊豆町｜緑豊かな山間に佇む約100坪の土地付き平屋住宅が０円",https://zero.estate/?p=18854,取引中止,,,静岡県賀茂郡南伊豆町加納
"長崎県佐世保市｜コンビニまで徒歩5分、緩やかな丘の上に佇む平屋住宅が０円",https://zero.estate/?p=18867,受付終了,129.70784947855742,33.17112816007493,
"北海道室蘭市｜小学校まで徒歩3分、母恋駅まで徒歩10分の場所にある平屋住宅2戸をまとめて０円",https://zero.estate/?p=18631,受付終了,140.99022373208453,42.313642631278945,
"栃木県那須塩原市｜眼下に絶景広がる、高原別荘地の「那須白笹リゾートマンション」4階1室が０円",https://zero.estate/?p=13037,取引中止,139.9415544152978,37.08199717989152,
"宮崎県延岡市｜徒歩10分圏内に学校やスーパーがある住宅街の一軒家が０円",https://zero.estate/?p=18368,受付終了,131.6684939,32.5982696,
"鳥取県岩見町｜老舗旅館や温泉施設が近くにある、住宅街の一軒家が０円",https://zero.estate/?p=18513,受付終了,134.36505637780687,35.5556386769784,
"茨城県取手市｜閑静な住宅街にある土地2筆、約150平米をまとめて０円",https://zero.estate/?p=17584,受付終了,140.11920313376228,35.93612899403724,
"山梨県笛吹市｜農園や釣り堀が近くにある、一軒家と蔵２棟の土地建物あわせて０円",https://zero.estate/?p=17663,受付終了,138.696053117923,35.613297115418774,
"和歌山県那智勝浦町｜勝浦八幡神社の近くに佇む平屋建て一軒家を、建物のみ０円で譲渡",https://zero.estate/?p=18367,受付終了,135.94692334845868,33.629490615126564,
"広島県三次市｜吉舎駅そば、日当たりのよい農耕地付きの一軒家が土地建物０円",https://zero.estate/?p=18053,受付終了,132.9901642,34.7270839,
"北海道旭川市｜近郊に三ツ星ホテルや温泉施設がある、市内を一望する高台の宅地が０円",https://zero.estate/?p=16304,受付終了,142.31489722923956,43.76455559869486,
"兵庫県姫路市｜学校や病院が近くにあり、のどかな住宅街にある平屋住宅が土地建物０円",https://zero.estate/?p=17605,受付終了,134.6619025260947,34.81468611104141,
"茨城県鉾田市｜駅にも海にも近い、平坦な約３０坪の宅地が０円",https://zero.estate/?p=17915,受付終了,140.5844806292251,36.09219439875629,
"群馬県嬬恋村｜紀州鉄道ロイヤルパーク別荘地内の一区画、約２００坪が０円",https://zero.estate/?p=17905,受付終了,138.5663517,36.462372,
"群馬県嬬恋村｜自然が豊かで永住者も多い浅間サンランド別荘地内にあるペット可の山荘が０円",https://zero.estate/?p=17604,受付終了,138.5606879,36.5123262,
"北海道登別市｜銀のしずく記念館そば、登別東ICより約5分の場所にある一軒家が０円",https://zero.estate/?p=13918,受付終了,141.16666139925502,42.45268742523001,
"福島県田村市｜大自然の中にある隠れ家、趣のある２階建ての山荘が土地建物０円",https://zero.estate/?p=16958,受付終了,140.7046934881728,37.429975998732786,
"北海道深川市｜小学校や公園がすぐ近くにある、地下室付きの一軒家が０円",https://zero.estate/?p=17262,受付終了,142.032872,43.713328,
"広島県大竹市｜瀬戸内海が目の前に広がる、漁港まで徒歩3分の一軒家が０円",https://zero.estate/?p=16959,受付終了,132.23488019698678,34.25855492249275,
"北海道室蘭市｜壁・床など損傷あり、リフォームしがいのある一軒家が０円",https://zero.estate/?p=16303,受付終了,141.0486751,42.3535844,
"岐阜県多治見市｜夏には蛍が見られる、澄んだ空気と静かな環境にある一軒家が０円",https://zero.estate/?p=16807,受付終了,137.1547759077066,35.29296448176371,
"岐阜県各務原市｜各務原パークウェイ沿いにある、建物解体済みの更地が０円",https://zero.estate/?p=16808,受付終了,136.923556256886,35.4182136926786,
"福岡県北九州市｜八幡東区の住宅街内にある、家屋解体済み更地が０円",https://zero.estate/?p=16305,受付終了,130.82263589438392,33.872571031313264,
"徳島県鳴門市｜タイムシェアリゾート「ふるさと君渦潮編」１週間分が０円",https://zero.estate/?p=16714,受付終了,134.624469,34.198002,
"静岡県伊東市｜みのりの村別荘地内の一区画、約１００坪が０円",https://zero.estate/?p=16840,受付終了,139.05459172922323,34.992194398772554,
"静岡県伊東市｜遊歩道の先にある竹藪に囲まれた原野、約１００坪が０円",https://zero.estate/?p=16829,受付終了,139.09559172922312,34.943111098773294,
"神奈川県三浦市｜建物所有者と連絡がつかない底地を含む、約260平米の土地が０円",https://zero.estate/?p=16479,受付終了,139.61959344306567,35.14573312389614,
"千葉県横芝光町｜田畑に囲まれたのどかな分譲地内に位置する未利用の土地が０円",https://zero.estate/?p=16128,受付終了,140.50864695713105,35.658704604637855,
"千葉県山武市｜静かな住宅街にある、手入れの行き届いた約５０坪の土地が０円",https://zero.estate/?p=16447,受付終了,140.3589250292082,35.62013889876303,
"北海道滝川市｜雄大な大地に立つ、周りを田畑に囲まれた納屋付き一軒家が土地建物０円",https://zero.estate/?p=16411,受付終了,141.998131,43.646738,
"茨城県石岡市｜近隣に商業施設充実、住宅街内にある家屋解体済みの未接道更地が０円",https://zero.estate/?p=16480,受付終了,140.2803557,36.1992666,
"香川県高松市｜道中にて瀬戸内海を見渡す、360平米の土地が０円",https://zero.estate/?p=16284,受付終了,134.13610569808324,34.3910249902114,
"香川県高松市｜山道の先にある、豊かな自然に囲まれた約43坪の土地が０円",https://zero.estate/?p=16283,受付終了,134.1445767,34.3907631,
"北海道室蘭市｜室蘭港と製鉄所の風景を見渡す、母恋富士近くにある一軒家が土地建物０円",https://zero.estate/?p=16129,受付終了,140.9979351,42.3131105,
"新潟県湯沢町｜スキー場そばのリゾートマンション「ダイヤパレス苗場」３階１室が０円",https://zero.estate/?p=16126,受付終了,138.7917088,36.7915579,
"新潟県小千谷市｜元旅館「龍乃湯」の建物に、近郊にある山林複数も合わせて０円",https://zero.estate/?p=14307,取引中止,138.7627061,37.3135,
"愛媛県四国中央市｜市役所やスーパーなどにも近い、住宅街内の平家建一軒家が０円",https://zero.estate/?p=15943,受付終了,133.5546431,33.975927,
"長野県佐久市｜「山荘あらふね」より徒歩５分、観光牧場にも囲まれた県境にある別荘地内一区画が０円",https://zero.estate/?p=15929,受付終了,138.6064897,36.2430309,
"神奈川県大磯町｜大磯駅より１.３km、海が一望の緑あふれる山林約１５０坪が０円",https://zero.estate/?p=16048,受付終了,139.31203612922383,35.316555598767565,
"栃木県鹿沼市｜擁壁上に位置した、傾斜のある山林約８０坪が０円",https://zero.estate/?p=16039,受付終了,139.71140895288667,36.63869590237061,
"愛媛県八幡浜市｜公共施設至近、丘陵地にたたずむ戸建て住宅が土地建物０円",https://zero.estate/?p=15690,受付終了,132.4260596,33.4600753,
"北海道小樽市｜水天宮の真横、小高い丘の上より海を見渡す戸建て住宅２棟をまとめて０円",https://zero.estate/?p=15507,受付終了,140.9802636,43.1931045,
"千葉県睦沢町｜200坪の宅地に立つ平屋住宅と、裏にある1400坪の山林をあわせて０円",https://zero.estate/?p=14954,受付終了,140.2726222,35.3360046,
"北海道北見市｜JR北見駅より約1.7km、北見藤高校・東陵公園が近い閑静な住宅街の戸建て住宅が０円",https://zero.estate/?p=15151,受付終了,143.89025711550306,43.817191179115966,
"千葉県山武市｜住宅街の中にある、管理の行き届いた未利用の宅地が０円",https://zero.estate/?p=14939,取引中止,140.4603659,35.5584672,
"山口県周南市｜自然豊かな環境で、静かに暮らすのにピッタリな一戸建て住宅が０円",https://zero.estate/?p=14624,受付終了,131.792516337323,34.10216731888973,
"北海道札幌市｜地下鉄豊平公園駅そば、隣家と壁を共有・未接道の袋地にある２階建て一軒家が０円",https://zero.estate/?p=14776,受付終了,141.3792086,43.0389304,
"静岡県伊豆の国市｜高台から辺りを見渡す「伊豆エメラルドタウン別荘地」傾斜ありの土地一区画が０円",https://zero.estate/?p=14878,受付終了,138.99328612922335,35.068055598771366,
"静岡県伊東市｜木漏れ日の差す、幹線道路にも面した山林１２０坪が０円",https://zero.estate/?p=14870,受付終了,139.06470282922328,35.02205559877206,
"新潟県湯沢町｜スキー場そばのリゾートマンション「ダイヤパレス苗場」９階１室が０円",https://zero.estate/?p=14600,受付終了,138.78851041528955,36.79143607995041,
"北海道名寄市｜のどかな田園風景が広がり、市街地にも車で５分と近い元農家住宅が土地建物０円",https://zero.estate/?p=14585,受付終了,142.4289627,44.3416203,
"北海道深川市｜ドラッグストア・コンビニ が近く、高校・大学も徒歩圏内にある戸建て住宅が０円",https://zero.estate/?p=14604,受付終了,142.0220574,43.7142921,
"長野県小諸市｜中央アルプスを望む、温泉にも近いイトーピア小諸別荘地が０円",https://zero.estate/?p=13994,受付終了,138.3702049,36.3233245,
"北海道室蘭市｜周囲に豊かな自然が残る、港北地区の一戸建てが土地建物０円",https://zero.estate/?p=14357,受付終了,140.9903283,42.3683441,
"北海道深川市｜保育園や小学校が目の前、私道に接する２２０平米の宅地が０円",https://zero.estate/?p=14314,受付終了,142.02866082927144,43.711684998694956,
"新潟県長岡市｜駐車２台可、4LDKの広々戸建てが０円",https://zero.estate/?p=12204,受付終了,138.72083561529357,37.349875879839104,
"滋賀県東近江市｜琵琶湖そば、神社横にある木造平屋建ての農家住宅が土地建物０円",https://zero.estate/?p=13902,受付終了,136.1121547,35.212413,
"岐阜県郡上市｜スキー場やキャンプ場にも近い、ニューパークひるが野別荘地内の一区画が０円",https://zero.estate/?p=13985,受付終了,136.9241976,35.951074,
"千葉県旭市｜九十九里海岸の東端、飯岡海水浴場近くの土地が０円",https://zero.estate/?p=13919,受付終了,140.7016485,35.7057545,
"長野県飯田市｜線路脇にある、墓地を内包した約238坪の土地が０円",https://zero.estate/?p=13763,受付終了,137.84781181937186,35.52755421490881,
"兵庫県神戸市｜密集する住宅街の中にある、1,200平米の小高い山状の土地が０円",https://zero.estate/?p=13626,受付終了,135.14185542025788,34.72819439586761,
"北海道室蘭市｜室蘭プリンスホテルの裏手、室蘭駅近くの賃貸アパートが土地建物０円",https://zero.estate/?p=13726,受付終了,140.9644944,42.3197459,
"茨城県かすみがうら市｜草木に覆われた市道に接する、５０坪の土地が０円",https://zero.estate/?p=13780,受付終了,140.3274159092484,36.08099999671226,
"神奈川県二宮町｜相模湾と山が見える、陽当たり良好な山林５６坪が０円",https://zero.estate/?p=13773,受付終了,139.24024916224667,35.294111096742135,
"北海道北斗市｜国道２２８号線沿い、海近くの広々とした未登記古家が土地建物０円",https://zero.estate/?p=13693,受付終了,140.5670026,41.7300905,
"島根県知夫村｜隠岐諸島の最南端、フェリー乗り場徒歩１０分の離島物件が土地・建物０円",https://zero.estate/?p=13638,受付終了,133.0515146,36.096925,
"北海道当麻町｜中心商店街に立地、店舗スペース３室と6DK相当の居住スペースを有する店舗兼住宅が０円",https://zero.estate/?p=13645,取引中止,142.51336124410733,43.82423799999999,
"長野県佐久市｜高原の花が咲きほこる内山牧場が間近、約３００坪の佐久高原荒船別荘地が０円",https://zero.estate/?p=13525,受付終了,138.603604,36.2358326,
"静岡県沼津市｜国立公園の山の中にある、海にも近いセカンドハウスが土地建物０円",https://zero.estate/?p=13514,受付終了,138.7841892,35.0190229,
"群馬県嬬恋村｜浅間山を仰ぎ見る浅間ハイランド別荘地、５７０㎡の一区画が０円",https://zero.estate/?p=13573,受付終了,138.5224035,36.4709377,
"千葉県横芝光町｜ＪＲ横芝駅から海方向へ３.５km、未利用の平地が０円",https://zero.estate/?p=13566,受付終了,140.5082005,35.6354118,
"千葉県成田市｜使い勝手の良い約３０坪のコンパクトな整形地が０円",https://zero.estate/?p=13542,受付終了,140.39269537590235,35.81407087121384,
"神奈川県横須賀市｜遊歩道脇の草むらを分け入った先にある山林が０円",https://zero.estate/?p=13534,受付終了,139.72641641727566,35.24355559674827,
"北海道三笠市｜１階はリフォーム済、エアコン付きの木造住宅が建物のみ０円",https://zero.estate/?p=13360,受付終了,141.917201,43.2548876,
"愛知県常滑市｜けもの道を進んだ先にある、自然が身近な１４０坪の雑木林が０円",https://zero.estate/?p=13381,受付終了,136.8665945,34.835223,
"北海道妹背牛町｜部屋数が多く利便性の良い、リフォーム済の旧共同住宅が０円",https://zero.estate/?p=13343,受付終了,141.9607861292395,43.69402779869499,
"岐阜県瑞浪市｜見晴らしが良く、多数のゴルフ場近くに立地する分譲地が０円",https://zero.estate/?p=13314,受付終了,137.2906991,35.3110337,
"北海道上川町｜上川駅から500m、木造二階建て広い庭付きの家が０円",https://zero.estate/?p=13257,受付終了,142.75870641550426,43.853825779114956,
"千葉県睦沢町｜九十九里浜にも行ける、なだらかな丘状の土地が０円",https://zero.estate/?p=13227,受付終了,140.33049959220267,35.37063889610342,
"北海道登別市｜登別本町にある、住宅建設用途に適した未活用の整形地が０円",https://zero.estate/?p=12627,受付終了,141.16443252980213,42.4524761383427,
"静岡県伊豆市｜木漏れ日あふれる別荘地、伊豆・南修善寺グランドビレッジ内の一区画が０円",https://zero.estate/?p=13271,受付終了,138.9530887,34.9484922,
"滋賀県東近江市｜仕事の付き合いで手に入れた、建物解体途中の土地が０円",https://zero.estate/?p=13204,受付終了,136.13944628238045,35.19243819999999,
"島根県大田市｜県中部の代官山動物園が目の前、家屋解体済みの土地が０円",https://zero.estate/?p=12973,受付終了,132.5067483175028,35.1884680947961,
"北海道紋別市｜約１万平米もの雄大な大自然の敷地と、元酪農家住宅の一軒家が０円",https://zero.estate/?p=13152,受付終了,143.46755697971454,44.2358677082112,
"青森県東通村｜本州最北端の下北半島、3,638平方メートルの広大な原野が０円",https://zero.estate/?p=12993,受付終了,141.3281204085484,41.32063722539268,
"静岡県函南町｜緩やかな斜面の広がる、眺望良好の南箱根ダイヤランド別荘地一区画が０円",https://zero.estate/?p=12964,受付終了,139.0098859761905,35.0822676,
"栃木県佐野市｜住宅街の中にある菜園、建物解体済みの土地が０円",https://zero.estate/?p=12886,受付終了,139.58328941527654,36.321003480050116,
"三重県伊賀市｜静かな住宅地内にある未利用分譲地が０円",https://zero.estate/?p=13060,受付終了,136.1046204836178,34.79127779620926,
"三重県津市｜周囲を雑木林に囲まれた山林392㎡を０円で譲渡",https://zero.estate/?p=12925,受付終了,136.3090771591221,34.64683308420997,
"福島県白河市｜高台より周囲を見渡す、管理の行き届いた土地が０円",https://zero.estate/?p=13042,受付終了,140.23049890131404,37.13936109667313,
"栃木県那須町｜四季折々の大自然を堪能、那須バケイションランド別荘地の一区画が０円",https://zero.estate/?p=12893,取引中止,140.0565560010639,37.10451050833928,
"長野県飯綱町｜冬も安心の町営別荘地、飯綱サニーハイランド内の一区画が０円",https://zero.estate/?p=12906,受付終了,138.1856884,36.7254098,
"神奈川県横須賀市｜入口に階段の設置された、傾斜のある未使用の土地が０円",https://zero.estate/?p=12872,受付終了,139.66011253786385,35.27718212861702,
"茨城県阿見町｜神社裏手にある、敷地面積約１０坪のコンパクトな竹林が０円",https://zero.estate/?p=12824,受付終了,140.215472640546,36.048018844129004,
"愛知県蒲郡市｜敷地内にびわの木が植えられた、傾斜のある土地が０円",https://zero.estate/?p=12789,受付終了,137.2322296043262,34.81656899792416,
"静岡県伊東市｜並木のある緑豊かな自然の宝庫、１５００㎡の未利用別荘地が０円",https://zero.estate/?p=12615,受付終了,139.1035656,34.9204714,
"長野県小諸市｜浅間連山や中央アルプスを望む、１８０坪の未利用別荘地が０円",https://zero.estate/?p=12679,受付終了,138.36582357958193,36.324365569579825,
"神奈川県相模原市｜水と緑と水源の街、津久井湖周辺にある山林が０円",https://zero.estate/?p=12730,受付終了,139.2552291,35.5847546,
"新潟県湯沢町｜苗場スキー場徒歩圏内にある、ワンルームのリゾートマンション一室が０円",https://zero.estate/?p=12701,受付終了,138.79022821528957,36.79134247995037,
"静岡県函南町｜眺望豊かな南箱根ダイヤランド別荘地、約７７坪の土地が０円",https://zero.estate/?p=12633,受付終了,139.01218902937876,35.08186271323406,
"兵庫県淡路市｜淡路島西側の未利用土地、尾崎汐見台分譲地の一画が０円",https://zero.estate/?p=12649,受付終了,134.86762930487055,34.4973282678335,
"千葉県山武市｜小学校すぐそば、住宅用地に適した未利用分譲地が０円",https://zero.estate/?p=12598,受付終了,140.35962785861318,35.67508329876224,
"福岡県北九州市｜眼下に北九州の夜景を見下ろす、擁壁上の土地が０円",https://zero.estate/?p=12586,受付終了,130.81329398712163,33.86226013427705,
"北海道名寄市｜JR名寄駅裏の好立地で、名寄公園や名寄東病院も近い一軒家が０円",https://zero.estate/?p=12546,受付終了,142.46802521552038,44.34766347910362,
"栃木県栃木市｜先祖代々受け継いできた、生活圏内に施設が充実している土地が０円",https://zero.estate/?p=12739,受付終了,139.7331808,36.3912121,
"愛媛県伊方町｜四国西端の海沿いの町にある元理髪店だった居宅、近隣にある土地とあわせて０円",https://zero.estate/?p=12422,受付終了,132.28720062699523,33.46464975440978,
"山形県尾花沢市｜作業場を改装した２階建家屋、菜園のできる500坪超の土地とあわせて０円",https://zero.estate/?p=12391,受付終了,140.4826198497304,38.58485261262706,
"東京都小平市｜住宅街の中にひっそりと佇む、建坪１０坪の２階建て一軒家０円",https://zero.estate/?p=12346,受付終了,139.46305894789356,35.74068720383985,
"栃木県日光市｜豊かな緑に囲まれた新栄郷別荘地内にある未利用分譲地が０円",https://zero.estate/?p=12337,受付終了,139.76929255731375,36.710147027563174,
"北海道紋別市｜紋別高校･市民球場･スポーツセンター近くの空き家が建物のみ０円",https://zero.estate/?p=12314,受付終了,143.3534935107655,44.33756634249761,
"茨城県小美玉市｜県央の旧小川町、宮田地区の緑豊かな山林が０円",https://zero.estate/?p=12302,受付終了,140.34539722922528,36.197499998754836,
"神奈川県横浜市｜住宅街の中にあるオアシス、緑地保存地区に指定された戸塚区の山林が０円",https://zero.estate/?p=12289,受付終了,139.5526878219689,35.41044536037818,
"北海道遠軽町｜中学校の真横、近くで清流釣りも楽しめる丸瀬布地区の空き家が０円",https://zero.estate/?p=12238,受付終了,143.3381726348702,44.00471899869444,
"北海道鷹栖町｜幹線道路沿いに立地する、元整体院の治療所が土地建物０円",https://zero.estate/?p=12223,受付終了,142.37070629608777,43.87809205260114,
"新潟県南魚沼市｜各種スノーリゾート至近の、中古リゾートマンション２階一室が０円",https://zero.estate/?p=12164,取引中止,138.819487576039,36.98509265207686,
"北海道美唄市｜高速道路インター至近、各方面にアクセスのよい宅地が０円",https://zero.estate/?p=12138,受付終了,141.8810601861212,43.334439247348755,
"岡山県美作市｜自然の営みが感じられる、山間の柿ヶ原集落沿いにある一軒家・土地建物０円",https://zero.estate/?p=12075,受付終了,134.2139239189205,34.956102791129744,
"三重県伊賀市｜山道の先にある、所在のはっきりしない未開拓の土地０円",https://zero.estate/?p=12098,受付終了,136.15777055726113,34.648628669428014,
"奈良県橿原市｜畝傍山のふもと、周辺を多くの史跡に囲まれた住宅地内の一軒家０円",https://zero.estate/?p=11981,受付終了,135.7794657748803,34.49298844696437,
"愛知県豊田市｜三河湖の南岸中央付近にある旧分譲地の山林214㎡が０円",https://zero.estate/?p=11942,受付終了,137.40161254571748,35.03004462251,
"北海道当麻町｜のどかな田舎暮らしのできる、田園風景に囲まれた二階建て一軒家が０円",https://zero.estate/?p=11917,受付終了,142.4910209859423,43.83969724894697,
"静岡県東伊豆町｜温泉・眺望・自然環境に恵まれた伊豆熱川、約120坪の未利用別荘地が０円",https://zero.estate/?p=11724,受付終了,139.04797265814594,34.83492819666142,
"栃木県那須塩原市｜温泉引込み可能な、森の中にある那須白笹温泉郷別荘地が０円",https://zero.estate/?p=11870,受付終了,139.93854411693522,37.08542147983855,
"栃木県那須塩原市｜観光や生活圏としても便利な、閑静な住宅エリア内の別荘地が０円",https://zero.estate/?p=11892,取引中止,139.97537509868712,37.008202348570705,
"静岡県伊東市｜駿河湾を一望する「うさみ観音寺」のそばにある山林が０円",https://zero.estate/?p=11862,受付終了,139.0647142,35.0225792,
"北海道当麻町｜町内中心部の好立地、平屋建て・二階建て居宅２棟あわせて０円",https://zero.estate/?p=11799,受付終了,142.51129243241704,43.82709680532272,
"静岡県函南町｜緑豊かで閑静な「パサディナタウン分譲地」内の角地が０円",https://zero.estate/?p=11818,受付終了,138.95706332346163,35.10977748658175,
"千葉県鴨川市｜閑静な山間にある、緑豊かな240坪の土地を０円で譲渡",https://zero.estate/?p=11706,受付終了,140.0727844133394,35.14951393332599,
"静岡県伊東市｜４室がひとつになった、メゾネットタイプの別荘１棟が土地建物０円",https://zero.estate/?p=11762,受付終了,139.09063259606862,34.892050167222656,
"長野県青木村｜1,000㎡の敷地を有する、青木村営「青木の森高原別荘地」が０円",https://zero.estate/?p=11746,受付終了,138.10081392922552,36.32994439875301,
"北海道室蘭市｜室蘭駅そば、公共施設も近く利便性のよい立地にある一軒家が０円",https://zero.estate/?p=11618,受付終了,140.96609558153682,42.31997430286907,
"北海道和寒町｜かぼちゃ作付け日本一のまち「和寒町」の眺望のよい国道沿い土地が 0 円",https://zero.estate/?p=11666,受付終了,142.40097178787582,44.045510158693176,
"静岡県伊豆の国市｜緑に囲まれた高原別荘地、富士見ニュータウンの土地を０円で譲渡",https://zero.estate/?p=11660,受付終了,138.9947707527014,35.057743007739525,
"千葉県東金市｜東中地区、周りを田に囲まれた約３０坪のコンパクトな土地が０円",https://zero.estate/?p=11609,受付終了,140.4305199,35.5687956,
"奈良県広陵町｜近隣に大型スーパー・商業施設複数有、歴史と自然に囲まれた住宅地にある一軒家０円",https://zero.estate/?p=11552,受付終了,135.75250888764515,34.551653478560546,
"新潟県上越市｜築１３０年、囲炉裏のついた山間部の古民家が土地建物０円",https://zero.estate/?p=11527,受付終了,138.52041488821465,37.067870400000004,
"福島県白河市｜景観のよい高台にある２階建・平家建の戸建２棟をあわせて土地建物０円",https://zero.estate/?p=11232,取引中止,140.1771954997722,37.09879455875369,
"北海道湧別町｜農村暮らしを堪能、田園に佇む広々一軒家が土地建物０円",https://zero.estate/?p=11306,受付終了,143.5542458329739,44.1391770791076,
"埼玉県越生町｜閑静な住宅街の、擁壁上にある家屋解体済み更地を０円で譲渡",https://zero.estate/?p=11448,受付終了,139.28986671012927,35.9582433740055,
"長野県白馬村｜人気リゾート地にある住居兼簡易旅館が土地建物０円",https://zero.estate/?p=11431,受付終了,137.88031,36.6700567,
"千葉県南房総市｜沓見地区、湖沼を望む208坪の土地が０円",https://zero.estate/?p=11424,受付終了,139.9461316,35.0192957,
"山口県下関市｜長府逢坂町の山の入口にある木々溢れる戸建２軒をまとめて０円",https://zero.estate/?p=11361,受付終了,130.97539327611338,33.998386867277446,
"北海道美唄市｜日本一の直線道路そば、自然豊かな一軒家が０円",https://zero.estate/?p=11308,受付終了,141.8627085455383,43.30754864151982,
"北海道美唄市｜古くは炭鉱で栄えた住宅街にある「炭鉱住宅」平屋建が０円",https://zero.estate/?p=11312,受付終了,141.90071367626996,43.330802087614884,
"新潟県長岡市｜春には桜の名所となる、幹線道路沿いの一軒家が０円",https://zero.estate/?p=11285,受付終了,138.89509543695405,37.454963284877316,
"北海道旭川市｜市民憩いの場の「常磐公園」からほど近い空き地が０円",https://zero.estate/?p=11042,受付終了,142.3538500428393,43.7753750044508,
"北海道岩見沢市｜住環境も良い閑静な住宅地にある庭付き一軒家が０円",https://zero.estate/?p=11031,受付終了,141.7453164501789,43.20434230929686,
"長野県安曇野市｜北アルプス・穂高有明の麓の森にある385坪の別荘地が０円",https://zero.estate/?p=11183,受付終了,137.8378921,36.3795666,
"長野県佐久市｜内山地区の傾斜がある約300坪の別荘地が０円",https://zero.estate/?p=11173,受付終了,138.6046663,36.2401476,
"北海道旭川市｜東旭川町桜岡地区・農地に囲まれた、桜岡駅からもっとも近い住宅が土地建物０円",https://zero.estate/?p=11140,受付終了,142.48468588628387,43.8025484875013,
"北海道小清水町｜１階に小売店舗、２階にスナック、旧こしみずショッピングセンターが０円",https://zero.estate/?p=11107,受付終了,144.45972943175568,43.85052663400456,
"三重県津市｜白山町にある別荘地「バラード青山」内の土地一区画を０円で譲渡",https://zero.estate/?p=11085,募集中,136.3093720725541,34.689249995777644,
"愛媛県八幡浜市｜大平地区の段々畑の中にある一軒家および山林が０円",https://zero.estate/?p=10873,受付終了,132.4322363,33.4723313,
"宮城県涌谷町｜５００坪以上のお庭がついた、縁側のある平家戸建が土地建物０円",https://zero.estate/?p=10989,受付終了,141.1381363537729,38.521885928930246,
"千葉県横芝光町｜栗山川の中流付近、約50坪の未使用山林を０円で譲渡",https://zero.estate/?p=10962,受付終了,140.51121132024207,35.643436058446326,
"北海道美唄市｜剣道場が住居に併設、広々とした２階建空き家が０円",https://zero.estate/?p=10857,受付終了,141.89274752529684,43.33380559404556,
"茨城県坂東市｜太陽光発電施設の並び、道路に面していない199坪の土地が０円",https://zero.estate/?p=10859,受付終了,139.92536952922504,36.048499998756895,
"北海道小樽市｜増毛連山を眺める、見晴らしのよい一軒家が０円",https://zero.estate/?p=10809,受付終了,141.00017623861964,43.17958643729844,
"千葉県山武市｜周りを住宅に囲まれた地区にある、未利用の土地を０円で譲渡",https://zero.estate/?p=10836,取引中止,140.45836839846356,35.620161926925284,
"北海道旭川市｜田園風景が間近にある、西神楽地区の２階建一軒家が０円",https://zero.estate/?p=8578,受付終了,142.3911073026919,43.68818405133596,
"北海道比布町｜比布駅から200ｍにあるコンパクトな宅地が０円",https://zero.estate/?p=10768,受付終了,142.4702153174537,43.87649296541068,
"神奈川県秦野市｜西田原地区の市道に面した山林７３坪が０円",https://zero.estate/?p=10756,受付終了,139.21039722922387,35.39519439876637,
"北海道白糠町｜日当たりの良い角地にある、４２４㎡の土地が０円",https://zero.estate/?p=10731,受付終了,144.12304121547595,42.977279279150366,
"北海道小樽市｜２階から海を一望、石段の中腹にある一軒家が０円",https://zero.estate/?p=10639,受付終了,141.02594531548246,43.17787757914046,
"北海道岩見沢市｜岩見沢ＩＣそば、遊歩道に面した１００坪の土地が０円",https://zero.estate/?p=10701,受付終了,141.76637974271776,43.17936140979987,
"北海道上川町｜上川駅すぐ裏にある、広いお庭付き古家が０円",https://zero.estate/?p=10668,受付終了,142.76688285313884,43.847186163221345,
"千葉県白子町｜平坦な土地の奥側に見える、34坪のコンパクトな山林が０円",https://zero.estate/?p=10627,受付終了,140.3509621,35.4432951,
"福井県敦賀市｜新疋田駅徒歩３分、エメラルドタウン南敦賀分譲地２区画がそれぞれ０円",https://zero.estate/?p=10591,受付終了,136.09750623856868,35.59652849193803,
"北海道比布町｜中心商店街の中に建つ、築５０年の旧呉服店・店舗兼住宅が０円",https://zero.estate/?p=10487,受付終了,142.472824015505,43.87535097911427,
"北海道小樽市｜すぐ裏を小川が流れる、天狗山そばにある三角形の宅地が０円",https://zero.estate/?p=10466,受付終了,140.9804403117539,43.18444573503922,
"群馬県嬬恋村｜北軽井沢にある奥軽井沢郷別荘地の100坪一区画が０円",https://zero.estate/?p=10412,受付終了,138.5541609394531,36.46835410195805,
"神奈川県相模原市｜県道５１０号線沿い、あわせて約６００坪となる土地２筆をまとめて０円",https://zero.estate/?p=10431,受付終了,139.28133097578427,35.575492995030515,
"北海道白老町｜北吉原地区にある未利用の分譲宅地、約86坪を０円で譲渡",https://zero.estate/?p=10442,受付終了,141.27560327612372,42.5302540435877,
"北海道遠軽町｜きれいな河川敷の真横に建つ、広々敷地の倉庫兼住宅が０円",https://zero.estate/?p=10393,受付終了,143.53264209121141,43.91972798509323,
"新潟県糸魚川市｜歩いて海水浴が楽しめる、青海海岸そばの情緒ある旧店舗兼居宅が０円",https://zero.estate/?p=10332,受付終了,137.78902511028937,37.01836518656987,
"静岡県函南町｜丹那地区にある１５０坪、南箱根ダイアランド別荘地の一区画が０円",https://zero.estate/?p=10262,取引中止,139.00506161419491,35.089649451058904,
"静岡県函南町｜平井地区にある422㎡、南箱根ダイアランド別荘地の一区画が０円",https://zero.estate/?p=10285,受付終了,138.99576548810586,35.08907999876501,
"栃木県那須塩原市｜那須塩原市無栗屋の山林、土地販売価格が０円",https://zero.estate/?p=10225,受付終了,139.9684758,36.955263,
"神奈川県山北町｜土地面積９ヘクタール、東京ドーム約２個分の山林が０円",https://zero.estate/?p=10202,受付終了,139.0366896801172,35.4320555869022,
"北海道士別市｜国道４０号線沿い、事業所が立ち並ぶ幹線道路に面した旧店舗兼住宅が土地建物０円",https://zero.estate/?p=10150,受付終了,,,
"北海道美唄市｜市内中心部近くの住宅街にある空き家が土地建物０円",https://zero.estate/?p=10055,受付終了,141.863539386516,43.32340504390932,
"神奈川県秦野市｜開発の進む期待の地、菩提地区の土地４０坪が０円",https://zero.estate/?p=10004,受付終了,139.1984834,35.4020065,
"静岡県函南町｜畑毛地区の伊豆エメラルドタウン別荘地４２坪が０円",https://zero.estate/?p=9993,受付終了,138.9853102,35.0825071,
"群馬県嬬恋村｜鬼押出し園に近い、北軽井沢の別荘・上下２室あわせて０円",https://zero.estate/?p=9915,受付終了,138.544056,36.455028,
"兵庫県赤穂市｜瀬戸内海を望む赤穂温泉そば、御崎地区の平屋建て一軒家が０円",https://zero.estate/?p=9864,受付終了,134.40638011526627,34.72712688931002,
"北海道富良野市｜山部地区の国道237号線そばにある、一軒家解体済みの宅地が０円",https://zero.estate/?p=9837,受付終了,142.38150002669144,43.23905189778847,
"三重県鳥羽市｜海まで５０メートル、風情ある一軒家が土地建物０円",https://zero.estate/?p=9788,受付終了,136.8332835132966,34.4998355418221,
"神奈川県秦野市｜西田原地区にある富士山を望む６５坪の土地が０円",https://zero.estate/?p=9732,受付終了,139.2116426,35.3944566,
"栃木県那須町｜四季を愛でる安らぎの地、那須町にある高原別荘地が０円",https://zero.estate/?p=9714,受付終了,140.03497609723365,37.11242855960227,
"北海道士別市｜市内中心部に近い、相続人不存在となった平屋建て一軒家が土地建物０円",https://zero.estate/?p=9518,受付終了,,,
"北海道旭川市｜忠和地区にあるアンテナ鉄塔がそびえ立つ２階建一軒家が０円",https://zero.estate/?p=9368,受付終了,,,
"愛媛県八幡浜市｜温暖で風光明媚な町のコンパクトな庭付き２階建一軒家が土地建物０円",https://zero.estate/?p=9230,受付終了,132.4246572755827,33.48273658965716,
"栃木県日光市｜文挟駅より徒歩４分、県道沿いの平屋建て事務所・土地をあわせて０円",https://zero.estate/?p=8728,受付終了,139.72564636400037,36.63503487525419,
"東京都町田市｜野津田町にある２６９坪、土地２区画をあわせて０円",https://zero.estate/?p=8681,受付終了,139.4508471,35.5849347,
"千葉県山武市｜閑静な住宅街の中にある、管理の行き届いた93㎡の宅地を０円で譲渡",https://zero.estate/?p=8696,受付終了,140.37628890032565,35.64430337774304,
"静岡県伊豆の国市｜伊豆韮山の富士見ニュータウン別荘地にある一区画を０円で譲渡",https://zero.estate/?p=8597,受付終了,138.9827104234037,35.05244641418314,
"静岡県伊豆の国市｜伊豆の国市奈古谷にある45坪、伊豆エメラルドタウン別荘地が０円",https://zero.estate/?p=8399,受付終了,138.9955519,35.0781945,
"神奈川県大磯町｜大磯駅徒歩13分、敷地59坪の山林０円",https://zero.estate/?p=8393,受付終了,139.3134377,35.3133079,
"北海道厚岸町｜駅前の国道沿い、２階建住宅と旧クリーニング工場を土地建物あわせて０円",https://zero.estate/?p=8378,受付終了,144.92689965817755,43.104555953089026,
"北海道小樽市｜新光町の小樽ベイビュータウンに隣接する1100坪の広大な土地が０円",https://zero.estate/?p=8343,受付終了,141.07084154268776,43.17069272195757,
"愛媛県八幡浜市｜急峻な山の斜面に広がる、みかん畑を一望する一軒家２棟・土地・蔵を合わせて０円",https://zero.estate/?p=8231,受付終了,132.4522884639743,33.49988335859077,
"神奈川県横浜市｜井土ヶ谷駅徒歩13分、横浜市南区永田南にある35坪の土地０円",https://zero.estate/?p=8278,受付終了,139.59010570710134,35.432181790840325,
"静岡県伊豆の国市｜伊豆の国市韮山にある別荘地、105坪と108坪の２区画とも０円",https://zero.estate/?p=8292,受付終了,138.9964411,35.0632246,
"岩手県洋野町｜JR八戸線・角の浜駅徒歩７分の線路沿いにある土地が０円",https://zero.estate/?p=8315,受付終了,141.67884716164747,40.44272556925791,
"北海道浜頓別町｜旧下頓別駅そば、国道275号線沿いにある店舗併用住宅が０円",https://zero.estate/?p=8256,受付終了,142.31279900000004,45.048144,
"静岡県熱海市｜伊豆山の高台から相模湾を望む、中高齢者専用リゾートマンション５階の一室０円",https://zero.estate/?p=8194,受付終了,139.08472475296793,35.12466498505371,
"栃木県那須町｜四季折々を演出する９９坪の敷地、販売価格０円",https://zero.estate/?p=8212,受付終了,140.1591901,37.0419429,
"静岡県伊東市｜海に包まれて暮らす伊東市宇佐美の土地建物が０円",https://zero.estate/?p=8178,受付終了,139.08506874033645,34.995710207210074,
"北海道名寄市｜風連地区の自然に囲まれた1500坪の宅地・空き家が０円",https://zero.estate/?p=8076,受付終了,142.47897191537703,44.305940679104374,
"宮城県白石市｜山間地域にある、畑を一面に見渡す空き家が０円",https://zero.estate/?p=7974,受付終了,140.615683,37.952619,
"神奈川県山北町｜小田原市内・相模湾を望む小屋付き300坪の土地が０円",https://zero.estate/?p=8043,受付終了,139.0813914,35.3706792,
"北海道士別市｜市立病院近くの閑静な住宅街にある空き家が土地建物０円",https://zero.estate/?p=8056,受付終了,142.4041153722417,44.18096377318184,
"北海道美唄市｜駅まで１km、市役所そばの住宅街にある空き家が土地建物０円",https://zero.estate/?p=8018,受付終了,141.85219191548725,43.32765487913382,
"京都府伊根町｜伊根温泉リゾート内にある別荘地を０円で譲渡",https://zero.estate/?p=7947,受付終了,135.27435515647784,35.697805879898105,
"茨城県鉾田市｜小規模な菜園が楽しめる山林が販売価格０円",https://zero.estate/?p=7937,受付終了,140.5586251020378,36.132067879176226,
"静岡県伊豆の国市｜韮山の山麓にある富士見ニュータウン別荘地が販売価格０円",https://zero.estate/?p=7923,受付終了,138.9829166,35.0540577,
"北海道美唄市｜線路の真横に位置する、大きな木の下の宅地が０円",https://zero.estate/?p=7898,受付終了,141.85421764509647,43.335773987415415,
"神奈川県藤沢市｜藤沢市西俣野にある山林の販売価格０円",https://zero.estate/?p=7849,受付終了,139.4845588,35.369736,
"静岡県東伊豆町｜山と海と温泉が楽しめる伊豆大川の別荘地が販売価格０円",https://zero.estate/?p=7867,受付終了,139.0777663,34.8467054,
"静岡県東伊豆町｜自然を満喫できる南熱川別荘地の販売価格０円",https://zero.estate/?p=7859,受付終了,139.0350382,34.8042716,
"茨城県阿見町｜霞ヶ浦・土浦駐屯地そば、神社の裏手にある竹林が０円",https://zero.estate/?p=7824,受付終了,140.20719265992406,36.04729552488169,
"北海道室蘭市｜景観の良い高台にある、駅徒歩10分ほどの一軒家・土地つき０円",https://zero.estate/?p=7805,取引中止,140.97531074737475,42.36030827554044,
"北海道室蘭市｜窓から白鳥大橋を見渡せる、同一敷地内にある一戸建て２軒と土地をまとめて０円",https://zero.estate/?p=7676,受付終了,141.00066613328642,42.323651624827825,
"北海道美唄市｜豊富な自然に囲まれた幹線道路沿いの住宅地にある土地建物０円",https://zero.estate/?p=7767,受付終了,141.85164625823094,43.339456595555546,
"大分県豊後大野市｜三重町駅徒歩圏内にある平屋建住宅と土地を無償譲渡",https://zero.estate/?p=7539,受付終了,131.58181694545934,32.98220095718035,
"滋賀県彦根市｜彦根城・琵琶湖が近い、好立地にある約100坪の宅地を無償譲渡",https://zero.estate/?p=7499,受付終了,136.23832781524786,35.277313780290484,
"静岡県伊豆市｜伊豆の別荘地にある小屋・土地を０円で譲渡",https://zero.estate/?p=7469,受付終了,139.02151294127634,34.905859405615836,
"山梨県富士河口湖町｜山小屋とツリーハウスのある別荘地の販売価格０円",https://zero.estate/?p=7458,受付終了,138.62763435274132,35.42427778690592,
"北海道夕張市｜小高い丘の上にある一軒家が建物のみ０円",https://zero.estate/?p=7405,取引中止,141.96040621835033,43.047946528045124,
"茨城県常総市｜「水海道」駅より徒歩９分、車２台が駐車可能な古家付宅地が０円",https://zero.estate/?p=7388,受付終了,139.9962693,36.0230593,
"岐阜県郡上市｜スキー場近くにあり、一年通してレジャーが楽しめる別荘地が０円",https://zero.estate/?p=7353,受付終了,136.91644573199255,35.95434630443136,
"福島県西郷村｜那須白河にある、戸建付き2,836坪の広大な敷地が０円",https://zero.estate/?p=7218,受付終了,140.1367573,37.1642217,
"山口県美祢市｜緑豊かな中山間地域にある、田を見渡す一軒家が土地建物０円",https://zero.estate/?p=6670,受付終了,131.29626232860738,34.21638537681814,
"北海道函館市｜閑静な住宅街の中にある未利用の空き地を０円で譲渡",https://zero.estate/?p=6691,受付終了,140.79747943242867,41.825669648162176,
"静岡県伊豆の国市｜２つの世界遺産が同時に楽しめる、伊豆の国市浮橋の土地販売価格０円",https://zero.estate/?p=6655,受付終了,138.9805461411049,35.03680559877183,
"山梨県富士河口湖町｜ 光・水・緑と理想の別荘地「富士ドクタービレッジ」販売価格０円",https://zero.estate/?p=6125,受付終了,138.62763435274132,35.42427778690592,
"千葉県白子町｜南九十九里の広大な海のそば、白子町の土地販売価格０円",https://zero.estate/?p=6114,受付終了,140.38744504770833,35.42522219674787,
"神奈川県横須賀市｜船越町にある古屋付き1,700坪の敷地・販売価格０円",https://zero.estate/?p=6001,受付終了,139.61992502922377,35.30213889876779,
"静岡県伊豆の国市｜魅力ある温泉健康都市の別荘地、富士見ニュータウンの土地販売価格０円",https://zero.estate/?p=5843,受付終了,138.9976809,35.0614677,
"栃木県那須塩原市｜温泉と四季を堪能できる大自然、那須塩原市青木の土地販売価格０円",https://zero.estate/?p=5835,受付終了,140.0020537,36.9926099,
"北海道美唄市｜閑静な住宅街の角地に立つ、交通アクセス良好な一軒家・土地建物が０円",https://zero.estate/?p=5681,受付終了,141.88293031540158,43.33045088125878,
"神奈川県伊勢原市｜伊勢原市高森にある山林２区画・販売価格０円",https://zero.estate/?p=5663,受付終了,,,
"静岡県函南町｜「伊豆エメラルドタウン」伊豆半島一の広大な別荘地が販売価格０円",https://zero.estate/?p=5651,受付終了,138.9902584292234,35.087388898771074,
"兵庫県丹波篠山市｜市所有の医師住宅跡地を、子育て世代向けに無償譲渡",https://zero.estate/?p=5606,受付終了,135.26093041524467,35.16145558031877,
"茨城県石岡市｜広大な1,174坪の敷地、石岡市井関にある土地が販売価格０円",https://zero.estate/?p=5551,受付終了,140.31475842922518,36.136416698755646,
"千葉県長生村｜未来へつなぐ健康と平和な村、長生村の土地が販売価格０円",https://zero.estate/?p=5545,受付終了,140.3437749,35.40828,
"静岡県伊東市｜東急リゾート天城高原別荘地が販売価格０円",https://zero.estate/?p=5540,受付終了,139.047675029223,34.87630559877438,
"山梨県北杜市｜山紫水明の里、北杜市の土地が販売価格０円",https://zero.estate/?p=5526,受付終了,138.37284172922475,35.89277779875911,
"静岡県東伊豆町｜東伊豆町白田にある別荘地が販売価格０円",https://zero.estate/?p=5531,受付終了,139.003647229223,34.83299999877505,
"千葉県香取市｜歴史とともに時が緩やかに流れる地、香取市の土地販売価格０円",https://zero.estate/?p=5520,受付終了,140.4728952,35.8288974,
"静岡県裾野市｜富士急十里木高原別荘地が販売価格０円",https://zero.estate/?p=5481,受付終了,138.78754753806157,35.28323281902901,
"北海道今金町｜役場や町立病院が徒歩圏内、閑静な住宅街にある２階建住宅が０円",https://zero.estate/?p=5355,受付終了,140.0027832647032,42.42306300806823,
"静岡県東伊豆町｜自然豊かで、南傾斜の海が見渡せる別荘地が０円",https://zero.estate/?p=5073,受付終了,,,
"北海道沼田町｜国道275号そば、キャンプができる公園に近い、水回りリフォーム済みの住宅が０円",https://zero.estate/?p=5039,受付終了,141.9449095780495,43.80908761604087,
"島根県奥出雲町｜家の前に棚田が広がる古民家、たけのこが採れる山林と土蔵が付いて０円",https://zero.estate/?p=4935,受付終了,133.0332257608622,35.2224283122674,
"山形県大江町｜バス停が目の前にある、旧食料品店の6DK店舗兼住宅が０円",https://zero.estate/?p=4678,受付終了,140.17023341456652,38.37602067966163,
"埼玉県行田市｜利根川が近くを流れる、県境にある6DKの一軒家が０円",https://zero.estate/?p=4585,受付終了,139.49363223503914,36.18479875467586,
"栃木県那須町｜那須高原の中心地、関東自動車「広谷地」バス停まで約1.2ｋｍにある山林が０円",https://zero.estate/?p=4557,受付終了,139.9989716580043,37.042601135882755,
"長崎県佐世保市｜佐世保造船所近く、管理の行き届いた日当たりの良い土地が０円",https://zero.estate/?p=4506,受付終了,129.69912805290622,33.16640601805403,
"北海道南富良野町｜明治44年築、市街地中心部にあり築100年以上の歴史を持つ蔵が０円",https://zero.estate/?p=4166,取引中止,142.56656931548184,43.16341597914114,
"北海道西興部村｜国道239号線沿い、角地にある２階建て空き家が０円",https://zero.estate/?p=4059,受付終了,142.94791500866623,44.329570033363275,
"北海道白老町｜海近く、温暖で雪の少ない町にある分譲地が０円",https://zero.estate/?p=3759,受付終了,141.3032207341542,42.5348362239016,
"北海道士別市｜２万人都市の繁華街にある３階建てビル一棟まるごと、価格０円",https://zero.estate/?p=3553,受付終了,142.3936271173383,44.17727516378183,
"福島県三島町｜築１００年以上の囲炉裏付き古民家が０円",https://zero.estate/?p=3484,受付終了,139.63015885288794,37.44266020854398,
"北海道美唄市｜近接した２つの土地がいずれも０円【２/２】",https://zero.estate/?p=3390,受付終了,141.88482865817917,43.32973794586804,
"北海道美唄市｜近接した２つの土地がいずれも０円【１/２】",https://zero.estate/?p=3363,受付終了,141.8843085125212,43.32894328764198,
"北海道美深町｜牧場の敷地内で営むチーズ工房・事務所を車両込みで無償譲渡",https://zero.estate/?p=2458,受付終了,142.32669,44.4790612,
"北海道旭川市｜最寄り駅から徒歩１０分の宅地を無償で譲渡します",https://zero.estate/?p=2402,受付終了,142.3822021958324,43.68453060047766,
"北海道小清水町｜老舗の文具店・本屋を、建物・土地・営業権すべて０円で譲渡します",https://zero.estate/?p=1922,受付終了,144.45766839888915,43.85427215356931,
"岐阜県関ヶ原町｜歴史ある平屋建て住宅を０円で譲渡",https://zero.estate/?p=1941,受付終了,136.41587861524928,35.33528558027647,
"広島県三次市｜県道５１号線沿いの２階建て店舗兼住宅を諸費用のみで譲渡",https://zero.estate/?p=1123,受付終了,133.0729762913348,34.70052026397446,
"福島県三島町｜築３５年の二階建て中古住宅を無償譲渡",https://zero.estate/?p=1089,受付終了,139.58350843221027,37.395425286402464,
"島根県吉賀町｜柿木村木部谷にある民家を田畑を含めて無償譲渡します",https://zero.estate/?p=983,受付終了,131.9135555527124,34.45677522049035,
"三重県伊賀市｜上野鉄砲町の土間のある古民家を譲渡手続費用のみでお譲りいたします",https://zero.estate/?p=979,受付終了,136.12292102656912,34.759455236224746,
"三重県伊賀市｜敷地面積262㎡、木造平屋建て一軒家を０円で譲渡いたします",https://zero.estate/?p=975,受付終了,136.14501656861174,34.79662593501872,
"福島県三島町｜間取り6K・家財そのままの中古住宅を無償譲渡",https://zero.estate/?p=931,受付終了,139.6652680529708,37.48766675799759,
"島根県大田市｜移築希望、仁摩町にある大規模古民家を無償譲渡します",https://zero.estate/?p=874,受付終了,132.3864153616379,35.15344019050298,
"富山県立山町｜立山アルペンルートの玄関口、宅地６筆を諸費用のみでお譲りします",https://zero.estate/?p=703,受付終了,137.333422,36.627854,
"長崎市西小島２丁目｜近くに長崎港を望む絶景ポイントがある土地をお譲りします",https://zero.estate/?p=445,受付終了,129.8773173151809,32.73619353098438,
"長野県白馬村｜土地付き建物の販売価格が０円",https://zero.estate/?p=458,受付終了,137.77570981265512,36.708688935427375,
"長崎市油木町｜長崎県立総合体育館に近く、南側斜面地に立地する平家をお譲りします",https://zero.estate/?p=439,受付終了,129.84139133358528,32.78213649552538,
"長崎市川上町｜大浦地区の斜面地に立地しバス停に近い２階建をお譲りします",https://zero.estate/?p=431,受付終了,129.8725013756457,32.72799759956419,
"長崎市東立神町｜造船所を望む斜面地にある２階建をお譲りします",https://zero.estate/?p=424,受付終了,129.84324963356678,32.736958295743925,
"長崎市脇岬町｜野母崎の先端にあり漁港・海岸が近くの住宅をお譲りします",https://zero.estate/?p=419,受付終了,129.7805125667463,32.57554096653489,
"長崎県長崎市｜世界遺産を眼下に望む斜面地の家をお譲りします",https://zero.estate/?p=304,受付終了,129.8723774151809,32.7339876809851,
